{"type":"FeatureCollection","features":[{"type":"Feature","properties":{"cuenca":"NEUQUINA","tipo":"Productiva"},"geometry":{"type":"Polygon","coordinates":[[[-69.94445,-34.27823],[-69.91922,-34.27678],[-69.91537,-34.28557],[-69.80437,-34.41765],[-69.75665,-34.46024],[-69.67009,-34.52457],[-69.64138,-34.55011],[-69.59741,-34.56786],[-69.53817,-34.57783],[-69.47291,-34.56325],[-69.41315,-34.56083],[-69.34444,-34.5833],[-69.29654,-34.62985],[-69.25951,-34.70078],[-69.20521,-34.84208],[-69.18664,-35.00711],[-69.19599,-35.06943],[-69.18463,-35.14178],[-69.17087,-35.26839],[-69.13972,-35.40502],[-69.09307,-35.52822],[-69.07496,-35.60269],[-69.04509,-35.66921],[-69.00622,-35.81449],[-69.00143,-35.8679],[-69.00117,-35.94075],[-68.97817,-36.03127],[-68.96392,-36.13639],[-68.95911,-36.2094],[-68.9338,-36.30093],[-68.92508,-36.3853],[-68.88048,-36.53822],[-68.85544,-36.59797],[-68.82441,-36.65326],[-68.78641,-36.70692],[-68.72349,-36.78574],[-68.65657,-36.83572],[-68.54934,-36.88236],[-68.47025,-36.92237],[-68.39515,-36.95287],[-68.36416,-36.97349],[-68.2271,-37.04975],[-68.17225,-37.07666],[-68.01369,-37.16735],[-67.88107,-37.23001],[-67.50044,-37.44934],[-67.42639,-37.49973],[-67.34971,-37.5744],[-67.2887,-37.63933],[-67.21084,-37.7513],[-67.17811,-37.80525],[-67.15213,-37.86765],[-67.12839,-37.93668],[-67.09906,-38.04999],[-67.06891,-38.11416],[-66.99602,-38.24258],[-66.94089,-38.31676],[-66.84807,-38.38135],[-66.77364,-38.4261],[-66.69928,-38.49045],[-66.64971,-38.53988],[-66.61284,-38.6187],[-66.58847,-38.70237],[-66.58295,-38.79576],[-66.58331,-38.83999],[-66.59049,-38.94807],[-66.62916,-39.05106],[-66.67379,-39.10486],[-66.75013,-39.16827],[-66.85165,-39.21179],[-66.99115,-39.25001],[-67.124,-39.25863],[-67.23749,-39.24273],[-67.57783,-39.20422],[-67.81646,-39.15161],[-67.94892,-39.14947],[-68.04996,-39.15266],[-68.16439,-39.18006],[-68.5229,-39.32023],[-68.64538,-39.38138],[-68.73009,-39.44328],[-68.82842,-39.52443],[-68.9589,-39.60961],[-69.14931,-39.74704],[-69.22036,-39.76965],[-69.36751,-39.78512],[-69.4433,-39.77307],[-69.51857,-39.75117],[-69.5694,-39.74961],[-69.64031,-39.76705],[-69.8488,-39.85363],[-69.94814,-39.91904],[-70.0468,-39.96966],[-70.13951,-40.02531],[-70.27035,-40.07457],[-70.28723,-40.07644],[-70.52888,-40.15219],[-70.61994,-40.18453],[-70.79462,-40.18241],[-70.88249,-40.18601],[-71.04249,-40.27075],[-71.27853,-40.35937],[-71.41624,-40.35895],[-71.59482,-40.34572],[-71.66145,-40.35411],[-71.66387,-40.34875],[-71.6738,-40.34458],[-71.67537,-40.32859],[-71.67209,-40.32283],[-71.67762,-40.30825],[-71.69504,-40.28976],[-71.72267,-40.27952],[-71.74132,-40.31165],[-71.75307,-40.31364],[-71.7578,-40.30949],[-71.76596,-40.31024],[-71.76784,-40.30685],[-71.76527,-40.29553],[-71.75969,-40.28428],[-71.76621,-40.27324],[-71.79581,-40.2687],[-71.79715,-40.26279],[-71.80752,-40.25432],[-71.80361,-40.24682],[-71.80894,-40.24318],[-71.81052,-40.23228],[-71.82405,-40.2334],[-71.82894,-40.23044],[-71.83375,-40.20905],[-71.81746,-40.2009],[-71.80366,-40.18822],[-71.80408,-40.18547],[-71.83086,-40.17349],[-71.8193,-40.15593],[-71.81591,-40.1402],[-71.80695,-40.13253],[-71.8081,-40.11047],[-71.80254,-40.10314],[-71.81667,-40.10439],[-71.82995,-40.11048],[-71.83001,-40.09245],[-71.82358,-40.08356],[-71.7995,-40.07547],[-71.78869,-40.08757],[-71.73671,-40.10085],[-71.72605,-40.11006],[-71.70445,-40.11564],[-71.69434,-40.12357],[-71.68703,-40.12232],[-71.66864,-40.07993],[-71.69002,-40.04161],[-71.69029,-40.02362],[-71.67652,-40.01232],[-71.67106,-39.99943],[-71.64835,-39.97219],[-71.64261,-39.96853],[-71.62849,-39.97683],[-71.62335,-39.97495],[-71.62435,-39.96663],[-71.61882,-39.95904],[-71.62809,-39.94133],[-71.62377,-39.92484],[-71.61857,-39.9217],[-71.60475,-39.92481],[-71.60239,-39.92255],[-71.60428,-39.91417],[-71.59438,-39.9029],[-71.59678,-39.89422],[-71.60944,-39.88318],[-71.61888,-39.87966],[-71.6332,-39.87947],[-71.64395,-39.85613],[-71.64902,-39.85441],[-71.67955,-39.86114],[-71.68541,-39.85836],[-71.69208,-39.84824],[-71.69165,-39.83972],[-71.68754,-39.83514],[-71.69221,-39.82591],[-71.67088,-39.8108],[-71.68732,-39.80512],[-71.68156,-39.79548],[-71.68546,-39.78162],[-71.68468,-39.76743],[-71.68743,-39.76074],[-71.70617,-39.7456],[-71.71321,-39.72972],[-71.69772,-39.70831],[-71.70643,-39.70384],[-71.7071,-39.69758],[-71.68031,-39.69579],[-71.6771,-39.69441],[-71.67623,-39.68881],[-71.6778,-39.68317],[-71.69124,-39.67875],[-71.69655,-39.66235],[-71.71482,-39.64949],[-71.71787,-39.64406],[-71.71974,-39.62966],[-71.70738,-39.62022],[-71.70057,-39.6009],[-71.70666,-39.58418],[-71.66112,-39.58668],[-71.63946,-39.58349],[-71.6207,-39.59743],[-71.61411,-39.61327],[-71.61562,-39.62442],[-71.6094,-39.62765],[-71.59589,-39.62509],[-71.58721,-39.6307],[-71.57379,-39.62565],[-71.56232,-39.60858],[-71.54343,-39.61273],[-71.52608,-39.6222],[-71.51154,-39.63472],[-71.50477,-39.63291],[-71.47897,-39.60844],[-71.46498,-39.586],[-71.47831,-39.57278],[-71.47079,-39.56],[-71.47143,-39.55459],[-71.47797,-39.55234],[-71.49799,-39.55965],[-71.50436,-39.55298],[-71.53397,-39.54195],[-71.53935,-39.53781],[-71.54084,-39.53198],[-71.53334,-39.51957],[-71.52328,-39.51553],[-71.5244,-39.50513],[-71.52213,-39.50305],[-71.49718,-39.49941],[-71.48089,-39.49343],[-71.46667,-39.47322],[-71.47046,-39.45977],[-71.46397,-39.45304],[-71.45098,-39.44913],[-71.45223,-39.4234],[-71.44568,-39.40207],[-71.45815,-39.38439],[-71.46006,-39.37331],[-71.45384,-39.37105],[-71.43581,-39.37275],[-71.40399,-39.35143],[-71.39937,-39.341],[-71.39881,-39.32366],[-71.39405,-39.30939],[-71.39813,-39.29652],[-71.39302,-39.28833],[-71.38047,-39.28516],[-71.37787,-39.27975],[-71.37825,-39.26992],[-71.39329,-39.26651],[-71.39809,-39.2516],[-71.38607,-39.23928],[-71.39241,-39.23256],[-71.39513,-39.22136],[-71.3854,-39.21668],[-71.38752,-39.20399],[-71.39651,-39.19883],[-71.40387,-39.18639],[-71.40587,-39.17216],[-71.40276,-39.16744],[-71.43034,-39.15033],[-71.43244,-39.14498],[-71.43105,-39.1391],[-71.42159,-39.13119],[-71.41808,-39.11686],[-71.40863,-39.1079],[-71.40659,-39.10196],[-71.42402,-39.06783],[-71.41881,-39.05729],[-71.41922,-39.04975],[-71.43115,-39.03183],[-71.42264,-39.01338],[-71.42959,-38.97811],[-71.41925,-38.96903],[-71.42238,-38.96105],[-71.43717,-38.9526],[-71.44158,-38.94646],[-71.43694,-38.92393],[-71.41195,-38.91952],[-71.38292,-38.90791],[-71.36044,-38.89029],[-71.33902,-38.87944],[-71.32535,-38.8781],[-71.31659,-38.88064],[-71.30626,-38.87685],[-71.2715,-38.85625],[-71.27059,-38.8413],[-71.27671,-38.83004],[-71.25552,-38.81248],[-71.24401,-38.81321],[-71.23281,-38.8286],[-71.22222,-38.82951],[-71.18364,-38.80779],[-71.14975,-38.79897],[-71.12567,-38.78073],[-71.11131,-38.77867],[-71.09913,-38.76622],[-71.09107,-38.76384],[-71.08351,-38.7686],[-71.07534,-38.76839],[-71.05728,-38.75414],[-71.04473,-38.75674],[-71.01201,-38.77337],[-70.97412,-38.76424],[-70.93667,-38.76946],[-70.93136,-38.74833],[-70.91104,-38.72304],[-70.89237,-38.7122],[-70.87738,-38.69688],[-70.88253,-38.68883],[-70.89614,-38.68072],[-70.90158,-38.66975],[-70.90061,-38.66328],[-70.8483,-38.61275],[-70.83572,-38.59597],[-70.83641,-38.55741],[-70.84761,-38.53325],[-70.8707,-38.51715],[-70.90802,-38.50585],[-70.92841,-38.49603],[-70.94734,-38.46309],[-70.96037,-38.46578],[-70.98237,-38.45531],[-70.98461,-38.45282],[-70.98097,-38.43915],[-70.99366,-38.42701],[-71.0024,-38.41305],[-70.99996,-38.33467],[-71.00839,-38.31039],[-71.00245,-38.29252],[-71.01144,-38.28291],[-71.02765,-38.2466],[-71.0277,-38.24031],[-71.02233,-38.22627],[-71.00996,-38.21182],[-70.9994,-38.17481],[-71.0011,-38.16997],[-71.02398,-38.16065],[-71.03156,-38.15141],[-71.03447,-38.13942],[-71.03158,-38.12892],[-71.02196,-38.11994],[-71.00816,-38.09869],[-71.01392,-38.09333],[-71.01674,-38.07974],[-71.03698,-38.06967],[-71.04648,-38.05833],[-71.04947,-38.04923],[-71.06528,-38.03777],[-71.06702,-38.02337],[-71.06244,-37.99363],[-71.0677,-37.98721],[-71.06901,-37.97954],[-71.06302,-37.96992],[-71.08787,-37.96055],[-71.094,-37.96225],[-71.115,-37.94974],[-71.10818,-37.93462],[-71.11405,-37.91754],[-71.10224,-37.90143],[-71.11033,-37.8892],[-71.12061,-37.88493],[-71.13628,-37.86015],[-71.14203,-37.85686],[-71.15836,-37.85603],[-71.16549,-37.85701],[-71.16914,-37.8609],[-71.17262,-37.85931],[-71.17242,-37.8546],[-71.16483,-37.85003],[-71.15723,-37.8353],[-71.14672,-37.83702],[-71.1345,-37.83193],[-71.12871,-37.82523],[-71.12932,-37.8208],[-71.13032,-37.81759],[-71.14377,-37.81607],[-71.15439,-37.81036],[-71.15504,-37.80305],[-71.16244,-37.79116],[-71.17176,-37.78578],[-71.17277,-37.77968],[-71.16462,-37.77135],[-71.1604,-37.77086],[-71.15979,-37.75563],[-71.16527,-37.75259],[-71.16776,-37.74533],[-71.1786,-37.74222],[-71.18729,-37.73502],[-71.188,-37.72603],[-71.19274,-37.7203],[-71.1922,-37.71017],[-71.19883,-37.70929],[-71.21295,-37.69851],[-71.21364,-37.68606],[-71.2011,-37.66304],[-71.20529,-37.65735],[-71.20268,-37.65145],[-71.20679,-37.6492],[-71.1984,-37.64181],[-71.19545,-37.63414],[-71.19686,-37.62814],[-71.17804,-37.61388],[-71.16807,-37.61152],[-71.16216,-37.6143],[-71.14891,-37.60813],[-71.12735,-37.58482],[-71.12833,-37.57243],[-71.13513,-37.56325],[-71.13349,-37.55283],[-71.13732,-37.54524],[-71.14987,-37.53975],[-71.14946,-37.53486],[-71.13933,-37.5317],[-71.13436,-37.52616],[-71.12972,-37.50753],[-71.1241,-37.50003],[-71.12616,-37.4953],[-71.11822,-37.48729],[-71.12172,-37.48281],[-71.11926,-37.46782],[-71.12173,-37.45709],[-71.13207,-37.44518],[-71.14338,-37.43864],[-71.14512,-37.42937],[-71.14922,-37.42787],[-71.14809,-37.42052],[-71.15648,-37.39898],[-71.15912,-37.39598],[-71.16757,-37.39748],[-71.18671,-37.3942],[-71.1927,-37.38454],[-71.20101,-37.37961],[-71.20187,-37.36311],[-71.19185,-37.35978],[-71.18897,-37.35374],[-71.1951,-37.34779],[-71.19698,-37.34002],[-71.20887,-37.33728],[-71.20795,-37.32013],[-71.21291,-37.31606],[-71.21278,-37.30815],[-71.21867,-37.29807],[-71.21581,-37.28092],[-71.22254,-37.27284],[-71.20866,-37.27098],[-71.19042,-37.2739],[-71.18529,-37.25773],[-71.17498,-37.25684],[-71.17598,-37.25126],[-71.16166,-37.24369],[-71.15769,-37.23311],[-71.16894,-37.22812],[-71.17094,-37.22439],[-71.13845,-37.21847],[-71.11625,-37.20736],[-71.12273,-37.19189],[-71.1286,-37.18973],[-71.13263,-37.17063],[-71.13792,-37.16497],[-71.13685,-37.14656],[-71.12371,-37.13383],[-71.1134,-37.13385],[-71.09872,-37.12559],[-71.09436,-37.11655],[-71.0978,-37.10866],[-71.10569,-37.10596],[-71.11288,-37.09454],[-71.12463,-37.09033],[-71.12462,-37.07127],[-71.14438,-37.06754],[-71.14579,-37.06062],[-71.13968,-37.05206],[-71.14213,-37.04317],[-71.1511,-37.02087],[-71.1569,-37.01803],[-71.15904,-37.01021],[-71.16869,-37.00344],[-71.1662,-36.99556],[-71.18797,-36.9938],[-71.1988,-36.98443],[-71.21575,-36.98186],[-71.221,-36.97833],[-71.22145,-36.97192],[-71.17618,-36.96645],[-71.17205,-36.96725],[-71.16752,-36.97478],[-71.1431,-36.97869],[-71.12949,-36.9747],[-71.12564,-36.96813],[-71.11873,-36.96567],[-71.10606,-36.96799],[-71.10057,-36.96225],[-71.09806,-36.9489],[-71.08777,-36.9356],[-71.08773,-36.92724],[-71.09563,-36.92316],[-71.10456,-36.92635],[-71.11269,-36.92327],[-71.12142,-36.92859],[-71.1419,-36.92712],[-71.14797,-36.91246],[-71.14867,-36.89939],[-71.14076,-36.89367],[-71.13084,-36.87108],[-71.12237,-36.86415],[-71.12682,-36.85762],[-71.13847,-36.85151],[-71.15278,-36.85745],[-71.16487,-36.85857],[-71.1809,-36.83956],[-71.16805,-36.82801],[-71.16158,-36.81612],[-71.15742,-36.81693],[-71.15895,-36.82298],[-71.15079,-36.82429],[-71.14326,-36.82238],[-71.14124,-36.81596],[-71.13255,-36.81234],[-71.12759,-36.76171],[-71.11944,-36.75333],[-71.12035,-36.73819],[-71.11143,-36.72542],[-71.11226,-36.71024],[-71.11943,-36.69787],[-71.11416,-36.68894],[-71.11396,-36.67828],[-71.10414,-36.67478],[-71.085,-36.67733],[-71.07919,-36.68708],[-71.07654,-36.70441],[-71.06413,-36.71193],[-71.04697,-36.70234],[-71.01276,-36.69544],[-71.0088,-36.68743],[-71.00749,-36.68146],[-71.0117,-36.66686],[-71.01557,-36.66169],[-71.02758,-36.66092],[-71.02767,-36.6484],[-71.03598,-36.64747],[-71.04233,-36.64264],[-71.04129,-36.62881],[-71.04818,-36.61938],[-71.0567,-36.6166],[-71.04872,-36.60866],[-71.04616,-36.59361],[-71.0482,-36.57852],[-71.05263,-36.57503],[-71.05382,-36.56886],[-71.04871,-36.55603],[-71.04102,-36.54788],[-71.04962,-36.52226],[-71.035,-36.506],[-71.03938,-36.49583],[-71.03586,-36.49092],[-71.03793,-36.47556],[-71.0346,-36.47042],[-71.01945,-36.47007],[-71.01124,-36.4838],[-70.99739,-36.48404],[-70.98991,-36.49177],[-70.98025,-36.49057],[-70.97378,-36.50005],[-70.95459,-36.4997],[-70.94637,-36.48832],[-70.93556,-36.48921],[-70.93473,-36.4846],[-70.92881,-36.48093],[-70.93054,-36.47419],[-70.92766,-36.47121],[-70.90782,-36.4722],[-70.88862,-36.464],[-70.88806,-36.45794],[-70.89422,-36.44867],[-70.88627,-36.43515],[-70.89098,-36.43194],[-70.89113,-36.42194],[-70.8872,-36.41361],[-70.89111,-36.40926],[-70.88857,-36.39766],[-70.88219,-36.39394],[-70.86334,-36.39568],[-70.86962,-36.40681],[-70.85388,-36.41365],[-70.8426,-36.4149],[-70.83688,-36.4129],[-70.83159,-36.40336],[-70.81663,-36.39364],[-70.79491,-36.41572],[-70.78946,-36.42785],[-70.77161,-36.42562],[-70.76067,-36.41769],[-70.75483,-36.40588],[-70.74637,-36.40298],[-70.73633,-36.40995],[-70.73877,-36.42654],[-70.71508,-36.4246],[-70.70905,-36.41353],[-70.70116,-36.40686],[-70.68833,-36.40381],[-70.68675,-36.3963],[-70.67874,-36.38719],[-70.68247,-36.36863],[-70.68803,-36.36686],[-70.69063,-36.35923],[-70.70211,-36.35781],[-70.70354,-36.34873],[-70.71131,-36.34493],[-70.71292,-36.33762],[-70.70751,-36.33488],[-70.70293,-36.31739],[-70.68656,-36.3068],[-70.68489,-36.30095],[-70.68922,-36.29838],[-70.68636,-36.283],[-70.69356,-36.27811],[-70.70609,-36.2759],[-70.70578,-36.26847],[-70.6908,-36.25513],[-70.67223,-36.24671],[-70.66853,-36.24094],[-70.63717,-36.23865],[-70.62591,-36.22434],[-70.63346,-36.21448],[-70.60895,-36.20446],[-70.60547,-36.19547],[-70.59942,-36.18989],[-70.58473,-36.18692],[-70.58302,-36.18049],[-70.57176,-36.17391],[-70.57194,-36.15703],[-70.58169,-36.14634],[-70.57688,-36.13718],[-70.56726,-36.1309],[-70.54405,-36.14127],[-70.53275,-36.14075],[-70.51016,-36.15444],[-70.50556,-36.16652],[-70.49799,-36.16741],[-70.48938,-36.17473],[-70.46918,-36.16955],[-70.44794,-36.16958],[-70.44055,-36.15861],[-70.42053,-36.15366],[-70.42124,-36.14302],[-70.41649,-36.13091],[-70.41903,-36.11601],[-70.41573,-36.10484],[-70.42324,-36.09344],[-70.4161,-36.08327],[-70.41529,-36.06557],[-70.40362,-36.05045],[-70.40002,-36.05277],[-70.37143,-36.04145],[-70.36801,-36.03671],[-70.37096,-36.03003],[-70.37604,-36.02776],[-70.37962,-35.99512],[-70.38877,-35.98201],[-70.4142,-35.97916],[-70.4245,-35.97326],[-70.41666,-35.96538],[-70.41671,-35.95841],[-70.40316,-35.95123],[-70.39147,-35.94983],[-70.38388,-35.93546],[-70.3694,-35.92192],[-70.40135,-35.92361],[-70.42355,-35.91449],[-70.4262,-35.91013],[-70.42399,-35.88836],[-70.42095,-35.88493],[-70.42358,-35.87524],[-70.4061,-35.86544],[-70.38374,-35.86493],[-70.3796,-35.84992],[-70.37473,-35.84518],[-70.33201,-35.8282],[-70.31179,-35.81116],[-70.32522,-35.80777],[-70.33436,-35.79691],[-70.36185,-35.80143],[-70.36378,-35.79243],[-70.37704,-35.78678],[-70.37554,-35.78088],[-70.38014,-35.77239],[-70.37941,-35.7646],[-70.37496,-35.75882],[-70.35991,-35.7521],[-70.36788,-35.72026],[-70.3799,-35.6921],[-70.3986,-35.68541],[-70.40146,-35.67763],[-70.40069,-35.66512],[-70.42208,-35.63194],[-70.42177,-35.62575],[-70.41643,-35.62107],[-70.39663,-35.61292],[-70.39126,-35.60165],[-70.3928,-35.58692],[-70.41176,-35.562],[-70.42073,-35.54656],[-70.42042,-35.53986],[-70.40305,-35.52082],[-70.38249,-35.51442],[-70.45208,-35.44722],[-70.44735,-35.42507],[-70.45038,-35.39807],[-70.42993,-35.37481],[-70.42096,-35.37086],[-70.42363,-35.34265],[-70.43988,-35.32062],[-70.44894,-35.31662],[-70.46933,-35.31186],[-70.50292,-35.31278],[-70.52067,-35.30589],[-70.53722,-35.30675],[-70.548,-35.30026],[-70.55945,-35.29904],[-70.56506,-35.2906],[-70.56548,-35.28017],[-70.57962,-35.27373],[-70.58507,-35.2649],[-70.57553,-35.25646],[-70.57364,-35.24848],[-70.56627,-35.24085],[-70.56505,-35.23066],[-70.56891,-35.22308],[-70.56093,-35.21973],[-70.54081,-35.20078],[-70.52405,-35.19649],[-70.46121,-35.19962],[-70.43298,-35.1938],[-70.40769,-35.18184],[-70.38409,-35.1545],[-70.3723,-35.14862],[-70.365,-35.14053],[-70.36242,-35.13403],[-70.37043,-35.11353],[-70.35902,-35.09679],[-70.37201,-35.0861],[-70.37105,-35.06908],[-70.37514,-35.04701],[-70.37105,-35.03223],[-70.35262,-34.99948],[-70.32544,-34.93217],[-70.30786,-34.90518],[-70.30241,-34.88698],[-70.27539,-34.85702],[-70.26687,-34.83334],[-70.25046,-34.81046],[-70.2549,-34.8006],[-70.27949,-34.7827],[-70.30386,-34.77677],[-70.30575,-34.76711],[-70.29867,-34.74942],[-70.28966,-34.7427],[-70.28435,-34.72917],[-70.27462,-34.71991],[-70.26474,-34.70275],[-70.22235,-34.66177],[-70.22004,-34.65516],[-70.22322,-34.63833],[-70.21362,-34.60377],[-70.19949,-34.59965],[-70.19394,-34.58809],[-70.1805,-34.58111],[-70.17094,-34.55455],[-70.15184,-34.53612],[-70.12347,-34.48918],[-70.08725,-34.46963],[-70.07379,-34.45414],[-70.05892,-34.44551],[-70.04784,-34.42648],[-70.02086,-34.4122],[-70.01359,-34.40428],[-70.01379,-34.39294],[-70.02718,-34.37513],[-70.02871,-34.3632],[-70.02409,-34.35602],[-70.01459,-34.35049],[-70.00205,-34.30421],[-69.9823,-34.2659],[-69.97696,-34.2605],[-69.94445,-34.27823]]]}}]}