{"type":"FeatureCollection","features":[{"type":"Feature","properties":{"nombre":"C1P-Gto. Centro Oeste P: Loma de la Lata - Beazley","empresa":"Transportadora de Gas del Norte S.A.","tipo":"Transporte"},"geometry":{"type":"MultiLineString","coordinates":[[[-68.6061,-38.4932],[-68.61,-38.4904],[-68.6103,-38.487],[-68.6123,-38.4856],[-68.6067,-38.4746],[-68.5877,-38.4681],[-68.5876,-38.4593],[-68.5792,-38.452],[-68.5759,-38.443],[-68.5763,-38.4383],[-68.5712,-38.4336],[-68.5627,-38.3753],[-68.5559,-38.3715],[-68.5449,-38.3582],[-68.5298,-38.3358],[-68.4587,-38.3197],[-68.3746,-38.2507],[-68.3691,-38.1936],[-68.3703,-38.1909],[-68.3685,-38.186],[-68.3699,-38.1815],[-68.3595,-38.168],[-68.3613,-38.1557],[-68.0589,-37.9303],[-67.9874,-37.8433]],[[-67.9874,-37.8433],[-67.9734,-37.825],[-67.8784,-37.7656],[-67.802,-37.7079],[-67.7785,-37.682],[-67.7698,-37.6766],[-67.7505,-37.6606],[-67.7593,-37.6308],[-67.7306,-37.5466],[-67.7258,-37.5468],[-67.6922,-37.4393],[-67.6584,-37.396],[-67.6418,-37.3813],[-67.6243,-37.3549],[-67.6135,-37.3453],[-67.6134,-37.3414],[-67.6171,-37.3323],[-67.5354,-37.1006]]]}},{"type":"Feature","properties":{"nombre":"Int. en Distrito Oeste","empresa":"Transportadora de Gas del Sur S.A.","tipo":"Transporte"},"geometry":{"type":"MultiLineString","coordinates":[[[-68.9777,-38.7496],[-68.9797,-38.7523],[-68.9777,-38.7526],[-69.02,-38.7757],[-69.0701,-38.807],[-69.1135,-38.8476],[-69.1431,-38.8729],[-69.1768,-38.9088],[-69.1769,-38.911]],[[-69.1767,-38.911],[-69.1767,-38.9089],[-69.143,-38.873],[-69.1134,-38.8477],[-69.0699,-38.8071],[-69.0199,-38.7759],[-68.977,-38.7524],[-68.9795,-38.7523],[-68.9787,-38.7498],[-68.9009,-38.7515],[-68.895,-38.7461],[-68.8739,-38.7498],[-68.8362,-38.7491]],[[-68.7481,-38.7304],[-68.7444,-38.7607],[-68.72,-38.8045],[-68.7097,-38.8502],[-68.7144,-38.8619],[-68.7101,-38.9273],[-68.6656,-38.9601],[-68.644,-38.961],[-68.6431,-38.9635]],[[-68.6221,-38.463],[-68.6323,-38.4754],[-68.612,-38.4883]],[[-68.606,-38.471],[-68.6128,-38.4866],[-68.612,-38.4883]],[[-68.612,-38.4883],[-68.4944,-38.5599],[-68.4819,-38.5631],[-68.474,-38.5619],[-68.4698,-38.5668],[-68.4699,-38.5819],[-68.4212,-38.613],[-68.3851,-38.623],[-68.3641,-38.6347],[-68.334,-38.6479],[-68.241,-38.7096],[-68.1958,-38.7452]],[[-68.5959,-38.9683],[-68.596,-39.0667],[-68.6006,-39.085],[-68.5985,-39.099]],[[-68.187,-38.8709],[-68.2035,-38.8934],[-68.204,-38.8973]],[[-68.2036,-38.8989],[-68.1958,-38.9272]],[[-68.1978,-38.7479],[-68.1998,-38.7485],[-68.185,-38.8649],[-68.1872,-38.8704]],[[-68.1977,-38.7481],[-68.1996,-38.7485],[-68.1848,-38.8649],[-68.187,-38.8705]],[[-67.8743,-39.0062],[-67.8842,-39.0048],[-67.8762,-38.9666],[-67.8927,-38.9633],[-67.8926,-38.9519],[-67.8839,-38.9422],[-67.8836,-38.9256]],[[-66.5356,-39.0266],[-66.5313,-39.0335],[-66.5291,-39.0454],[-66.5284,-39.0706],[-66.5312,-39.0793]],[[-66.5355,-39.0264],[-66.5311,-39.0334],[-66.5289,-39.0454],[-66.5282,-39.0706],[-66.5311,-39.0791]]]}},{"type":"Feature","properties":{"nombre":"Gas Pacífico","empresa":"Gas del Pacífico","tipo":"Transporte"},"geometry":{"type":"MultiLineString","coordinates":[[[-70.4842,-37.2541],[-70.498,-37.2531],[-70.5099,-37.2592],[-70.5155,-37.2596],[-70.5325,-37.266],[-70.5519,-37.2696],[-70.5628,-37.2734],[-70.5682,-37.2716],[-70.5751,-37.2744],[-70.5847,-37.2725],[-70.5928,-37.2729],[-70.6244,-37.2581],[-70.6581,-37.2553],[-70.6628,-37.2524],[-70.6646,-37.2469],[-70.6685,-37.2458],[-70.6706,-37.2421],[-70.6821,-37.2396],[-70.689,-37.2318],[-70.6941,-37.2294],[-70.7259,-37.2364],[-70.7459,-37.2365],[-70.7581,-37.2382],[-70.7805,-37.2349],[-70.8266,-37.2238],[-70.8341,-37.2203],[-70.8483,-37.2257],[-70.8766,-37.2242],[-70.8818,-37.2219],[-70.8871,-37.2221],[-70.8946,-37.2251],[-70.9047,-37.2241],[-70.9107,-37.2194],[-70.9142,-37.2133],[-70.9221,-37.2117],[-70.9318,-37.2041],[-70.9379,-37.2037],[-70.9471,-37.1984],[-70.9557,-37.1979],[-70.9637,-37.1926],[-70.9706,-37.191],[-70.9933,-37.1927],[-71.0022,-37.1958],[-71.0069,-37.2002],[-71.0279,-37.204],[-71.0516,-37.2154],[-71.0611,-37.2158],[-71.0749,-37.22],[-71.1131,-37.2106],[-71.1202,-37.2115]],[[-69.5748,-37.641],[-69.6099,-37.6322],[-69.6705,-37.6218],[-69.7278,-37.5926],[-69.7703,-37.5884],[-69.7766,-37.5894],[-69.7901,-37.584],[-69.8267,-37.5562],[-69.834,-37.5534],[-69.858,-37.5229],[-69.8965,-37.4796],[-69.9408,-37.4314],[-69.949,-37.4252],[-69.9897,-37.4267],[-69.9947,-37.4288],[-70.0106,-37.4237],[-70.0197,-37.4242],[-70.0262,-37.4266],[-70.0312,-37.4259],[-70.0323,-37.425],[-70.0319,-37.4205],[-70.0913,-37.4043],[-70.1335,-37.3777],[-70.1608,-37.3644],[-70.2298,-37.3243],[-70.2392,-37.3212],[-70.2651,-37.3209],[-70.2691,-37.3246],[-70.276,-37.3271],[-70.2993,-37.3324],[-70.3073,-37.328],[-70.3184,-37.3156],[-70.3231,-37.3145],[-70.3471,-37.2932],[-70.374,-37.286],[-70.4302,-37.2617],[-70.4459,-37.26],[-70.463,-37.2616],[-70.4843,-37.254]],[[-68.6102,-38.4871],[-68.6125,-38.4854],[-68.6019,-38.4634],[-68.5937,-38.455],[-68.5932,-38.4127],[-68.6197,-38.3867],[-68.6412,-38.375],[-68.6677,-38.3633],[-68.6688,-38.3616],[-68.7162,-38.3419],[-68.8649,-38.2583],[-68.9521,-38.202],[-68.9757,-38.1836],[-68.9857,-38.1786],[-69.0384,-38.1425],[-69.0474,-38.1176],[-69.0473,-38.1132],[-69.0599,-38.0991],[-69.0603,-38.0847],[-69.0751,-38.0426],[-69.0794,-38.0392],[-69.0982,-38.0099],[-69.1044,-38.0053],[-69.1128,-38.0037],[-69.115,-38.0003],[-69.127,-37.9946],[-69.1339,-37.9892],[-69.2135,-37.9448],[-69.2562,-37.9267],[-69.2661,-37.919],[-69.2945,-37.8887],[-69.3156,-37.8761],[-69.3305,-37.8735],[-69.3353,-37.8709],[-69.3404,-37.867],[-69.3422,-37.8615],[-69.3749,-37.8443],[-69.3798,-37.8385],[-69.3829,-37.8222],[-69.4185,-37.7516],[-69.4408,-37.6998],[-69.4464,-37.6934],[-69.4593,-37.6855],[-69.4777,-37.6689],[-69.4957,-37.6616],[-69.5321,-37.6471],[-69.5747,-37.6412]]]}},{"type":"Feature","properties":{"nombre":"Cordillerano","empresa":"Transportadora de Gas del Sur S.A.","tipo":"Transporte"},"geometry":{"type":"MultiLineString","coordinates":[[[-70.4611,-40.3691],[-70.47,-40.3748],[-70.4762,-40.3888],[-70.4807,-40.3935],[-70.5005,-40.4024],[-70.5163,-40.403],[-70.5382,-40.401],[-70.5512,-40.4022],[-70.5553,-40.4034],[-70.5589,-40.4068],[-70.5765,-40.4085],[-70.581,-40.4122],[-70.6191,-40.4212],[-70.6219,-40.4261],[-70.6307,-40.431],[-70.6379,-40.4382]],[[-69.1744,-38.9129],[-69.1694,-38.9138],[-69.1661,-38.9222],[-69.1729,-38.9305],[-69.1784,-38.9503],[-69.1982,-38.9628],[-69.2317,-39.0255],[-69.2342,-39.034],[-69.2341,-39.0414],[-69.2292,-39.052],[-69.2287,-39.0598],[-69.2243,-39.0669],[-69.2742,-39.1383],[-69.2893,-39.1832],[-69.2974,-39.1959],[-69.3328,-39.2407],[-69.3521,-39.273],[-69.377,-39.2985],[-69.3776,-39.3244],[-69.3856,-39.3447],[-69.4031,-39.3694],[-69.4072,-39.38],[-69.4179,-39.397],[-69.3957,-39.4329],[-69.3952,-39.4448],[-69.382,-39.4556],[-69.3771,-39.4661],[-69.3717,-39.4733],[-69.3725,-39.5298],[-69.3713,-39.5337],[-69.3516,-39.5419],[-69.3418,-39.5498],[-69.3438,-39.553],[-69.4962,-39.695],[-69.6108,-39.7349],[-69.6941,-39.731],[-69.7352,-39.7163],[-69.824,-39.7819],[-69.9114,-39.847],[-70.0302,-39.9215],[-70.0307,-39.967],[-70.0445,-39.981],[-70.0536,-39.9927],[-70.0545,-39.9967],[-70.0504,-39.9996],[-70.0489,-40.0027],[-70.0513,-40.0063],[-70.0512,-40.012],[-70.0646,-40.0332],[-70.0989,-40.0544],[-70.1049,-40.0629],[-70.1248,-40.0728],[-70.1502,-40.0806],[-70.1728,-40.0848],[-70.199,-40.1113],[-70.1982,-40.1146],[-70.1997,-40.1179],[-70.2089,-40.1215],[-70.2199,-40.1313],[-70.2286,-40.1365],[-70.2449,-40.1424],[-70.2661,-40.1547],[-70.2754,-40.1619],[-70.2784,-40.1872],[-70.3003,-40.2021],[-70.3032,-40.2101],[-70.3068,-40.2134],[-70.3128,-40.2261],[-70.3253,-40.2367],[-70.3507,-40.2486],[-70.3801,-40.2734],[-70.3824,-40.2804],[-70.3929,-40.2903],[-70.4068,-40.3178],[-70.4234,-40.3263],[-70.4355,-40.3303],[-70.44,-40.3365],[-70.4429,-40.3503],[-70.4505,-40.3627],[-70.4527,-40.3652],[-70.4674,-40.3724],[-70.4761,-40.3889],[-70.4806,-40.3936],[-70.5004,-40.4026],[-70.5163,-40.4032],[-70.5382,-40.4012],[-70.5511,-40.4024],[-70.5552,-40.4036],[-70.5588,-40.407],[-70.5765,-40.4087],[-70.5809,-40.4124],[-70.619,-40.4214],[-70.6217,-40.4263],[-70.6306,-40.4312],[-70.6378,-40.4384]],[[-70.145,-40.0794],[-70.1727,-40.0849],[-70.1988,-40.1113],[-70.198,-40.1146],[-70.1996,-40.118],[-70.2088,-40.1216],[-70.2198,-40.1314],[-70.2285,-40.1366],[-70.2448,-40.1425],[-70.266,-40.1548],[-70.2752,-40.1619],[-70.2783,-40.1873],[-70.3002,-40.2022],[-70.303,-40.2102],[-70.3067,-40.2134],[-70.3127,-40.2262],[-70.3252,-40.2368],[-70.3506,-40.2486],[-70.3811,-40.2755]],[[-69.5882,-39.7266],[-69.6108,-39.735],[-69.6769,-39.7325],[-69.6942,-39.7311],[-69.7351,-39.7164],[-69.8239,-39.782],[-69.9112,-39.8472],[-69.9918,-39.8982],[-70.03,-39.9216],[-70.0308,-39.945]],[[-69.2106,-38.9859],[-69.2319,-39.0254],[-69.2344,-39.0339],[-69.2343,-39.0414],[-69.2294,-39.052],[-69.2288,-39.0599],[-69.2246,-39.0669],[-69.2743,-39.1382],[-69.2839,-39.1667],[-69.2892,-39.1833],[-69.3059,-39.2083],[-69.3326,-39.2408],[-69.352,-39.273],[-69.3768,-39.2985],[-69.3774,-39.3244],[-69.3817,-39.3345]]]}},{"type":"Feature","properties":{"nombre":"Gasoducto GasAndes Argentina S.A.","empresa":"Gasoducto Gasandes Argentina S.A.","tipo":"Transporte"},"geometry":{"type":"MultiLineString","coordinates":[[[-69.7729,-34.224],[-69.7732,-34.2244],[-69.8053,-34.2227]],[[-69.7081,-34.2077],[-69.7086,-34.2076],[-69.709,-34.2076],[-69.7266,-34.2114],[-69.7496,-34.221],[-69.7729,-34.224]],[[-69.0822,-34.2537],[-69.0849,-34.2538],[-69.0849,-34.2538],[-69.1155,-34.2554],[-69.1192,-34.2535],[-69.1194,-34.2535],[-69.1195,-34.2535],[-69.1196,-34.2535],[-69.1232,-34.2521],[-69.1238,-34.2521],[-69.124,-34.2521],[-69.1269,-34.2531],[-69.1273,-34.2533],[-69.1359,-34.2575],[-69.1362,-34.2576],[-69.1392,-34.2589],[-69.1394,-34.259],[-69.1419,-34.2604],[-69.1937,-34.2631],[-69.1941,-34.2632],[-69.1969,-34.2628],[-69.1971,-34.2628],[-69.1979,-34.2627],[-69.198,-34.2627],[-69.2979,-34.2616],[-69.298,-34.2617],[-69.2981,-34.262],[-69.2982,-34.2621],[-69.3305,-34.2576],[-69.349,-34.2576],[-69.349,-34.2576],[-69.349,-34.2576],[-69.3491,-34.2576],[-69.3491,-34.2576],[-69.3569,-34.2569],[-69.3598,-34.2559],[-69.3758,-34.2541],[-69.383,-34.2531],[-69.3908,-34.2531],[-69.4047,-34.247],[-69.4077,-34.2454],[-69.4224,-34.2457],[-69.4303,-34.2404],[-69.4383,-34.2354],[-69.4447,-34.2393],[-69.4656,-34.2452],[-69.4679,-34.2468],[-69.4756,-34.2472],[-69.4896,-34.2507],[-69.4997,-34.2482],[-69.5061,-34.2422],[-69.5157,-34.2265],[-69.5169,-34.22],[-69.5143,-34.2139],[-69.517,-34.2104],[-69.5171,-34.2104],[-69.5172,-34.2103],[-69.5173,-34.2102],[-69.5194,-34.2088],[-69.5206,-34.2081],[-69.5208,-34.2081],[-69.5257,-34.2049],[-69.5258,-34.2048],[-69.5258,-34.2048],[-69.5266,-34.2032],[-69.5279,-34.2003],[-69.536,-34.2013],[-69.5515,-34.1982],[-69.5572,-34.2027],[-69.5573,-34.2027],[-69.5574,-34.2028],[-69.5575,-34.2028],[-69.5599,-34.2015],[-69.5604,-34.1971],[-69.5629,-34.1961],[-69.5629,-34.1961],[-69.563,-34.1961],[-69.5631,-34.1961],[-69.5798,-34.1942],[-69.5855,-34.1969],[-69.5979,-34.1944],[-69.6167,-34.1932],[-69.6318,-34.1877],[-69.6448,-34.1777],[-69.645,-34.1776],[-69.6559,-34.1788],[-69.656,-34.1789],[-69.6561,-34.179],[-69.6661,-34.183],[-69.7037,-34.2085],[-69.7075,-34.2077],[-69.7076,-34.2077],[-69.7077,-34.2077],[-69.7081,-34.2077]]]}},{"type":"Feature","properties":{"nombre":"Chelforó - Conesa","empresa":"Transportadora de Gas del Sur S.A.","tipo":"Transporte"},"geometry":{"type":"LineString","coordinates":[[-66.5308,-39.079],[-66.4673,-39.0864],[-66.4206,-39.0858],[-66.3061,-39.0957],[-66.2445,-39.1119],[-66.2255,-39.1215],[-66.1714,-39.1618],[-66.1657,-39.1631],[-66.1485,-39.1617],[-66.0951,-39.1623],[-66.0944,-39.1662],[-66.081,-39.1678],[-66.0489,-39.1758],[-66.0102,-39.1887],[-65.9881,-39.1887],[-65.9653,-39.1836],[-65.9167,-39.1785],[-65.7773,-39.1963],[-65.7769,-39.1978],[-65.6991,-39.2387],[-65.6755,-39.2552],[-65.6528,-39.2742],[-65.6311,-39.2806],[-65.6024,-39.3078],[-65.5188,-39.3596],[-65.4478,-39.4199],[-65.3649,-39.4813]]}},{"type":"Feature","properties":{"nombre":"Medanito - Mainqué","empresa":"Transportadora de Gas del Sur S.A.","tipo":"Transporte"},"geometry":{"type":"LineString","coordinates":[[-67.948,-38.0596],[-67.9483,-38.1553],[-67.9738,-38.2069],[-67.9557,-38.2425],[-67.8784,-38.4394],[-67.7601,-38.7315],[-67.6707,-38.8645],[-67.6702,-38.8691],[-67.6801,-38.8974],[-67.6775,-38.9291],[-67.6682,-38.9306],[-67.6546,-38.9381],[-67.4694,-38.9747],[-67.4372,-38.9735],[-67.4186,-38.9751],[-67.3593,-38.9803],[-67.3031,-38.989]]}},{"type":"Feature","properties":{"nombre":"Neuba III","empresa":"Transportadora de Gas del Sur S.A.","tipo":"Transporte"},"geometry":{"type":"MultiLineString","coordinates":[[[-68.5703,-38.435],[-68.4084,-38.4749]],[[-68.4006,-38.4768],[-68.2912,-38.5038]],[[-67.3228,-38.9857],[-67.0763,-39.0238],[-67.0243,-39.0311],[-66.9627,-39.0329]]]}},{"type":"Feature","properties":{"nombre":"C1T-Gto. Centro Oeste T: Loma de la Lata - Beazley","empresa":"Transportadora de Gas del Norte S.A.","tipo":"Transporte"},"geometry":{"type":"MultiLineString","coordinates":[[[-68.6016,-38.5037],[-68.6006,-38.5041],[-68.6004,-38.4995],[-68.6103,-38.4917],[-68.6129,-38.4859],[-68.6066,-38.4748],[-68.5875,-38.4666],[-68.5876,-38.4595],[-68.5791,-38.4521],[-68.5756,-38.4424],[-68.5762,-38.4383],[-68.5711,-38.4336],[-68.5626,-38.3754],[-68.5567,-38.3725],[-68.5451,-38.3586],[-68.5298,-38.3359],[-68.4587,-38.3198],[-68.3745,-38.2509],[-68.3684,-38.1859],[-68.3698,-38.1815],[-68.3593,-38.168],[-68.3612,-38.1558],[-68.0587,-37.9303],[-67.9874,-37.8432]],[[-67.9874,-37.8431],[-67.9734,-37.8251],[-67.8785,-37.7658],[-67.802,-37.7081],[-67.7785,-37.6822],[-67.769,-37.6784],[-67.7631,-37.6709],[-67.7504,-37.6606],[-67.7591,-37.6308],[-67.7305,-37.5467],[-67.7254,-37.5463],[-67.6922,-37.4395],[-67.6581,-37.3959],[-67.6416,-37.3813],[-67.6235,-37.3541],[-67.6137,-37.3453],[-67.6136,-37.3416],[-67.6171,-37.3322],[-67.5355,-37.1008]]]}},{"type":"Feature","properties":{"nombre":"Neuba I","empresa":"Transportadora de Gas del Sur S.A.","tipo":"Transporte"},"geometry":{"type":"MultiLineString","coordinates":[[[-68.8362,-38.7491],[-68.8263,-38.748],[-68.8214,-38.7442],[-68.8142,-38.735],[-68.8076,-38.734],[-68.658,-38.7257],[-68.6141,-38.7272],[-68.5104,-38.7611],[-68.4995,-38.7679],[-68.4906,-38.7712],[-68.4737,-38.7727],[-68.2783,-38.8325],[-68.238,-38.8475],[-68.1612,-38.8824],[-68.0955,-38.9058],[-68.0722,-38.9193],[-68.0581,-38.9231],[-68.0467,-38.9181],[-68.0152,-38.917],[-68.0148,-38.9125],[-68.0024,-38.9123],[-68.0019,-38.9095],[-67.9672,-38.908],[-67.9531,-38.9166],[-67.9159,-38.9254],[-67.8065,-38.9253],[-67.7973,-38.9225],[-67.6984,-38.9314],[-67.6772,-38.9294],[-67.6686,-38.9307],[-67.6546,-38.9383],[-67.5358,-38.9618]],[[-67.5357,-38.9619],[-67.4678,-38.9752],[-67.4368,-38.9736],[-67.3525,-38.9814],[-67.0293,-39.0314],[-66.9038,-39.035],[-66.5759,-39.0293],[-66.535,-39.0264]],[[-66.535,-39.0264],[-66.5069,-39.0251],[-66.2974,-39.0367],[-66.0134,-39.0371],[-65.6468,-39.0304],[-65.5773,-39.0268],[-65.1839,-39.0316]],[[-66.5348,-39.0262],[-66.5116,-39.0248],[-66.4723,-39.027]]]}},{"type":"Feature","properties":{"nombre":"Huincul - Senillosa","empresa":"Transportadora de Gas del Sur S.A.","tipo":"Transporte"},"geometry":{"type":"LineString","coordinates":[[-69.1752,-38.913],[-69.1698,-38.9141],[-69.1133,-38.9447],[-68.9662,-38.9657],[-68.9554,-38.9622],[-68.9477,-38.9615],[-68.9422,-38.9623],[-68.9366,-38.9654],[-68.7142,-38.9573],[-68.5959,-38.9675],[-68.5562,-38.9711],[-68.4961,-38.96],[-68.4257,-38.9524]]}},{"type":"Feature","properties":{"nombre":"Neuba II","empresa":"Transportadora de Gas del Sur S.A.","tipo":"Transporte"},"geometry":{"type":"MultiLineString","coordinates":[[[-68.7089,-38.4107],[-68.6886,-38.4259],[-68.6735,-38.4273],[-68.6558,-38.4349],[-68.6322,-38.4572],[-68.6085,-38.4703],[-68.6016,-38.472],[-68.5875,-38.467],[-68.5874,-38.4597],[-68.579,-38.4522],[-68.5768,-38.4472],[-68.576,-38.4381],[-68.5725,-38.4349],[-68.5689,-38.4352],[-68.2909,-38.5039],[-67.9669,-38.5504],[-67.9646,-38.5538],[-67.9303,-38.5582],[-67.9099,-38.5706],[-67.9065,-38.5778],[-67.7817,-38.6802],[-67.7607,-38.7322],[-67.6717,-38.8646],[-67.6712,-38.8689],[-67.6809,-38.8974],[-67.6777,-38.9184],[-67.6728,-38.9259],[-67.6659,-38.9317],[-67.6546,-38.9379],[-67.4699,-38.9744],[-67.4345,-38.9735],[-67.3588,-38.9801],[-67.3255,-38.9853]],[[-67.3254,-38.9854],[-67.0239,-39.0314],[-66.9006,-39.0348],[-66.5644,-39.0289],[-66.5116,-39.0247],[-66.3062,-39.0364],[-66.02,-39.0371],[-65.877,-39.0347]]]}},{"type":"Feature","properties":{"nombre":"C1L-Gto. Centro Oeste L: Loma de la Lata - Beazley","empresa":"Transportadora de Gas del Norte S.A.","tipo":"Transporte"},"geometry":{"type":"MultiLineString","coordinates":[[[-68.1001,-37.961],[-68.0588,-37.9302],[-67.9875,-37.8434]],[[-67.9875,-37.8434],[-67.9876,-37.8417],[-67.9768,-37.829],[-67.9691,-37.8218],[-67.8787,-37.7657],[-67.8021,-37.7078],[-67.7796,-37.6836],[-67.7642,-37.6772],[-67.7652,-37.6733],[-67.7507,-37.6605],[-67.7594,-37.6306],[-67.7304,-37.5468],[-67.7254,-37.5468],[-67.692,-37.4395],[-67.6581,-37.396],[-67.6413,-37.3811],[-67.6237,-37.3547],[-67.6132,-37.345],[-67.6123,-37.3383],[-67.6155,-37.3364],[-67.6168,-37.3322],[-67.5529,-37.1496],[-67.5355,-37.1009]]]}},{"type":"Feature","properties":{"nombre":"Loma La Lata - Válvula 5","empresa":"Transportadora de Gas del Sur S.A.","tipo":"Transporte"},"geometry":{"type":"LineString","coordinates":[[-68.6017,-38.5036],[-68.5926,-38.5174],[-68.5894,-38.5324],[-68.5898,-38.5368],[-68.5924,-38.5394],[-68.5996,-38.544],[-68.6126,-38.5456],[-68.6223,-38.5501],[-68.6435,-38.5494],[-68.6764,-38.5568],[-68.7184,-38.6548],[-68.7198,-38.6625],[-68.7231,-38.6658],[-68.7473,-38.7219],[-68.7487,-38.7262],[-68.7472,-38.7301]]}},{"type":"Feature","properties":{"nombre":"Nestor Kirchner","empresa":"Transportadora de Gas del Sur S.A.","tipo":"Transporte"},"geometry":{"type":"LineString","coordinates":[[-68.5577,-38.4271],[-68.5523,-38.4317],[-68.535,-38.4321],[-68.4868,-38.4263],[-68.4823,-38.4228],[-68.4587,-38.417],[-68.4538,-38.4171],[-68.4525,-38.4154],[-68.3874,-38.4002],[-68.3154,-38.3527],[-68.1414,-38.3347],[-67.9943,-38.2663],[-67.987,-38.2391],[-67.9866,-38.2275],[-67.9795,-38.2053],[-67.9722,-38.2018],[-67.9593,-38.1761],[-67.9264,-38.1821],[-67.9221,-38.1817],[-67.893,-38.1686],[-67.8774,-38.1655],[-67.8683,-38.1712],[-67.8413,-38.1755],[-67.8372,-38.1747],[-67.7884,-38.1342],[-67.79,-38.1239],[-67.7748,-38.1036],[-67.7504,-38.0888],[-67.6686,-38.0698],[-67.6105,-38.0598],[-67.6085,-38.0574],[-67.5978,-38.0544],[-67.5715,-38.0425],[-67.4397,-37.9973],[-67.1647,-37.8832],[-67.1566,-37.8827],[-67.1559,-37.8778],[-67.1466,-37.8756],[-67.1129,-37.8604],[-67.1072,-37.8604],[-67.0992,-37.8558],[-66.8707,-37.7587],[-66.6623,-37.7168],[-66.6542,-37.7166],[-66.6482,-37.714],[-66.3283,-37.6488],[-66.3204,-37.6438],[-66.3134,-37.6299],[-66.3098,-37.6269],[-66.2997,-37.6266],[-66.2651,-37.6303],[-66.2494,-37.6338],[-66.2112,-37.6356],[-66.1895,-37.6242],[-65.7368,-37.5044],[-65.7355,-37.5025],[-65.6637,-37.4836],[-65.6585,-37.4839],[-65.6566,-37.482],[-65.4807,-37.4344],[-65.386,-37.4368],[-65.3368,-37.4259],[-65.3367,-37.423],[-65.2924,-37.414],[-65.2305,-37.3579],[-65.1593,-37.3324],[-64.9792,-37.2946],[-64.9091,-37.2773],[-64.8187,-37.2521],[-64.7837,-37.2524],[-64.7827,-37.2507],[-64.6713,-37.2363],[-64.5705,-37.1986],[-64.4768,-37.166],[-64.4353,-37.1673],[-64.43,-37.1585],[-64.4193,-37.146],[-64.415,-37.1455],[-64.3661,-37.1262],[-64.3463,-37.1211],[-64.3462,-37.1189],[-64.3171,-37.1097],[-64.3091,-37.1099],[-64.3036,-37.1049],[-64.2969,-37.1019],[-64.2756,-37.095],[-64.1666,-37.0835],[-64.1604,-37.0804],[-64.1486,-37.0828],[-64.0603,-37.082],[-63.8943,-37.078],[-63.6908,-37.0774],[-63.6204,-37.0749],[-63.5148,-37.0654],[-63.4552,-37.0623],[-63.2703,-37.0368],[-63.2244,-37.0275],[-63.2003,-37.0174],[-63.1667,-37.0077],[-63.1168,-36.9876],[-63.0785,-36.9745],[-63.0089,-36.9599],[-62.9787,-36.9582],[-62.8569,-36.9208],[-62.7914,-36.8948],[-62.7481,-36.883],[-62.6644,-36.8548],[-62.6624,-36.8526]]}}]}