{"type":"FeatureCollection","features":[{"type":"Feature","properties":{"provincia":"La Pampa"},"geometry":{"type":"Polygon","coordinates":[[[-63.3857,-35.0022],[-63.3833,-39.3285],[-63.4318,-39.3305],[-63.453,-39.3204],[-63.4574,-39.3288],[-63.4856,-39.3083],[-63.512,-39.3127],[-63.5412,-39.2967],[-63.5388,-39.2791],[-63.558,-39.2614],[-63.5661,-39.2663],[-63.5672,-39.258],[-63.5858,-39.257],[-63.593,-39.2459],[-63.6144,-39.2518],[-63.6176,-39.2359],[-63.6317,-39.2478],[-63.6334,-39.2274],[-63.6544,-39.2288],[-63.6579,-39.2188],[-63.6743,-39.2223],[-63.6717,-39.2036],[-63.6909,-39.2064],[-63.7142,-39.1984],[-63.7238,-39.1869],[-63.743,-39.1888],[-63.7372,-39.1794],[-63.7448,-39.1638],[-63.7637,-39.1547],[-63.7571,-39.1292],[-63.7772,-39.1284],[-63.7882,-39.1092],[-63.7972,-39.1093],[-63.7914,-39.1175],[-63.7974,-39.1239],[-63.835,-39.1363],[-63.8317,-39.1221],[-63.8418,-39.1092],[-63.8583,-39.1104],[-63.8703,-39.096],[-63.8796,-39.1004],[-63.8717,-39.1078],[-63.8979,-39.107],[-63.9115,-39.0871],[-63.9328,-39.0935],[-63.9265,-39.0752],[-63.9335,-39.0616],[-63.9571,-39.0542],[-63.9602,-39.0445],[-63.9986,-39.0356],[-64.0024,-39.025],[-63.9916,-39.0109],[-64.0236,-39.0175],[-64.0087,-39.0068],[-64.0137,-39.0009],[-64.0474,-38.999],[-64.0625,-39.01],[-64.064,-38.9917],[-64.1526,-38.9632],[-64.2301,-38.9241],[-64.2796,-38.914],[-64.294,-38.8976],[-64.3286,-38.9057],[-64.3486,-38.8835],[-64.3558,-38.8912],[-64.3652,-38.8827],[-64.3763,-38.8921],[-64.3966,-38.8867],[-64.3974,-38.8732],[-64.4134,-38.8838],[-64.4207,-38.8718],[-64.4319,-38.879],[-64.4764,-38.86],[-64.5152,-38.8684],[-64.5362,-38.8579],[-64.5381,-38.8656],[-64.5725,-38.8553],[-64.5964,-38.8592],[-64.6034,-38.8478],[-64.6294,-38.8528],[-64.634,-38.8448],[-64.6709,-38.8337],[-64.6935,-38.8437],[-64.7046,-38.8371],[-64.7347,-38.8411],[-64.8073,-38.816],[-64.8472,-38.8266],[-64.8771,-38.8145],[-64.8914,-38.8267],[-64.9243,-38.8332],[-64.9668,-38.8205],[-65.0336,-38.8175],[-65.1134,-38.7997],[-65.14,-38.8184],[-65.1671,-38.8023],[-65.1916,-38.8098],[-65.1862,-38.8293],[-65.1918,-38.8364],[-65.2561,-38.8317],[-65.2805,-38.8214],[-65.3745,-38.8559],[-65.3908,-38.8307],[-65.5025,-38.7981],[-65.5232,-38.7792],[-65.5695,-38.7848],[-65.5849,-38.7745],[-65.6243,-38.7875],[-65.6085,-38.7984],[-65.6171,-38.8087],[-65.6322,-38.8024],[-65.631,-38.8183],[-65.6464,-38.8094],[-65.6525,-38.8274],[-65.6911,-38.8348],[-65.7018,-38.8163],[-65.7126,-38.825],[-65.7486,-38.8104],[-65.7561,-38.8161],[-65.7782,-38.8116],[-65.7873,-38.7946],[-65.805,-38.8063],[-65.8111,-38.8026],[-65.8047,-38.7939],[-65.8202,-38.7887],[-65.8174,-38.7953],[-65.8244,-38.7988],[-65.8411,-38.7866],[-65.8643,-38.7998],[-65.8658,-38.789],[-65.8824,-38.7904],[-65.8771,-38.7779],[-65.9112,-38.7829],[-65.9125,-38.7649],[-65.9276,-38.7752],[-65.9255,-38.7642],[-65.9467,-38.7679],[-65.9445,-38.752],[-65.951,-38.7473],[-66.019,-38.7409],[-66.0307,-38.7513],[-66.032,-38.7389],[-66.0377,-38.7476],[-66.0549,-38.7427],[-66.0647,-38.7511],[-66.0846,-38.7253],[-66.107,-38.7277],[-66.1198,-38.7433],[-66.1205,-38.734],[-66.1331,-38.7393],[-66.155,-38.7289],[-66.1769,-38.7452],[-66.1802,-38.7313],[-66.1982,-38.7372],[-66.2074,-38.7313],[-66.218,-38.741],[-66.249,-38.7362],[-66.2883,-38.7557],[-66.2901,-38.7459],[-66.3084,-38.7429],[-66.3151,-38.7613],[-66.3233,-38.748],[-66.3418,-38.7577],[-66.3575,-38.7449],[-66.3891,-38.7384],[-66.4044,-38.7441],[-66.4076,-38.7306],[-66.4165,-38.7437],[-66.4418,-38.7456],[-66.464,-38.7315],[-66.4764,-38.7371],[-66.4757,-38.7274],[-66.4882,-38.7295],[-66.4988,-38.718],[-66.5386,-38.7209],[-66.5544,-38.6979],[-66.5752,-38.7014],[-66.5833,-38.6969],[-66.5788,-38.6905],[-66.6071,-38.6791],[-66.5954,-38.6747],[-66.5983,-38.6505],[-66.5782,-38.6228],[-66.6006,-38.5983],[-66.5953,-38.5897],[-66.6058,-38.5808],[-66.6099,-38.558],[-66.6338,-38.5568],[-66.6359,-38.5421],[-66.6927,-38.529],[-66.7122,-38.5318],[-66.7144,-38.521],[-66.7459,-38.5173],[-66.7861,-38.4805],[-66.812,-38.4848],[-66.8544,-38.4756],[-66.8716,-38.4634],[-66.8921,-38.462],[-66.897,-38.4437],[-66.9489,-38.4526],[-66.9704,-38.4426],[-66.9958,-38.4457],[-67.009,-38.4232],[-67.0918,-38.3996],[-67.1197,-38.356],[-67.1329,-38.3537],[-67.1414,-38.3616],[-67.153,-38.3568],[-67.1479,-38.3316],[-67.1582,-38.3061],[-67.1531,-38.2913],[-67.1724,-38.2792],[-67.1705,-38.2609],[-67.1966,-38.2538],[-67.1841,-38.2233],[-67.1876,-38.2145],[-67.2611,-38.2171],[-67.3171,-38.2476],[-67.3442,-38.2518],[-67.5479,-38.2563],[-67.5932,-38.2406],[-67.6565,-38.2018],[-67.6818,-38.1648],[-67.689,-38.1334],[-67.7075,-38.1234],[-67.7186,-38.1304],[-67.7301,-38.1148],[-67.7303,-38.0758],[-67.7476,-38.074],[-67.7507,-38.0561],[-67.7625,-38.0687],[-67.7819,-38.0519],[-67.8093,-38.0724],[-67.8352,-38.0559],[-67.8508,-38.0655],[-67.8497,-38.0518],[-67.8614,-38.0535],[-67.8831,-38.0188],[-67.8959,-38.0173],[-67.8884,-38.0004],[-67.8994,-37.998],[-67.9033,-37.9821],[-67.885,-37.9555],[-67.8706,-37.9506],[-67.8728,-37.9399],[-67.844,-37.9263],[-67.8462,-37.9177],[-67.7817,-37.8955],[-67.7805,-37.8874],[-67.7668,-37.8851],[-67.7365,-37.858],[-67.7208,-37.8106],[-67.7245,-37.792],[-67.74,-37.7886],[-67.7403,-37.7654],[-67.7604,-37.7434],[-67.7661,-37.722],[-67.761,-37.71],[-67.7737,-37.6877],[-67.7703,-37.6705],[-67.7856,-37.6523],[-67.8093,-37.6467],[-67.8443,-37.6194],[-67.8706,-37.6129],[-67.8766,-37.6191],[-67.9173,-37.6184],[-67.9442,-37.6032],[-67.9831,-37.6079],[-68.0292,-37.5964],[-68.0655,-37.598],[-68.0841,-37.5891],[-68.1068,-37.5962],[-68.1525,-37.5803],[-68.2193,-37.5882],[-68.2391,-37.585],[-68.2543,-37.5719],[-68.2458,-36.699],[-68.2502,-36.1725],[-68.2961,-36.1725],[-68.2964,-35.9976],[-65.1078,-35.9991],[-65.1068,-35.0153],[-63.3857,-35.0022]]]}},{"type":"Feature","properties":{"provincia":"Río Negro"},"geometry":{"type":"MultiPolygon","coordinates":[[[[-68.2383,-37.5852],[-68.2018,-37.5889],[-68.1525,-37.5803],[-68.1068,-37.5962],[-68.0841,-37.5891],[-68.0655,-37.598],[-68.0292,-37.5964],[-67.9831,-37.6079],[-67.9442,-37.6032],[-67.9173,-37.6184],[-67.8766,-37.6191],[-67.8706,-37.6129],[-67.8443,-37.6194],[-67.8093,-37.6467],[-67.7856,-37.6523],[-67.7703,-37.6705],[-67.7737,-37.6877],[-67.761,-37.71],[-67.7661,-37.722],[-67.7604,-37.7434],[-67.7403,-37.7654],[-67.74,-37.7886],[-67.7245,-37.792],[-67.7208,-37.8106],[-67.7365,-37.858],[-67.7668,-37.8851],[-67.7805,-37.8874],[-67.7817,-37.8955],[-67.8462,-37.9177],[-67.844,-37.9263],[-67.8728,-37.9399],[-67.8706,-37.9506],[-67.885,-37.9555],[-67.9033,-37.9821],[-67.8994,-37.998],[-67.8884,-38.0004],[-67.8959,-38.0173],[-67.8831,-38.0188],[-67.8614,-38.0535],[-67.8497,-38.0518],[-67.8508,-38.0655],[-67.8352,-38.0559],[-67.8093,-38.0724],[-67.7819,-38.0519],[-67.7625,-38.0687],[-67.7507,-38.0561],[-67.7476,-38.074],[-67.7303,-38.0758],[-67.7301,-38.1148],[-67.7186,-38.1304],[-67.7075,-38.1234],[-67.689,-38.1334],[-67.6818,-38.1648],[-67.6565,-38.2018],[-67.5932,-38.2406],[-67.5479,-38.2563],[-67.3442,-38.2518],[-67.3171,-38.2476],[-67.2611,-38.2171],[-67.1876,-38.2145],[-67.1841,-38.2233],[-67.1966,-38.2538],[-67.1705,-38.2609],[-67.1724,-38.2792],[-67.1531,-38.2913],[-67.1582,-38.3061],[-67.1479,-38.3316],[-67.153,-38.3568],[-67.1414,-38.3616],[-67.1329,-38.3537],[-67.1197,-38.356],[-67.0918,-38.3996],[-67.009,-38.4232],[-66.9958,-38.4457],[-66.9704,-38.4426],[-66.9489,-38.4526],[-66.897,-38.4437],[-66.8921,-38.462],[-66.8716,-38.4634],[-66.8544,-38.4756],[-66.812,-38.4848],[-66.7861,-38.4805],[-66.7459,-38.5173],[-66.7144,-38.521],[-66.7122,-38.5318],[-66.6927,-38.529],[-66.6359,-38.5421],[-66.6338,-38.5568],[-66.6099,-38.558],[-66.6058,-38.5808],[-66.5953,-38.5897],[-66.6006,-38.5983],[-66.5782,-38.6228],[-66.5983,-38.6505],[-66.5954,-38.6747],[-66.6071,-38.6791],[-66.5788,-38.6905],[-66.5833,-38.6969],[-66.5752,-38.7014],[-66.5544,-38.6979],[-66.5386,-38.7209],[-66.4988,-38.718],[-66.4882,-38.7295],[-66.4757,-38.7274],[-66.4764,-38.7371],[-66.464,-38.7315],[-66.4418,-38.7456],[-66.4165,-38.7437],[-66.4076,-38.7306],[-66.4044,-38.7441],[-66.3891,-38.7384],[-66.3575,-38.7449],[-66.3418,-38.7577],[-66.3233,-38.748],[-66.3151,-38.7613],[-66.3084,-38.7429],[-66.2901,-38.7459],[-66.2883,-38.7557],[-66.249,-38.7362],[-66.218,-38.741],[-66.2074,-38.7313],[-66.1982,-38.7372],[-66.1802,-38.7313],[-66.1769,-38.7452],[-66.155,-38.7289],[-66.1331,-38.7393],[-66.1205,-38.734],[-66.1198,-38.7433],[-66.107,-38.7277],[-66.0846,-38.7253],[-66.0647,-38.7511],[-66.0549,-38.7427],[-66.0377,-38.7476],[-66.032,-38.7389],[-66.0307,-38.7513],[-66.019,-38.7409],[-65.951,-38.7473],[-65.9445,-38.752],[-65.9467,-38.7679],[-65.9255,-38.7642],[-65.9276,-38.7752],[-65.9125,-38.7649],[-65.9112,-38.7829],[-65.8771,-38.7779],[-65.8824,-38.7904],[-65.8658,-38.789],[-65.8643,-38.7998],[-65.8411,-38.7866],[-65.8244,-38.7988],[-65.8174,-38.7953],[-65.8202,-38.7887],[-65.8047,-38.7939],[-65.8111,-38.8026],[-65.805,-38.8063],[-65.7873,-38.7946],[-65.7782,-38.8116],[-65.7561,-38.8161],[-65.7486,-38.8104],[-65.7126,-38.825],[-65.7018,-38.8163],[-65.6911,-38.8348],[-65.6525,-38.8274],[-65.6464,-38.8094],[-65.631,-38.8183],[-65.6322,-38.8024],[-65.6171,-38.8087],[-65.6085,-38.7984],[-65.6243,-38.7875],[-65.5849,-38.7745],[-65.5695,-38.7848],[-65.5232,-38.7792],[-65.5025,-38.7981],[-65.3908,-38.8307],[-65.3745,-38.8559],[-65.2805,-38.8214],[-65.2561,-38.8317],[-65.1918,-38.8364],[-65.1862,-38.8293],[-65.1916,-38.8098],[-65.1671,-38.8023],[-65.14,-38.8184],[-65.1134,-38.7997],[-65.0336,-38.8175],[-64.9668,-38.8205],[-64.9243,-38.8332],[-64.8914,-38.8267],[-64.8771,-38.8145],[-64.8472,-38.8266],[-64.8073,-38.816],[-64.7347,-38.8411],[-64.7046,-38.8371],[-64.6935,-38.8437],[-64.6709,-38.8337],[-64.634,-38.8448],[-64.6294,-38.8528],[-64.6034,-38.8478],[-64.5964,-38.8592],[-64.5725,-38.8553],[-64.5381,-38.8656],[-64.5362,-38.8579],[-64.5152,-38.8684],[-64.4764,-38.86],[-64.4319,-38.879],[-64.4207,-38.8718],[-64.4134,-38.8838],[-64.3974,-38.8732],[-64.3966,-38.8867],[-64.3763,-38.8921],[-64.3652,-38.8827],[-64.3558,-38.8912],[-64.3486,-38.8835],[-64.3286,-38.9057],[-64.294,-38.8976],[-64.2796,-38.914],[-64.2301,-38.9241],[-64.1526,-38.9632],[-64.064,-38.9917],[-64.0625,-39.01],[-64.0474,-38.999],[-64.0137,-39.0009],[-64.0087,-39.0068],[-64.0236,-39.0175],[-63.9916,-39.0109],[-64.0024,-39.025],[-63.9986,-39.0356],[-63.9602,-39.0445],[-63.9571,-39.0542],[-63.9335,-39.0616],[-63.9265,-39.0752],[-63.9328,-39.0935],[-63.9115,-39.0871],[-63.8979,-39.107],[-63.8717,-39.1078],[-63.8796,-39.1004],[-63.8703,-39.096],[-63.8583,-39.1104],[-63.8418,-39.1092],[-63.8317,-39.1221],[-63.835,-39.1363],[-63.7974,-39.1239],[-63.7914,-39.1175],[-63.7972,-39.1093],[-63.7882,-39.1092],[-63.7772,-39.1284],[-63.7571,-39.1292],[-63.7637,-39.1547],[-63.7448,-39.1638],[-63.7372,-39.1794],[-63.743,-39.1888],[-63.7238,-39.1869],[-63.7142,-39.1984],[-63.6909,-39.2064],[-63.6717,-39.2036],[-63.6743,-39.2223],[-63.6579,-39.2188],[-63.6544,-39.2288],[-63.6334,-39.2274],[-63.6317,-39.2478],[-63.6176,-39.2359],[-63.6144,-39.2518],[-63.593,-39.2459],[-63.5858,-39.257],[-63.5672,-39.258],[-63.5661,-39.2663],[-63.558,-39.2614],[-63.5388,-39.2791],[-63.5412,-39.2967],[-63.512,-39.3127],[-63.4856,-39.3083],[-63.4574,-39.3288],[-63.453,-39.3204],[-63.4318,-39.3305],[-63.3833,-39.3285],[-63.3793,-40.7104],[-63.3668,-40.7017],[-63.3716,-40.692],[-63.366,-40.6892],[-63.3572,-40.7003],[-63.3001,-40.7111],[-63.2971,-40.7237],[-63.2853,-40.7294],[-63.1921,-40.7167],[-63.1136,-40.7474],[-63.0967,-40.7628],[-63.0472,-40.7732],[-63.0311,-40.7944],[-62.9972,-40.7985],[-62.9804,-40.8155],[-62.9576,-40.8181],[-62.9422,-40.8427],[-62.879,-40.8948],[-62.8454,-40.9409],[-62.802,-40.9826],[-62.7897,-41.0242],[-62.8324,-41.0562],[-62.8845,-41.0794],[-62.993,-41.1095],[-63.0533,-41.144],[-63.1165,-41.1555],[-63.2291,-41.1592],[-63.321,-41.1511],[-63.4373,-41.162],[-63.7886,-41.159],[-63.8865,-41.1305],[-63.9226,-41.0921],[-63.9585,-41.0731],[-64.1144,-41.0301],[-64.0818,-41.0267],[-64.1041,-41.007],[-64.0989,-41.0018],[-64.1091,-41.0098],[-64.0959,-41.0187],[-64.112,-41.0229],[-64.2062,-41.0098],[-64.3114,-40.956],[-64.3951,-40.9271],[-64.4074,-40.9132],[-64.4666,-40.9005],[-64.5412,-40.8649],[-64.7463,-40.8186],[-64.8753,-40.8289],[-64.8979,-40.8182],[-64.9049,-40.8055],[-64.8452,-40.7825],[-64.8566,-40.8037],[-64.845,-40.8059],[-64.8453,-40.8149],[-64.838,-40.7956],[-64.8431,-40.789],[-64.836,-40.7858],[-64.7952,-40.8021],[-64.742,-40.8107],[-64.7492,-40.8052],[-64.7342,-40.8026],[-64.7538,-40.7944],[-64.7336,-40.7869],[-64.7586,-40.7679],[-64.7694,-40.7748],[-64.7694,-40.7674],[-64.7792,-40.7669],[-64.7906,-40.782],[-64.7975,-40.7805],[-64.792,-40.7591],[-64.8006,-40.7483],[-64.7735,-40.7428],[-64.8063,-40.7255],[-64.8221,-40.7304],[-64.8498,-40.7223],[-64.8474,-40.7159],[-64.9138,-40.7097],[-64.9574,-40.7101],[-64.9489,-40.7132],[-64.9518,-40.7198],[-64.9715,-40.716],[-64.9642,-40.7231],[-64.9691,-40.7253],[-64.9959,-40.7169],[-64.9699,-40.7272],[-64.9167,-40.7273],[-64.9222,-40.7405],[-64.9592,-40.7481],[-64.9244,-40.7478],[-64.8999,-40.7608],[-64.9493,-40.7558],[-65.0069,-40.7612],[-65.0927,-40.8146],[-65.1289,-40.8568],[-65.1252,-40.8813],[-65.1497,-40.909],[-65.1667,-40.974],[-65.1573,-41.0519],[-65.1684,-41.0692],[-65.152,-41.1065],[-65.1477,-41.1452],[-65.1543,-41.1628],[-65.138,-41.2296],[-65.1218,-41.2533],[-65.1171,-41.2837],[-65.0989,-41.3214],[-65.1016,-41.3357],[-65.0736,-41.3922],[-65.0736,-41.4152],[-65.0529,-41.4318],[-65.0547,-41.4438],[-65.0439,-41.4625],[-65.0003,-41.4861],[-64.9878,-41.5188],[-64.9922,-41.5442],[-65.0067,-41.5573],[-64.9989,-41.5736],[-64.9864,-41.5768],[-64.9972,-41.5763],[-65.0165,-41.6103],[-65.0265,-41.6112],[-65.0254,-41.604],[-65.031,-41.5968],[-65.0371,-41.5982],[-65.0227,-41.6184],[-65.0272,-41.6732],[-65.0235,-41.6936],[-65.016,-41.6954],[-65.0234,-41.7038],[-65.021,-41.7332],[-64.9977,-41.7666],[-65.0127,-41.7797],[-65.0159,-41.8322],[-65.0397,-41.8309],[-65.0492,-41.8429],[-65.0491,-41.8634],[-65.0371,-41.873],[-65.0576,-41.8816],[-65.0567,-41.9007],[-65.0661,-41.9056],[-65.0615,-41.9342],[-65.0746,-41.9651],[-65.0693,-42.0],[-71.7737,-42.0],[-71.7945,-41.9616],[-71.7944,-41.9448],[-71.7831,-41.9443],[-71.7727,-41.9307],[-71.7977,-41.8429],[-71.7922,-41.8311],[-71.7515,-41.8245],[-71.7689,-41.8108],[-71.7741,-41.794],[-71.7685,-41.7861],[-71.7536,-41.7867],[-71.7763,-41.7675],[-71.7845,-41.7347],[-71.8101,-41.7207],[-71.7919,-41.703],[-71.7937,-41.695],[-71.8176,-41.6898],[-71.8178,-41.6699],[-71.8318,-41.675],[-71.8372,-41.6472],[-71.8572,-41.6451],[-71.8669,-41.6225],[-71.8854,-41.6064],[-71.8478,-41.5667],[-71.8176,-41.5756],[-71.8305,-41.5603],[-71.8281,-41.5512],[-71.8475,-41.5354],[-71.8524,-41.5155],[-71.8286,-41.4806],[-71.8443,-41.4543],[-71.8358,-41.4326],[-71.8656,-41.4203],[-71.8709,-41.409],[-71.8651,-41.3977],[-71.8878,-41.3794],[-71.8898,-41.3675],[-71.9094,-41.3618],[-71.913,-41.3404],[-71.8995,-41.341],[-71.9009,-41.3319],[-71.8825,-41.3244],[-71.8865,-41.3146],[-71.8764,-41.308],[-71.8769,-41.2965],[-71.8904,-41.2922],[-71.8967,-41.2789],[-71.8881,-41.2644],[-71.8984,-41.2551],[-71.8569,-41.2575],[-71.8343,-41.2718],[-71.8565,-41.2481],[-71.8457,-41.243],[-71.8603,-41.2333],[-71.8552,-41.2138],[-71.8736,-41.2062],[-71.8878,-41.1669],[-71.8871,-41.161],[-71.8394,-41.1495],[-71.8433,-41.1296],[-71.8362,-41.1182],[-71.8521,-41.0984],[-71.8461,-41.0815],[-71.8179,-41.0621],[-71.835,-41.051],[-71.8391,-41.0359],[-71.8607,-41.0307],[-71.8467,-41.0234],[-71.8315,-41.0297],[-71.7853,-41.0188],[-71.6076,-41.0349],[-71.5506,-41.0232],[-71.4564,-41.0417],[-71.3607,-41.0887],[-71.3062,-41.1001],[-71.2405,-41.0951],[-71.1749,-41.0562],[-71.1416,-41.056],[-71.1287,-41.0446],[-71.1147,-41.007],[-71.0886,-40.9972],[-71.1024,-40.9908],[-71.0603,-40.9808],[-71.051,-40.963],[-71.0364,-40.9559],[-71.043,-40.948],[-71.032,-40.9331],[-71.039,-40.889],[-71.0536,-40.8821],[-71.0468,-40.8712],[-71.0696,-40.8502],[-71.0857,-40.8525],[-71.1,-40.8404],[-71.0931,-40.8259],[-71.1193,-40.8041],[-71.1208,-40.7582],[-71.1025,-40.7466],[-71.0937,-40.7267],[-71.0297,-40.7244],[-71.0118,-40.6793],[-70.9765,-40.6487],[-70.8791,-40.6204],[-70.8686,-40.5985],[-70.8554,-40.5934],[-70.7331,-40.5801],[-70.7009,-40.5935],[-70.6539,-40.5913],[-70.6236,-40.5531],[-70.5497,-40.521],[-70.5425,-40.5036],[-70.4651,-40.5122],[-70.4372,-40.5228],[-70.4249,-40.5363],[-70.2984,-40.5044],[-70.2299,-40.5029],[-70.1706,-40.483],[-70.1749,-40.4276],[-70.1531,-40.414],[-70.103,-40.4057],[-70.0627,-40.3746],[-70.0496,-40.3178],[-70.0588,-40.249],[-70.0276,-40.2158],[-70.0021,-40.2032],[-69.992,-40.18],[-69.962,-40.1857],[-69.9503,-40.179],[-69.9707,-40.121],[-69.9948,-40.1031],[-70.0054,-40.0474],[-69.9709,-39.9777],[-69.9496,-39.9586],[-69.9335,-39.9554],[-69.9318,-39.9436],[-69.8946,-39.939],[-69.8659,-39.9109],[-69.8461,-39.9098],[-69.8253,-39.8963],[-69.8105,-39.8991],[-69.7922,-39.8831],[-69.7618,-39.8833],[-69.6971,-39.8464],[-69.6712,-39.8498],[-69.6507,-39.8362],[-69.63,-39.8429],[-69.5966,-39.8301],[-69.5867,-39.8153],[-69.5581,-39.8094],[-69.507,-39.8154],[-69.4936,-39.7963],[-69.4219,-39.7681],[-69.4093,-39.7487],[-69.3897,-39.7431],[-69.3903,-39.7316],[-69.3747,-39.7317],[-69.3665,-39.7178],[-69.349,-39.7121],[-69.343,-39.6804],[-69.314,-39.6539],[-69.29,-39.653],[-69.2937,-39.6455],[-69.2723,-39.629],[-69.2771,-39.5964],[-69.2263,-39.5713],[-69.1771,-39.5606],[-69.1128,-39.5147],[-69.0475,-39.5267],[-68.9999,-39.5152],[-68.9307,-39.461],[-68.9279,-39.438],[-68.9125,-39.4179],[-68.8865,-39.4025],[-68.8478,-39.393],[-68.824,-39.3749],[-68.8081,-39.3474],[-68.8185,-39.3126],[-68.8024,-39.2849],[-68.7546,-39.2696],[-68.6632,-39.215],[-68.6533,-39.1992],[-68.6608,-39.1723],[-68.5947,-39.1202],[-68.5617,-39.0765],[-68.5245,-39.0774],[-68.5158,-39.0664],[-68.5048,-39.0715],[-68.4692,-39.0457],[-68.4266,-39.0286],[-68.4123,-39.0344],[-68.355,-39.0019],[-68.3074,-38.9905],[-68.3016,-38.9754],[-68.2833,-38.9852],[-68.231,-38.9913],[-68.2076,-38.9712],[-68.1767,-38.9673],[-68.1654,-38.9798],[-68.1484,-38.975],[-68.078,-38.9951],[-68.0575,-38.9916],[-68.058,-38.9811],[-68.024,-38.9764],[-68.0035,-38.9947],[-67.9981,-38.9958],[-68.0119,-38.9793],[-68.0003,-38.9737],[-68.0086,-38.9684],[-68.0074,-38.9594],[-68.0394,-38.9419],[-68.0504,-38.9121],[-68.0692,-38.9029],[-68.0645,-38.8958],[-68.0748,-38.8836],[-68.0715,-38.8715],[-68.094,-38.8586],[-68.0812,-38.8483],[-68.0952,-38.8308],[-68.0928,-38.8196],[-68.1106,-38.8125],[-68.1058,-38.8045],[-68.1183,-38.7933],[-68.1139,-38.7847],[-68.1261,-38.7675],[-68.1206,-38.7473],[-68.1319,-38.7504],[-68.1631,-38.7379],[-68.1803,-38.7183],[-68.1894,-38.7228],[-68.1969,-38.7099],[-68.2213,-38.7081],[-68.2563,-38.6795],[-68.2543,-37.5719],[-68.2383,-37.5852]]],[[[-64.7655,-40.7835],[-64.76,-40.7744],[-64.7554,-40.7744],[-64.7541,-40.7775],[-64.7655,-40.7835]]],[[[-64.8366,-40.7522],[-64.8433,-40.7562],[-64.8368,-40.7514],[-64.8366,-40.7522]]],[[[-64.905,-40.74],[-64.9069,-40.7414],[-64.9069,-40.7392],[-64.905,-40.74]]]]}},{"type":"Feature","properties":{"provincia":"Mendoza"},"geometry":{"type":"Polygon","coordinates":[[[-69.184,-31.9994],[-69.1128,-32.0069],[-69.1164,-32.0205],[-69.0944,-32.0319],[-69.0645,-32.0755],[-69.0275,-32.092],[-69.0131,-32.1159],[-68.9568,-32.1089],[-68.9176,-32.1146],[-68.9176,-32.3379],[-68.6657,-32.3371],[-68.4612,-32.2381],[-68.4612,-32.1392],[-68.3011,-32.1392],[-68.2479,-32.0915],[-68.2054,-32.1212],[-68.1882,-32.1092],[-68.1515,-32.1192],[-68.1228,-32.0998],[-68.0931,-32.1009],[-68.0976,-32.0922],[-68.0807,-32.0846],[-68.0733,-32.099],[-68.0668,-32.0797],[-68.0529,-32.071],[-68.0567,-32.0761],[-68.0376,-32.0783],[-68.0328,-32.0857],[-67.9988,-32.0821],[-67.9893,-32.0972],[-67.982,-32.0879],[-67.9576,-32.0923],[-67.9628,-32.1191],[-67.9439,-32.1113],[-67.9431,-32.1211],[-67.9296,-32.1211],[-67.9382,-32.139],[-67.9246,-32.1454],[-67.9283,-32.1552],[-67.9165,-32.1752],[-67.9065,-32.172],[-67.8729,-32.188],[-67.8757,-32.1973],[-67.8476,-32.2134],[-67.8486,-32.2229],[-67.8383,-32.2151],[-67.8311,-32.2265],[-67.7913,-32.2235],[-67.7729,-32.2355],[-67.7717,-32.2254],[-67.7353,-32.223],[-67.7231,-32.2377],[-67.7294,-32.2409],[-67.7116,-32.2457],[-67.7071,-32.2353],[-67.6851,-32.2377],[-67.6763,-32.2252],[-67.6477,-32.24],[-67.6186,-32.2417],[-67.6071,-32.2324],[-67.5969,-32.2463],[-67.5803,-32.2367],[-67.5465,-32.2403],[-67.5224,-32.2212],[-67.5133,-32.2432],[-67.5016,-32.2389],[-67.4879,-32.2613],[-67.4844,-32.2938],[-67.4729,-32.3067],[-67.4267,-32.3275],[-67.3817,-32.3305],[-67.359,-32.3485],[-67.3319,-32.3506],[-67.3189,-32.3721],[-67.3205,-32.3892],[-67.3068,-32.4139],[-67.3101,-32.4247],[-67.2893,-32.4431],[-67.2975,-32.4465],[-67.3014,-32.4707],[-67.2831,-32.5127],[-67.2943,-32.5209],[-67.2973,-32.5361],[-67.2804,-32.5347],[-67.2628,-32.5531],[-67.2687,-32.5701],[-67.2481,-32.5877],[-67.244,-32.6032],[-67.2569,-32.6255],[-67.2377,-32.6344],[-67.225,-32.6822],[-67.1883,-32.6972],[-67.1925,-32.704],[-67.1802,-32.7175],[-67.1828,-32.7283],[-67.1663,-32.7587],[-67.1861,-32.7697],[-67.1768,-32.7869],[-67.178,-32.8203],[-67.2092,-32.8474],[-67.2099,-32.8564],[-67.2308,-32.8612],[-67.2324,-32.885],[-67.2311,-32.8979],[-67.2121,-32.9117],[-67.2104,-32.9459],[-67.1921,-32.9951],[-67.1793,-33.0035],[-67.1834,-33.0392],[-67.198,-33.0442],[-67.1825,-33.0563],[-67.1742,-33.0772],[-67.1833,-33.0854],[-67.1849,-33.1235],[-67.1672,-33.1662],[-67.1822,-33.1994],[-67.1802,-33.2522],[-67.1717,-33.2682],[-67.1772,-33.2749],[-67.1704,-33.3021],[-67.1524,-33.3256],[-67.1575,-33.3639],[-67.1483,-33.3881],[-67.1526,-33.4122],[-67.1431,-33.4283],[-67.1455,-33.4397],[-67.1312,-33.4512],[-67.1354,-33.4646],[-67.096,-33.5035],[-67.0992,-33.5175],[-67.0909,-33.5292],[-67.0964,-33.5328],[-67.0659,-33.55],[-67.0617,-33.5613],[-67.0673,-33.559],[-67.0689,-33.5664],[-67.0566,-33.581],[-67.0509,-33.5771],[-67.038,-33.6062],[-67.0182,-33.6099],[-66.9985,-33.6327],[-67.0055,-33.6384],[-66.9985,-33.6561],[-67.0048,-33.6673],[-66.9737,-33.6893],[-66.973,-33.7029],[-66.9494,-33.7313],[-66.8833,-33.7687],[-66.882,-33.8165],[-66.8733,-33.8329],[-66.8044,-33.8609],[-66.7848,-33.8876],[-66.7727,-33.8859],[-66.7686,-33.9021],[-66.749,-33.915],[-66.7359,-33.9115],[-66.7227,-33.9353],[-66.704,-33.9322],[-66.7018,-33.9385],[-66.6759,-33.9416],[-66.6786,-33.9491],[-66.6666,-33.9574],[-66.6712,-33.9728],[-66.6632,-33.9863],[-66.7082,-34.0247],[-66.6993,-34.0465],[-66.7157,-34.0578],[-66.7121,-34.101],[-66.7239,-34.1156],[-66.7224,-34.132],[-66.7337,-34.137],[-66.7252,-34.1471],[-66.7113,-34.1473],[-66.7303,-34.1821],[-66.7185,-34.1885],[-66.7295,-34.2074],[-66.7189,-34.2119],[-66.7246,-34.2219],[-66.748,-34.2224],[-66.7465,-34.2356],[-66.7622,-34.2281],[-66.7843,-34.2326],[-66.7872,-34.2519],[-66.8012,-34.2584],[-66.784,-34.272],[-66.7761,-34.2986],[-66.8028,-34.3057],[-66.7995,-34.3357],[-66.8119,-34.3451],[-66.7952,-34.3557],[-66.7869,-34.3777],[-66.7642,-34.3791],[-66.7653,-34.3892],[-66.776,-34.3937],[-66.7752,-34.41],[-66.7953,-34.4114],[-66.7544,-34.4431],[-66.7638,-34.4969],[-66.7546,-34.5303],[-66.7652,-34.5509],[-66.7572,-34.5666],[-66.7292,-34.5851],[-66.7266,-34.6102],[-66.7031,-34.6198],[-66.712,-34.6284],[-66.6959,-34.6536],[-66.6901,-34.6907],[-66.6769,-34.6906],[-66.6406,-34.7175],[-66.6497,-34.7583],[-66.6067,-34.7741],[-66.5952,-34.791],[-66.6025,-34.8021],[-66.5612,-34.8327],[-66.5445,-34.8821],[-66.5542,-34.8911],[-66.5547,-34.9105],[-66.5492,-34.9188],[-66.5375,-34.9176],[-66.5249,-34.9436],[-66.5457,-34.9693],[-66.5354,-34.9822],[-66.5323,-35.0053],[-66.5409,-35.0149],[-66.5226,-35.0198],[-66.5202,-35.0428],[-66.5266,-35.049],[-66.5145,-35.0521],[-66.521,-35.0636],[-66.512,-35.0829],[-66.5035,-35.0845],[-66.5071,-35.0907],[-66.4881,-35.0954],[-66.4978,-35.1076],[-66.4873,-35.1212],[-66.49,-35.132],[-66.4781,-35.1397],[-66.4945,-35.1581],[-66.4968,-35.1729],[-66.497,-35.1958],[-66.4833,-35.2091],[-66.4897,-35.2276],[-66.4842,-35.2408],[-66.5007,-35.2474],[-66.5195,-35.2743],[-66.5139,-35.2795],[-66.5181,-35.2879],[-66.4956,-35.3105],[-66.5143,-35.3888],[-66.5081,-35.3975],[-66.5218,-35.4078],[-66.5297,-35.4428],[-66.5171,-35.4707],[-66.5252,-35.5402],[-66.541,-35.5639],[-66.5702,-35.5812],[-66.5647,-35.6191],[-66.5477,-35.6388],[-66.5602,-35.6543],[-66.5623,-35.6825],[-66.5806,-35.7038],[-66.5807,-35.7686],[-66.5894,-35.7944],[-66.6222,-35.8484],[-66.6198,-35.8807],[-66.6267,-35.8979],[-66.6181,-35.903],[-66.6289,-35.9286],[-66.6171,-35.9483],[-66.6187,-35.9653],[-66.6378,-36.0006],[-68.2964,-35.9976],[-68.2961,-36.1725],[-68.2502,-36.1725],[-68.2474,-37.1709],[-68.2543,-37.5719],[-68.2613,-37.5753],[-68.2899,-37.559],[-68.3491,-37.5567],[-68.355,-37.5472],[-68.4012,-37.5587],[-68.4367,-37.5446],[-68.4518,-37.5312],[-68.4567,-37.5095],[-68.5049,-37.4541],[-68.5231,-37.4587],[-68.5486,-37.4498],[-68.5699,-37.4563],[-68.6137,-37.4386],[-68.6341,-37.4475],[-68.6966,-37.4423],[-68.7017,-37.4145],[-68.7216,-37.3889],[-68.7661,-37.3665],[-68.7835,-37.3676],[-68.8144,-37.3864],[-68.8492,-37.3901],[-68.8652,-37.4013],[-68.8847,-37.382],[-68.9281,-37.3799],[-68.943,-37.3718],[-68.9771,-37.3793],[-69.026,-37.3648],[-69.0455,-37.3345],[-69.0395,-37.3215],[-69.0493,-37.3147],[-69.0439,-37.3056],[-69.0497,-37.2884],[-69.0383,-37.2556],[-69.0641,-37.2236],[-69.089,-37.2202],[-69.1037,-37.2051],[-69.1313,-37.2027],[-69.1729,-37.1779],[-69.2077,-37.1714],[-69.2196,-37.1774],[-69.2617,-37.1556],[-69.2683,-37.1445],[-69.2861,-37.1445],[-69.2992,-37.1551],[-69.3349,-37.1514],[-69.3515,-37.164],[-69.3777,-37.1596],[-69.397,-37.1719],[-69.4216,-37.1693],[-69.4301,-37.1595],[-69.465,-37.1726],[-69.4962,-37.1753],[-69.5109,-37.1669],[-69.5296,-37.1744],[-69.5528,-37.1616],[-69.5761,-37.1631],[-69.5807,-37.1517],[-69.6275,-37.1437],[-69.6533,-37.1227],[-69.6991,-37.1006],[-69.7115,-37.1015],[-69.7545,-37.0701],[-69.7685,-37.0233],[-69.7643,-37.0013],[-69.7762,-36.9915],[-69.7788,-36.9632],[-69.7703,-36.9247],[-69.779,-36.9168],[-69.7725,-36.9009],[-69.7518,-36.8853],[-69.7597,-36.8715],[-69.7875,-36.8694],[-69.8196,-36.8491],[-69.8506,-36.8463],[-69.8736,-36.8114],[-69.9219,-36.7947],[-69.9277,-36.7833],[-69.92,-36.7623],[-69.9439,-36.7449],[-69.9475,-36.7216],[-69.9875,-36.6929],[-70.0122,-36.6955],[-70.0121,-36.6786],[-70.0221,-36.6658],[-70.0457,-36.6566],[-70.0759,-36.6066],[-70.1226,-36.571],[-70.1218,-36.5532],[-70.1376,-36.5279],[-70.1827,-36.4911],[-70.191,-36.4635],[-70.2016,-36.4539],[-70.2039,-36.4353],[-70.1959,-36.4217],[-70.2129,-36.3904],[-70.207,-36.3753],[-70.2147,-36.3655],[-70.2153,-36.3386],[-70.2254,-36.3271],[-70.2618,-36.3219],[-70.3032,-36.3405],[-70.3164,-36.3336],[-70.3389,-36.3369],[-70.3591,-36.3094],[-70.3597,-36.2922],[-70.3722,-36.2799],[-70.3706,-36.2238],[-70.395,-36.1943],[-70.3974,-36.1195],[-70.4255,-36.0953],[-70.4105,-36.0564],[-70.37,-36.0396],[-70.3806,-36.025],[-70.3782,-35.99],[-70.423,-35.9715],[-70.418,-35.9608],[-70.3914,-35.9517],[-70.387,-35.9396],[-70.3648,-35.9242],[-70.4111,-35.9236],[-70.424,-35.9147],[-70.422,-35.8766],[-70.4063,-35.8672],[-70.3813,-35.8669],[-70.3696,-35.8412],[-70.3575,-35.8428],[-70.312,-35.8132],[-70.3369,-35.7956],[-70.3584,-35.8012],[-70.3787,-35.7879],[-70.3801,-35.767],[-70.3583,-35.7496],[-70.3697,-35.7375],[-70.3745,-35.7006],[-70.3855,-35.6881],[-70.3988,-35.6867],[-70.4066,-35.6728],[-70.3975,-35.6637],[-70.4084,-35.6572],[-70.4107,-35.6452],[-70.4238,-35.6411],[-70.3847,-35.6051],[-70.41,-35.5592],[-70.4059,-35.5455],[-70.4136,-35.5285],[-70.3882,-35.5159],[-70.3683,-35.5195],[-70.386,-35.509],[-70.3942,-35.4853],[-70.4137,-35.4885],[-70.4465,-35.4632],[-70.4456,-35.4507],[-70.4323,-35.4457],[-70.4521,-35.4263],[-70.4383,-35.4132],[-70.452,-35.3916],[-70.4227,-35.3707],[-70.4184,-35.3537],[-70.4353,-35.3315],[-70.4319,-35.3183],[-70.4608,-35.3194],[-70.4683,-35.3129],[-70.5033,-35.3204],[-70.5125,-35.3103],[-70.5663,-35.2995],[-70.5833,-35.2702],[-70.5644,-35.2407],[-70.5681,-35.2238],[-70.5361,-35.1991],[-70.526,-35.1949],[-70.5179,-35.2066],[-70.4721,-35.2039],[-70.455,-35.1898],[-70.4399,-35.1937],[-70.375,-35.1702],[-70.3612,-35.1355],[-70.3701,-35.1121],[-70.3576,-35.099],[-70.3739,-35.0857],[-70.3763,-35.0509],[-70.3604,-35.0349],[-70.3638,-35.006],[-70.3337,-34.9899],[-70.3269,-34.976],[-70.3311,-34.9365],[-70.3183,-34.9304],[-70.3018,-34.8991],[-70.2891,-34.8923],[-70.2907,-34.8828],[-70.2763,-34.8763],[-70.28,-34.8523],[-70.2626,-34.8332],[-70.2581,-34.8075],[-70.2482,-34.7989],[-70.3091,-34.7695],[-70.3063,-34.7473],[-70.2593,-34.7302],[-70.2476,-34.6937],[-70.2159,-34.6834],[-70.2144,-34.6605],[-70.2243,-34.6409],[-70.217,-34.6107],[-70.1998,-34.6019],[-70.205,-34.5958],[-70.1906,-34.5893],[-70.1946,-34.5797],[-70.1745,-34.5704],[-70.1444,-34.5329],[-70.1294,-34.4856],[-70.1154,-34.4759],[-70.1017,-34.4821],[-70.0824,-34.4726],[-70.0541,-34.4485],[-70.0418,-34.4234],[-70.0303,-34.4244],[-70.0123,-34.4119],[-70.0094,-34.3935],[-70.0242,-34.3737],[-70.0147,-34.3354],[-70.0308,-34.2877],[-70.0042,-34.2623],[-69.9868,-34.2609],[-69.9724,-34.25],[-69.9403,-34.2802],[-69.9099,-34.2921],[-69.8985,-34.2854],[-69.897,-34.2659],[-69.8726,-34.2676],[-69.8544,-34.2569],[-69.8072,-34.2484],[-69.7967,-34.2105],[-69.8153,-34.1779],[-69.8733,-34.1311],[-69.8558,-34.1157],[-69.8598,-34.1046],[-69.8341,-34.0882],[-69.8321,-34.0721],[-69.8474,-34.0687],[-69.854,-34.0563],[-69.8214,-34.0152],[-69.8392,-34.0069],[-69.8542,-33.9637],[-69.8731,-33.9642],[-69.8835,-33.9767],[-69.9062,-33.9633],[-69.8901,-33.9195],[-69.8555,-33.8921],[-69.8676,-33.8812],[-69.8734,-33.8608],[-69.8991,-33.8471],[-69.8937,-33.7912],[-69.9047,-33.7713],[-69.8646,-33.7168],[-69.8849,-33.6832],[-69.8803,-33.6596],[-69.8702,-33.6516],[-69.8782,-33.6463],[-69.8747,-33.624],[-69.8809,-33.6186],[-69.8653,-33.583],[-69.8722,-33.5395],[-69.8348,-33.5157],[-69.8295,-33.4763],[-69.8151,-33.4692],[-69.8221,-33.4537],[-69.814,-33.4427],[-69.8195,-33.4301],[-69.7956,-33.4214],[-69.7998,-33.4036],[-69.8155,-33.3899],[-69.7944,-33.3957],[-69.7797,-33.3852],[-69.7691,-33.3432],[-69.7999,-33.2879],[-69.8148,-33.2892],[-69.8372,-33.2726],[-69.8596,-33.2835],[-69.9043,-33.2729],[-69.9166,-33.2443],[-69.9159,-33.2668],[-69.9427,-33.2841],[-69.9503,-33.2813],[-69.9694,-33.3094],[-70.0009,-33.3229],[-70.0108,-33.3019],[-70.006,-33.2856],[-70.0383,-33.2704],[-70.0259,-33.2365],[-70.0545,-33.2263],[-70.0644,-33.2051],[-70.0655,-33.1795],[-70.0571,-33.1719],[-70.0656,-33.1557],[-70.0517,-33.1345],[-70.0758,-33.1206],[-70.0671,-33.0882],[-70.075,-33.0629],[-70.0937,-33.051],[-70.0797,-33.0389],[-70.0809,-33.0283],[-70.0347,-33.0231],[-70.021,-33.0085],[-70.0274,-32.9699],[-70.0203,-32.9563],[-69.9998,-32.9448],[-70.0072,-32.9312],[-69.9894,-32.899],[-70.0038,-32.8823],[-70.0447,-32.8699],[-70.0561,-32.8575],[-70.0559,-32.8311],[-70.0788,-32.8223],[-70.0924,-32.802],[-70.1082,-32.8011],[-70.1126,-32.7723],[-70.13,-32.7588],[-70.1373,-32.7321],[-70.1476,-32.7284],[-70.1466,-32.6524],[-70.1516,-32.6368],[-70.1723,-32.6221],[-70.1632,-32.5983],[-70.1507,-32.5815],[-70.1262,-32.5742],[-70.0918,-32.6014],[-70.0896,-32.6224],[-70.0654,-32.6255],[-70.0457,-32.6052],[-70.0412,-32.5845],[-70.0258,-32.5788],[-70.0262,-32.5589],[-70.0028,-32.5289],[-69.9798,-32.5325],[-69.964,-32.5467],[-69.9302,-32.5418],[-69.8995,-32.5625],[-69.8612,-32.5613],[-69.8469,-32.5705],[-69.8274,-32.5627],[-69.8306,-32.555],[-69.8216,-32.544],[-69.7788,-32.5424],[-69.7589,-32.5124],[-69.705,-32.4964],[-69.6962,-32.4659],[-69.6995,-32.4443],[-69.6892,-32.4302],[-69.7042,-32.4032],[-69.7332,-32.3906],[-69.7289,-32.3308],[-69.7215,-32.3142],[-69.6804,-32.3043],[-69.652,-32.2695],[-69.6303,-32.2621],[-69.6292,-32.245],[-69.6034,-32.2106],[-69.6099,-32.2021],[-69.595,-32.1665],[-69.5962,-32.1409],[-69.561,-32.1314],[-69.5585,-32.1401],[-69.5311,-32.141],[-69.5076,-32.1254],[-69.5056,-32.1138],[-69.4768,-32.1111],[-69.4713,-32.0906],[-69.4548,-32.0747],[-69.4316,-32.0766],[-69.4157,-32.0665],[-69.3904,-32.0779],[-69.3786,-32.0642],[-69.3142,-32.0911],[-69.3003,-32.0744],[-69.2768,-32.07],[-69.2624,-32.0332],[-69.2445,-32.0161],[-69.184,-31.9994]]]}},{"type":"Feature","properties":{"provincia":"Neuquén"},"geometry":{"type":"Polygon","coordinates":[[[-70.3974,-36.1195],[-70.395,-36.1943],[-70.3706,-36.2238],[-70.3722,-36.2802],[-70.3597,-36.2922],[-70.3606,-36.3059],[-70.3439,-36.3333],[-70.3034,-36.3406],[-70.2667,-36.3224],[-70.2254,-36.3271],[-70.2153,-36.3386],[-70.2147,-36.3655],[-70.207,-36.3753],[-70.2129,-36.3904],[-70.1959,-36.4217],[-70.2039,-36.4353],[-70.2016,-36.4539],[-70.191,-36.4635],[-70.1827,-36.4911],[-70.1376,-36.5279],[-70.1218,-36.5532],[-70.1226,-36.571],[-70.0759,-36.6066],[-70.0457,-36.6566],[-70.0221,-36.6658],[-70.0121,-36.6786],[-70.0122,-36.6955],[-69.9875,-36.6929],[-69.9475,-36.7216],[-69.9439,-36.7449],[-69.92,-36.7623],[-69.9277,-36.7833],[-69.9219,-36.7947],[-69.8736,-36.8114],[-69.8506,-36.8463],[-69.8196,-36.8491],[-69.7875,-36.8694],[-69.7597,-36.8715],[-69.7521,-36.8862],[-69.7725,-36.9009],[-69.779,-36.9168],[-69.7703,-36.9247],[-69.7788,-36.9632],[-69.7763,-36.9912],[-69.7646,-37.0003],[-69.7685,-37.0233],[-69.7556,-37.0686],[-69.7115,-37.1015],[-69.6991,-37.1006],[-69.6533,-37.1227],[-69.6275,-37.1437],[-69.5807,-37.1517],[-69.5761,-37.1631],[-69.5528,-37.1616],[-69.5296,-37.1744],[-69.5109,-37.1669],[-69.4962,-37.1753],[-69.465,-37.1726],[-69.4301,-37.1595],[-69.4216,-37.1693],[-69.397,-37.1719],[-69.3777,-37.1596],[-69.3515,-37.164],[-69.3349,-37.1514],[-69.2992,-37.1551],[-69.2861,-37.1445],[-69.2683,-37.1445],[-69.2617,-37.1556],[-69.2196,-37.1774],[-69.2077,-37.1714],[-69.1729,-37.1779],[-69.1313,-37.2027],[-69.1037,-37.2051],[-69.089,-37.2202],[-69.0641,-37.2236],[-69.0383,-37.2556],[-69.0497,-37.2884],[-69.0439,-37.3056],[-69.0493,-37.3147],[-69.0395,-37.3215],[-69.0455,-37.3345],[-69.026,-37.3648],[-68.9771,-37.3793],[-68.943,-37.3718],[-68.9281,-37.3799],[-68.8847,-37.382],[-68.8652,-37.4013],[-68.8492,-37.3901],[-68.8144,-37.3864],[-68.7835,-37.3676],[-68.7661,-37.3665],[-68.7216,-37.3889],[-68.7017,-37.4145],[-68.6966,-37.4423],[-68.6341,-37.4475],[-68.6137,-37.4386],[-68.5699,-37.4563],[-68.5486,-37.4498],[-68.5231,-37.4587],[-68.5049,-37.4541],[-68.4567,-37.5095],[-68.4518,-37.5312],[-68.4367,-37.5446],[-68.4012,-37.5587],[-68.355,-37.5472],[-68.3491,-37.5567],[-68.2899,-37.559],[-68.2613,-37.5753],[-68.2543,-37.5719],[-68.2563,-38.6795],[-68.2213,-38.7081],[-68.1969,-38.7099],[-68.1894,-38.7228],[-68.1803,-38.7183],[-68.1631,-38.7379],[-68.1319,-38.7504],[-68.1206,-38.7473],[-68.1261,-38.7675],[-68.1139,-38.7847],[-68.1183,-38.7933],[-68.1058,-38.8045],[-68.1106,-38.8125],[-68.0928,-38.8196],[-68.0952,-38.8308],[-68.0812,-38.8483],[-68.094,-38.8586],[-68.0715,-38.8715],[-68.0748,-38.8836],[-68.0645,-38.8958],[-68.0692,-38.9029],[-68.0504,-38.9121],[-68.0394,-38.9419],[-68.0074,-38.9594],[-68.0086,-38.9684],[-68.0003,-38.9737],[-68.0119,-38.9793],[-67.9981,-38.9958],[-68.024,-38.9764],[-68.058,-38.9811],[-68.0575,-38.9916],[-68.078,-38.9951],[-68.1484,-38.975],[-68.1654,-38.9798],[-68.1767,-38.9673],[-68.2076,-38.9712],[-68.231,-38.9913],[-68.2833,-38.9852],[-68.3016,-38.9754],[-68.3074,-38.9905],[-68.355,-39.0019],[-68.4123,-39.0344],[-68.4266,-39.0286],[-68.4692,-39.0457],[-68.5048,-39.0715],[-68.5158,-39.0664],[-68.5245,-39.0774],[-68.5617,-39.0765],[-68.5947,-39.1202],[-68.6608,-39.1723],[-68.6533,-39.1992],[-68.6632,-39.215],[-68.7546,-39.2696],[-68.8024,-39.2849],[-68.8185,-39.3126],[-68.8081,-39.3474],[-68.824,-39.3749],[-68.8478,-39.393],[-68.8865,-39.4025],[-68.9125,-39.4179],[-68.9279,-39.438],[-68.9307,-39.461],[-68.9999,-39.5152],[-69.0475,-39.5267],[-69.1128,-39.5147],[-69.1771,-39.5606],[-69.2263,-39.5713],[-69.2771,-39.5964],[-69.2723,-39.629],[-69.2937,-39.6455],[-69.29,-39.653],[-69.314,-39.6539],[-69.343,-39.6804],[-69.349,-39.7121],[-69.3665,-39.7178],[-69.3747,-39.7317],[-69.3903,-39.7316],[-69.3897,-39.7431],[-69.4093,-39.7487],[-69.4219,-39.7681],[-69.4936,-39.7963],[-69.507,-39.8154],[-69.5581,-39.8094],[-69.5867,-39.8153],[-69.5966,-39.8301],[-69.63,-39.8429],[-69.6507,-39.8362],[-69.6712,-39.8498],[-69.6971,-39.8464],[-69.7618,-39.8833],[-69.7922,-39.8831],[-69.8105,-39.8991],[-69.8253,-39.8963],[-69.8461,-39.9098],[-69.8659,-39.9109],[-69.8946,-39.939],[-69.9318,-39.9436],[-69.9335,-39.9554],[-69.9496,-39.9586],[-69.9709,-39.9777],[-70.0054,-40.0474],[-69.9948,-40.1031],[-69.9707,-40.121],[-69.9503,-40.179],[-69.962,-40.1857],[-69.992,-40.18],[-70.0021,-40.2032],[-70.0276,-40.2158],[-70.0588,-40.249],[-70.0496,-40.3178],[-70.0627,-40.3746],[-70.103,-40.4057],[-70.1531,-40.414],[-70.1749,-40.4276],[-70.1706,-40.483],[-70.2299,-40.5029],[-70.2984,-40.5044],[-70.4249,-40.5363],[-70.4372,-40.5228],[-70.4651,-40.5122],[-70.5425,-40.5036],[-70.5497,-40.521],[-70.6236,-40.5531],[-70.6539,-40.5913],[-70.7009,-40.5935],[-70.7331,-40.5801],[-70.8554,-40.5934],[-70.8686,-40.5985],[-70.8791,-40.6204],[-70.9765,-40.6487],[-71.0118,-40.6793],[-71.0297,-40.7244],[-71.0937,-40.7267],[-71.1025,-40.7466],[-71.1208,-40.7582],[-71.1193,-40.8041],[-71.0931,-40.8259],[-71.1,-40.8404],[-71.0857,-40.8525],[-71.0696,-40.8502],[-71.0468,-40.8712],[-71.0536,-40.8821],[-71.039,-40.889],[-71.032,-40.9331],[-71.043,-40.948],[-71.0364,-40.9559],[-71.051,-40.963],[-71.0603,-40.9808],[-71.1024,-40.9908],[-71.0886,-40.9972],[-71.1147,-41.007],[-71.1287,-41.0446],[-71.1416,-41.056],[-71.1749,-41.0562],[-71.2405,-41.0951],[-71.3062,-41.1001],[-71.3607,-41.0887],[-71.4564,-41.0417],[-71.5506,-41.0232],[-71.6076,-41.0349],[-71.7853,-41.0188],[-71.8315,-41.0297],[-71.8467,-41.0234],[-71.8607,-41.0307],[-71.8752,-40.9992],[-71.9063,-40.9856],[-71.9093,-40.9725],[-71.9002,-40.9604],[-71.8852,-40.9663],[-71.8567,-40.9596],[-71.8542,-40.9451],[-71.8629,-40.9341],[-71.8564,-40.923],[-71.8697,-40.8939],[-71.8586,-40.8812],[-71.8803,-40.8815],[-71.9279,-40.833],[-71.9237,-40.8275],[-71.9347,-40.8217],[-71.925,-40.8105],[-71.9285,-40.7965],[-71.921,-40.7858],[-71.9583,-40.7592],[-71.9571,-40.745],[-71.9679,-40.7448],[-71.9653,-40.7273],[-71.9217,-40.6892],[-71.8672,-40.6631],[-71.8662,-40.6478],[-71.8542,-40.6444],[-71.844,-40.6276],[-71.8411,-40.5975],[-71.8246,-40.5778],[-71.8568,-40.5921],[-71.8905,-40.5555],[-71.8582,-40.5549],[-71.8591,-40.5348],[-71.843,-40.5251],[-71.8557,-40.5082],[-71.8403,-40.4884],[-71.8467,-40.4792],[-71.836,-40.4635],[-71.8416,-40.4521],[-71.8207,-40.4353],[-71.8249,-40.4212],[-71.8087,-40.4067],[-71.7935,-40.4073],[-71.7732,-40.4228],[-71.7593,-40.416],[-71.7554,-40.429],[-71.7415,-40.4368],[-71.7096,-40.4251],[-71.6938,-40.4066],[-71.6869,-40.385],[-71.6934,-40.3736],[-71.6571,-40.3644],[-71.6592,-40.3478],[-71.6726,-40.3436],[-71.6716,-40.3114],[-71.6858,-40.2935],[-71.7168,-40.2788],[-71.7366,-40.3062],[-71.7478,-40.3066],[-71.7598,-40.2993],[-71.7617,-40.2763],[-71.7989,-40.2558],[-71.8067,-40.2333],[-71.8234,-40.2326],[-71.8285,-40.2073],[-71.8161,-40.2054],[-71.7983,-40.1874],[-71.8288,-40.1732],[-71.8087,-40.1512],[-71.8117,-40.1389],[-71.799,-40.1372],[-71.8079,-40.1255],[-71.8036,-40.11],[-71.8114,-40.1035],[-71.8258,-40.1107],[-71.8313,-40.1044],[-71.8266,-40.0889],[-71.814,-40.0803],[-71.7516,-40.0939],[-71.698,-40.1175],[-71.6743,-40.1044],[-71.6665,-40.0885],[-71.6741,-40.0796],[-71.6666,-40.0745],[-71.6889,-40.0331],[-71.6748,-40.0258],[-71.6705,-40.0007],[-71.6511,-39.972],[-71.62,-39.9733],[-71.6141,-39.9567],[-71.6252,-39.9387],[-71.5981,-39.9297],[-71.6026,-39.9172],[-71.5925,-39.9117],[-71.5957,-39.8913],[-71.6128,-39.875],[-71.6332,-39.8825],[-71.636,-39.8586],[-71.647,-39.8529],[-71.6707,-39.8635],[-71.6851,-39.8558],[-71.6913,-39.8418],[-71.6859,-39.8344],[-71.6927,-39.8249],[-71.6667,-39.8076],[-71.685,-39.8024],[-71.6783,-39.7962],[-71.6861,-39.7769],[-71.6822,-39.7651],[-71.7128,-39.7245],[-71.6941,-39.7072],[-71.7041,-39.6955],[-71.6716,-39.6925],[-71.6699,-39.6825],[-71.6876,-39.6783],[-71.6941,-39.658],[-71.7173,-39.6492],[-71.7153,-39.6334],[-71.7001,-39.6333],[-71.6947,-39.6242],[-71.6983,-39.5868],[-71.6742,-39.5636],[-71.6559,-39.5876],[-71.6239,-39.5919],[-71.6097,-39.6284],[-71.5763,-39.6355],[-71.5416,-39.6236],[-71.5016,-39.6372],[-71.4959,-39.6177],[-71.4612,-39.5832],[-71.4746,-39.5719],[-71.4703,-39.5524],[-71.5036,-39.5596],[-71.5339,-39.5291],[-71.516,-39.5027],[-71.4732,-39.4937],[-71.4643,-39.4581],[-71.4473,-39.4507],[-71.4503,-39.4261],[-71.4639,-39.4193],[-71.445,-39.4082],[-71.4568,-39.37],[-71.4331,-39.372],[-71.3997,-39.3503],[-71.3961,-39.3265],[-71.3858,-39.3184],[-71.3951,-39.3018],[-71.3876,-39.2865],[-71.3742,-39.2829],[-71.3759,-39.2681],[-71.3917,-39.2588],[-71.3823,-39.2379],[-71.392,-39.216],[-71.381,-39.2122],[-71.4001,-39.1857],[-71.4015,-39.1649],[-71.4133,-39.164],[-71.4215,-39.1512],[-71.412,-39.1396],[-71.4203,-39.1255],[-71.4078,-39.0966],[-71.4185,-39.0698],[-71.3964,-39.0457],[-71.422,-39.0259],[-71.4138,-39.0082],[-71.4417,-38.9812],[-71.4323,-38.9674],[-71.439,-38.9421],[-71.4339,-38.9291],[-71.3917,-38.9075],[-71.3748,-38.9065],[-71.3365,-38.8761],[-71.3214,-38.8803],[-71.2956,-38.873],[-71.2852,-38.8579],[-71.2679,-38.8534],[-71.2686,-38.8283],[-71.238,-38.8024],[-71.2133,-38.8158],[-71.1852,-38.8152],[-71.1801,-38.8017],[-71.1494,-38.7994],[-71.1342,-38.7807],[-71.1175,-38.7813],[-71.0954,-38.7549],[-71.0699,-38.7699],[-71.0526,-38.7575],[-71.0331,-38.7568],[-71.0007,-38.7701],[-70.9805,-38.7599],[-70.9262,-38.7629],[-70.9059,-38.7293],[-70.8903,-38.7214],[-70.8836,-38.7016],[-70.9006,-38.6895],[-70.9046,-38.6669],[-70.8616,-38.6241],[-70.8369,-38.6124],[-70.827,-38.5959],[-70.8356,-38.5864],[-70.8323,-38.5672],[-70.8425,-38.5382],[-70.8669,-38.5136],[-70.9108,-38.5041],[-70.9521,-38.4499],[-70.9772,-38.4429],[-70.9839,-38.4301],[-70.9824,-38.3644],[-70.9968,-38.3556],[-71.0031,-38.323],[-70.9981,-38.2912],[-71.0107,-38.2824],[-71.009,-38.2617],[-71.032,-38.2497],[-71.0176,-38.2391],[-71.0203,-38.214],[-71.001,-38.2109],[-70.9968,-38.2031],[-70.9959,-38.1715],[-71.0104,-38.162],[-71.0098,-38.1533],[-71.0244,-38.1498],[-71.0288,-38.134],[-71.0433,-38.1227],[-71.0228,-38.1123],[-70.9894,-38.1102],[-70.983,-38.1054],[-70.9891,-38.0868],[-71.0115,-38.0802],[-71.0266,-38.061],[-71.0555,-38.0436],[-71.0508,-38.0286],[-71.0636,-38.0172],[-71.0512,-37.9925],[-71.0676,-37.9895],[-71.0626,-37.9702],[-71.1139,-37.9521],[-71.1076,-37.9298],[-71.1127,-37.9199],[-71.0987,-37.9016],[-71.1389,-37.8599],[-71.183,-37.8584],[-71.1662,-37.8542],[-71.1574,-37.8379],[-71.1316,-37.8323],[-71.1264,-37.8207],[-71.153,-37.8088],[-71.1592,-37.791],[-71.1698,-37.7854],[-71.1572,-37.7706],[-71.1564,-37.7569],[-71.1838,-37.7369],[-71.1888,-37.7125],[-71.2111,-37.6975],[-71.1997,-37.6639],[-71.2063,-37.6477],[-71.1778,-37.6142],[-71.1477,-37.6089],[-71.128,-37.5876],[-71.1325,-37.5531],[-71.1515,-37.5393],[-71.1331,-37.5294],[-71.1173,-37.4897],[-71.1182,-37.4689],[-71.1282,-37.4483],[-71.1425,-37.4402],[-71.1536,-37.4007],[-71.1825,-37.3956],[-71.1973,-37.3839],[-71.2017,-37.3651],[-71.1857,-37.3548],[-71.2078,-37.3383],[-71.2066,-37.3187],[-71.221,-37.2751],[-71.188,-37.2759],[-71.1834,-37.2588],[-71.1745,-37.2598],[-71.1555,-37.2351],[-71.1704,-37.2254],[-71.1153,-37.2078],[-71.1361,-37.1657],[-71.1353,-37.1478],[-71.1242,-37.1356],[-71.0957,-37.1261],[-71.0923,-37.1147],[-71.1228,-37.0916],[-71.12,-37.0741],[-71.1418,-37.0695],[-71.1373,-37.0532],[-71.1437,-37.0326],[-71.1673,-36.997],[-71.1882,-36.9964],[-71.2224,-36.9782],[-71.1849,-36.9682],[-71.1485,-36.9808],[-71.106,-36.9709],[-71.088,-36.938],[-71.0956,-36.9253],[-71.144,-36.9293],[-71.1493,-36.9014],[-71.1191,-36.8692],[-71.1384,-36.8533],[-71.1631,-36.8614],[-71.18,-36.8414],[-71.1628,-36.8191],[-71.1538,-36.8187],[-71.1531,-36.8279],[-71.1319,-36.8147],[-71.1284,-36.7636],[-71.1114,-36.7283],[-71.1197,-36.6999],[-71.1133,-36.6794],[-71.0859,-36.6782],[-71.0769,-36.7074],[-71.0649,-36.7147],[-71.0092,-36.6912],[-71.012,-36.6639],[-71.0274,-36.6632],[-71.0291,-36.6502],[-71.0435,-36.6449],[-71.041,-36.6315],[-71.0572,-36.6187],[-71.0472,-36.6067],[-71.0546,-36.5713],[-71.0407,-36.5507],[-71.0507,-36.5236],[-71.0352,-36.5098],[-71.0369,-36.4755],[-71.0217,-36.4726],[-71.0109,-36.4876],[-70.9581,-36.5036],[-70.9444,-36.4905],[-70.9338,-36.4915],[-70.928,-36.4744],[-70.8939,-36.4713],[-70.8874,-36.4609],[-70.8945,-36.4521],[-70.8867,-36.4373],[-70.8902,-36.4054],[-70.8838,-36.3962],[-70.8648,-36.3972],[-70.8691,-36.4111],[-70.8492,-36.4187],[-70.8358,-36.4152],[-70.8177,-36.3954],[-70.7909,-36.4287],[-70.7732,-36.4288],[-70.7478,-36.4059],[-70.7351,-36.4157],[-70.7394,-36.4298],[-70.713,-36.4278],[-70.6793,-36.39],[-70.6818,-36.3727],[-70.7124,-36.345],[-70.7032,-36.322],[-70.6848,-36.3047],[-70.6855,-36.2838],[-70.7038,-36.2798],[-70.7062,-36.2726],[-70.6665,-36.2434],[-70.6321,-36.239],[-70.6247,-36.2277],[-70.6332,-36.2172],[-70.6082,-36.2067],[-70.5997,-36.1923],[-70.5709,-36.1756],[-70.5725,-36.1582],[-70.5828,-36.1481],[-70.5764,-36.138],[-70.5684,-36.1326],[-70.5289,-36.144],[-70.4913,-36.1789],[-70.4492,-36.1732],[-70.4407,-36.161],[-70.421,-36.1559],[-70.4224,-36.1247],[-70.4151,-36.1099],[-70.3974,-36.1195]]]}}]}