{"type":"FeatureCollection","features":[{"type":"Feature","properties":{"nombre":"Ferrocarril Nacional General Roca Ramal R61","tipo":"Ferrocarril Nacional"},"geometry":{"type":"LineString","coordinates":[[-68.1615,-38.7239],[-68.1469,-38.725],[-68.1043,-38.7529],[-68.0854,-38.7808],[-68.0736,-38.8179],[-68.0432,-38.8481],[-68.0081,-38.877],[-68.0042,-38.9034],[-68.0052,-38.9378],[-68.0029,-38.9406]]}},{"type":"Feature","properties":{"nombre":"Ferrocarril Nacional General Roca Ramal R60","tipo":"Ferrocarril Nacional"},"geometry":{"type":"MultiLineString","coordinates":[[[-68.5,-39.0115],[-68.5773,-39.0252],[-68.6006,-39.0135],[-68.6399,-39.0116],[-68.6764,-39.0],[-68.7662,-38.9707],[-68.809,-38.9745],[-68.8991,-38.9668],[-68.9554,-38.9703],[-69.0,-38.9684],[-69.0265,-38.9671],[-69.1265,-38.9455],[-69.135,-38.946],[-69.1702,-38.9314],[-69.2484,-38.9286],[-69.2612,-38.9319],[-69.312,-38.9333],[-69.3289,-38.9271],[-69.3456,-38.9253],[-69.3841,-38.9014],[-69.4053,-38.8919],[-69.4386,-38.8675],[-69.4786,-38.8638],[-69.4899,-38.8575],[-69.5,-38.8559],[-69.5177,-38.8549],[-69.5303,-38.8459],[-69.5354,-38.8335],[-69.5466,-38.8307],[-69.5757,-38.8386],[-69.5904,-38.8366],[-69.6126,-38.8423],[-69.6407,-38.8633],[-69.656,-38.8625],[-69.6691,-38.8664],[-69.7384,-38.8626],[-69.79,-38.8993],[-69.8411,-38.9129],[-69.8687,-38.9164],[-69.9457,-38.918],[-69.9663,-38.9061],[-70.0,-38.8985],[-70.0075,-38.8912],[-70.0124,-38.8905],[-70.0619,-38.9061]],[[-68.5,-39.0114],[-68.4442,-39.0137],[-68.4091,-39.0]],[[-68.233,-38.9552],[-68.2881,-38.955],[-68.3165,-38.9612],[-68.4092,-39.0]],[[-68.0,-38.9414],[-67.7996,-38.9818],[-67.7454,-39.0002],[-67.7068,-39.0131],[-67.5,-39.0372],[-67.1852,-39.0769],[-67.1153,-39.0892],[-67.0973,-39.0869],[-67.0663,-39.0987],[-67.0253,-39.1017],[-67.0052,-39.1076],[-66.9317,-39.1183],[-66.8488,-39.1264],[-66.8324,-39.1319],[-66.8162,-39.1286],[-66.7897,-39.1327],[-66.7252,-39.1188],[-66.6803,-39.1017],[-66.614,-39.0981],[-66.6021,-39.0934],[-66.5678,-39.0926],[-66.5516,-39.0881],[-66.42,-39.0869],[-66.3101,-39.0961],[-66.2481,-39.1117],[-66.2266,-39.1225],[-66.167,-39.1677],[-66.1236,-39.1671],[-66.0115,-39.1908],[-65.8563,-39.1864],[-65.751,-39.201],[-65.6981,-39.2281],[-65.6701,-39.2464],[-65.6637,-39.2561],[-65.6492,-39.2632],[-65.6147,-39.27],[-65.6071,-39.2669],[-65.3912,-38.9741],[-65.3066,-38.8729],[-65.3031,-38.8575],[-65.2966,-38.8549],[-65.2427,-38.8567],[-65.1847,-38.8382],[-65.087,-38.8245],[-65.0497,-38.8161],[-64.9641,-38.8229],[-64.9202,-38.8352],[-64.8951,-38.8299],[-64.874,-38.8179],[-64.8412,-38.8314],[-64.8037,-38.822],[-64.7367,-38.8442],[-64.6721,-38.8545],[-64.628,-38.857],[-64.4426,-38.8869],[-64.2224,-38.9502],[-64.1132,-38.9976],[-64.0762,-38.9918],[-64.0569,-38.9968],[-64.0449,-38.9944],[-63.9782,-38.9952],[-63.9663,-38.9909],[-63.9415,-38.9899],[-63.8781,-38.9716],[-63.5839,-38.9374],[-63.4297,-38.9355],[-62.8871,-38.8523]]]}},{"type":"Feature","properties":{"nombre":"Ferrocarril Nacional General Roca","tipo":"Ferrocarril Nacional"},"geometry":{"type":"LineString","coordinates":[[-70.0619,-38.9061],[-70.0933,-38.9182],[-70.1113,-38.9144],[-70.1156,-38.9044],[-70.1105,-38.8891],[-70.1102,-38.8727],[-70.115,-38.8668],[-70.1383,-38.8662],[-70.1378,-38.8564],[-70.1478,-38.8508],[-70.154,-38.8331],[-70.1748,-38.8247],[-70.1695,-38.8156],[-70.1723,-38.8109],[-70.184,-38.8075],[-70.1929,-38.8123],[-70.2134,-38.8129]]}},{"type":"Feature","properties":{"nombre":"Ferrocarril Nacional General Roca Ramal R60 - Tren del Valle","tipo":"Ferrocarril Nacional"},"geometry":{"type":"LineString","coordinates":[[-68.0029,-38.9406],[-68.0116,-38.9417],[-68.0278,-38.9529],[-68.0583,-38.956],[-68.233,-38.9552]]}},{"type":"Feature","properties":{"nombre":"Ferrocarril Nacional General San Martín Ramal SM25","tipo":"Ferrocarril Nacional"},"geometry":{"type":"LineString","coordinates":[[-68.4658,-34.6137],[-68.5046,-34.596],[-68.5203,-34.5955],[-68.5388,-34.6077],[-68.5394,-34.6149],[-68.5558,-34.6461],[-68.5807,-34.666],[-68.5869,-34.6784],[-68.5997,-34.6834],[-68.6156,-34.6829],[-68.6217,-34.6866],[-68.6275,-34.6951],[-68.6276,-34.7006],[-68.6151,-34.7093],[-68.6031,-34.7262],[-68.6006,-34.8225],[-68.629,-34.8508],[-68.6627,-34.9002],[-68.7097,-34.9063],[-68.7268,-34.9032],[-68.7371,-34.9123],[-68.757,-34.922],[-68.763,-34.9318],[-68.7981,-34.9624],[-68.9378,-34.973],[-69.0268,-34.9511],[-69.203,-34.9955],[-69.3335,-35.0228],[-69.3688,-35.024],[-69.4721,-35.0535],[-69.5333,-35.0888],[-69.5511,-35.0918],[-69.5594,-35.1038],[-69.5766,-35.1146],[-69.5947,-35.1928],[-69.5786,-35.2316],[-69.5837,-35.3257],[-69.5803,-35.3491],[-69.5838,-35.3677],[-69.5861,-35.4246],[-69.5814,-35.4596],[-69.5549,-35.478]]}}]}