{"type":"FeatureCollection","features":[{"type":"Feature","properties":{"nombre":"PLANTA YACIMIENTO MEDANITO ESTE","empresa":"REFI PAMPA S.A.","provincia":"LA PAMPA"},"geometry":{"type":"Point","coordinates":[-67.8117,-38.0319]}},{"type":"Feature","properties":{"nombre":"LUJÁN DE CUYO","empresa":"YPF S.A.","provincia":"MENDOZA"},"geometry":{"type":"Point","coordinates":[-68.976,-33.0663]}},{"type":"Feature","properties":{"nombre":"DOCK SUD","empresa":"RAIZEN ARGENTINA S.A.U. (ex RAIZEN ARGENTINA S.A.)","provincia":"BUENOS AIRES"},"geometry":{"type":"Point","coordinates":[-58.3355,-34.6531]}},{"type":"Feature","properties":{"nombre":"DOCK SUD","empresa":"DEST. ARG. DE PETROLEO S.A.","provincia":"BUENOS AIRES"},"geometry":{"type":"Point","coordinates":[-58.3234,-34.6623]}},{"type":"Feature","properties":{"nombre":"CAMPO DURAN","empresa":"REFINOR S.A.","provincia":"SALTA"},"geometry":{"type":"Point","coordinates":[-63.6626,-22.2047]}},{"type":"Feature","properties":{"nombre":"NEUQUÉN","empresa":"FOX PETROL S.A.","provincia":"NEUQUEN"},"geometry":{"type":"Point","coordinates":[-68.4254,-38.9994]}},{"type":"Feature","properties":{"nombre":"GENERAL RODRIGUEZ","empresa":null,"provincia":"BUENOS AIRES"},"geometry":{"type":"Point","coordinates":[-58.9454,-34.6595]}},{"type":"Feature","properties":{"nombre":"RAMALLO","empresa":"PETROLERA DEGAB S.A.","provincia":"BUENOS AIRES"},"geometry":{"type":"Point","coordinates":[-60.1353,-33.3929]}},{"type":"Feature","properties":{"nombre":"CAMPANA","empresa":"PAN AMERICAN ENERGY SL - SUCURSAL ARGENTINA","provincia":"BUENOS AIRES"},"geometry":{"type":"Point","coordinates":[-58.9462,-34.1598]}},{"type":"Feature","properties":{"nombre":"ELICABE","empresa":"REFINERÍA BAHÍA BLANCA S.A.U.","provincia":"BUENOS AIRES"},"geometry":{"type":"Point","coordinates":[-62.296,-38.7449]}},{"type":"Feature","properties":{"nombre":"LUJAN DE CUYO","empresa":null,"provincia":"MENDOZA"},"geometry":{"type":"Point","coordinates":[-68.9942,-33.0681]}},{"type":"Feature","properties":{"nombre":"FATIMA","empresa":null,"provincia":"BUENOS AIRES"},"geometry":{"type":"Point","coordinates":[-58.9685,-34.4204]}},{"type":"Feature","properties":{"nombre":"PLAZA HUINCUL","empresa":"YPF S.A.","provincia":"NEUQUEN"},"geometry":{"type":"Point","coordinates":[-69.1857,-38.9272]}},{"type":"Feature","properties":{"nombre":"SAN LORENZO","empresa":"YPF S.A.","provincia":"SANTA FE"},"geometry":{"type":"Point","coordinates":[-60.7429,-32.7276]}},{"type":"Feature","properties":{"nombre":"LA PLATA","empresa":"YPF S.A.","provincia":"BUENOS AIRES"},"geometry":{"type":"Point","coordinates":[-57.9131,-34.8892]}}]}