{"type":"FeatureCollection","features":[{"type":"Feature","properties":{"empresa":"(TGS) TRANSPORTADORA DE GAS DEL SUR S.A.","tipo":"Terminal","localidad":null},"geometry":{"type":"Point","coordinates":[-67.7506,-53.7824]}},{"type":"Feature","properties":{"empresa":"(TGS) TRANSPORTADORA DE GAS DEL SUR S.A.","tipo":"Terminal","localidad":null},"geometry":{"type":"Point","coordinates":[-62.3362,-38.7068]}},{"type":"Feature","properties":{"empresa":"YPF S.A.","tipo":"Terminal","localidad":"GRAN ROSARIO"},"geometry":{"type":"Point","coordinates":[-60.7538,-32.719]}},{"type":"Feature","properties":{"empresa":"YPF S.A.","tipo":"Terminal","localidad":"GRAN ROSARIO"},"geometry":{"type":"Point","coordinates":[-60.7538,-32.719]}},{"type":"Feature","properties":{"empresa":"YPF S.A.","tipo":"Terminal","localidad":null},"geometry":{"type":"Point","coordinates":[-63.975,-31.3516]}},{"type":"Feature","properties":{"empresa":"YPF S.A.","tipo":"Terminal","localidad":"PLAZA HUINCUL"},"geometry":{"type":"Point","coordinates":[-69.1868,-38.9294]}},{"type":"Feature","properties":{"empresa":"YPF S.A.","tipo":"Terminal","localidad":null},"geometry":{"type":"Point","coordinates":[-65.5235,-33.6285]}},{"type":"Feature","properties":{"empresa":"COMPAÑIA MEGA S.A.","tipo":"Terminal","localidad":null},"geometry":{"type":"Point","coordinates":[-62.2908,-38.783]}},{"type":"Feature","properties":{"empresa":"MILENIO BAHIA S.A.","tipo":"Terminal","localidad":null},"geometry":{"type":"Point","coordinates":[-62.0539,-38.9237]}},{"type":"Feature","properties":{"empresa":"OILTANKING EBYTEM S.A.","tipo":"Terminal","localidad":null},"geometry":{"type":"Point","coordinates":[-62.0537,-38.9236]}},{"type":"Feature","properties":{"empresa":"PAMPA ENERGÍA S.A.","tipo":"Terminal","localidad":null},"geometry":{"type":"Point","coordinates":[-62.256,-38.7852]}},{"type":"Feature","properties":{"empresa":"PAN AMERICAN ENERGY S.L. SUCURSAL ARGENTINA","tipo":"Terminal","localidad":null},"geometry":{"type":"Point","coordinates":[-67.5012,-46.4712]}},{"type":"Feature","properties":{"empresa":"PAN AMERICAN ENERGY SL SUCURSAL ARGENTINA (PAE)","tipo":"Terminal","localidad":"GRAN ROSARIO"},"geometry":{"type":"Point","coordinates":[-60.7296,-32.7237]}},{"type":"Feature","properties":{"empresa":"PBBPOLISUR S.A.","tipo":"Terminal","localidad":null},"geometry":{"type":"Point","coordinates":[-62.2872,-38.7675]}},{"type":"Feature","properties":{"empresa":"YPF S.A.","tipo":"Terminal","localidad":"GRAN BUENOS AIRES"},"geometry":{"type":"Point","coordinates":[-57.9218,-34.9]}},{"type":"Feature","properties":{"empresa":"RAIZEN ARGENTINA S.A.","tipo":"Terminal","localidad":"GRAN BUENOS AIRES"},"geometry":{"type":"Point","coordinates":[-58.3927,-34.6497]}},{"type":"Feature","properties":{"empresa":"RAIZEN ARGENTINA S.A.","tipo":"Terminal","localidad":"ARROYO SECO"},"geometry":{"type":"Point","coordinates":[-60.5097,-33.1358]}},{"type":"Feature","properties":{"empresa":"RAIZEN ARGENTINA S.A.","tipo":"Terminal","localidad":"GRAN BUENOS AIRES"},"geometry":{"type":"Point","coordinates":[-58.3252,-34.6598]}},{"type":"Feature","properties":{"empresa":"RAIZEN ARGENTINA S.A.","tipo":"Terminal","localidad":"SANTA FE"},"geometry":{"type":"Point","coordinates":[-60.6964,-31.649]}},{"type":"Feature","properties":{"empresa":"REFINERIA DEL NORTE S.A. (REFINOR)","tipo":"Terminal","localidad":null},"geometry":{"type":"Point","coordinates":[-63.6609,-22.1998]}},{"type":"Feature","properties":{"empresa":"REFINERIA DEL NORTE S.A. (REFINOR)","tipo":"Terminal","localidad":"GRAN SAN MIGUEL DE TUCUMÁN"},"geometry":{"type":"Point","coordinates":[-65.1497,-26.8434]}},{"type":"Feature","properties":{"empresa":"YPF S.A.","tipo":"Terminal","localidad":"MAR DEL PLATA"},"geometry":{"type":"Point","coordinates":[-57.5429,-38.0499]}},{"type":"Feature","properties":{"empresa":"YPF S.A.","tipo":"Terminal","localidad":null},"geometry":{"type":"Point","coordinates":[-68.2877,-54.8038]}},{"type":"Feature","properties":{"empresa":"YPF S.A.","tipo":"Terminal","localidad":"RIO GALLEGOS"},"geometry":{"type":"Point","coordinates":[-69.2342,-51.6089]}},{"type":"Feature","properties":{"empresa":"VISTA OIL & GAS ARGENTINA S.A.U.","tipo":"Terminal","localidad":null},"geometry":{"type":"Point","coordinates":[-67.8622,-37.9031]}},{"type":"Feature","properties":{"empresa":"YPF S.A.","tipo":"Terminal","localidad":"GRAN RESISTENCIA"},"geometry":{"type":"Point","coordinates":[-58.9421,-27.5009]}},{"type":"Feature","properties":{"empresa":"YPF S.A.","tipo":"Terminal","localidad":null},"geometry":{"type":"Point","coordinates":[-68.9679,-33.0759]}},{"type":"Feature","properties":{"empresa":"YPF S.A.","tipo":"Terminal","localidad":null},"geometry":{"type":"Point","coordinates":[-61.0097,-34.5908]}},{"type":"Feature","properties":{"empresa":"YPF S.A.","tipo":"Terminal","localidad":"GRAN BUENOS AIRES"},"geometry":{"type":"Point","coordinates":[-58.3402,-34.6393]}},{"type":"Feature","properties":{"empresa":"YPF S.A.","tipo":"Terminal","localidad":null},"geometry":{"type":"Point","coordinates":[-65.9139,-47.7517]}},{"type":"Feature","properties":{"empresa":"YPF S.A.","tipo":"Terminal","localidad":"FORMOSA"},"geometry":{"type":"Point","coordinates":[-58.1576,-26.1897]}},{"type":"Feature","properties":{"empresa":"YPF S.A.","tipo":"Terminal","localidad":"CONCEPCION DEL URUGUAY"},"geometry":{"type":"Point","coordinates":[-58.2239,-32.4869]}},{"type":"Feature","properties":{"empresa":"YPF S.A.","tipo":"Terminal","localidad":"GRAN BUENOS AIRES"},"geometry":{"type":"Point","coordinates":[-58.5584,-34.7351]}},{"type":"Feature","properties":{"empresa":"YPF S.A.","tipo":"Terminal","localidad":"GRAN COMODORO RIVADAVIA"},"geometry":{"type":"Point","coordinates":[-67.4692,-45.8449]}}]}