{"type":"FeatureCollection","features":[{"type":"Feature","properties":{"nombre":"Chos Malal","tipo":"Localidad simple","provincia":"Neuquén"},"geometry":{"type":"MultiPoint","coordinates":[[-70.2763,-37.3748]]}},{"type":"Feature","properties":{"nombre":"Tricao Malal","tipo":"Localidad simple","provincia":"Neuquén"},"geometry":{"type":"MultiPoint","coordinates":[[-70.3248,-37.0447]]}},{"type":"Feature","properties":{"nombre":"Villa Del Curi Leuvú","tipo":"Localidad simple","provincia":"Neuquén"},"geometry":{"type":"MultiPoint","coordinates":[[-70.3977,-37.1311]]}},{"type":"Feature","properties":{"nombre":"Andacollo","tipo":"Localidad simple","provincia":"Neuquén"},"geometry":{"type":"MultiPoint","coordinates":[[-70.67,-37.1797]]}},{"type":"Feature","properties":{"nombre":"Las Ovejas","tipo":"Localidad simple","provincia":"Neuquén"},"geometry":{"type":"MultiPoint","coordinates":[[-70.7495,-36.989]]}},{"type":"Feature","properties":{"nombre":"Los Miches","tipo":"Localidad simple","provincia":"Neuquén"},"geometry":{"type":"MultiPoint","coordinates":[[-70.8192,-37.2054]]}},{"type":"Feature","properties":{"nombre":"Manzano Amargo","tipo":"Localidad simple","provincia":"Neuquén"},"geometry":{"type":"MultiPoint","coordinates":[[-70.7632,-36.7531]]}},{"type":"Feature","properties":{"nombre":"Villa Del Nahueve","tipo":"Localidad simple","provincia":"Neuquén"},"geometry":{"type":"MultiPoint","coordinates":[[-70.77,-37.1203]]}},{"type":"Feature","properties":{"nombre":"Huinganco","tipo":"Localidad simple","provincia":"Neuquén"},"geometry":{"type":"MultiPoint","coordinates":[[-70.6241,-37.1607]]}},{"type":"Feature","properties":{"nombre":"Varvarco","tipo":"Localidad simple","provincia":"Neuquén"},"geometry":{"type":"MultiPoint","coordinates":[[-70.6782,-36.8548]]}},{"type":"Feature","properties":{"nombre":"El Cholar","tipo":"Localidad simple","provincia":"Neuquén"},"geometry":{"type":"MultiPoint","coordinates":[[-70.6454,-37.4415]]}},{"type":"Feature","properties":{"nombre":"Taquimilán","tipo":"Localidad simple","provincia":"Neuquén"},"geometry":{"type":"MultiPoint","coordinates":[[-70.2488,-37.5174]]}},{"type":"Feature","properties":{"nombre":"Barrancas","tipo":"Localidad simple","provincia":"Neuquén"},"geometry":{"type":"MultiPoint","coordinates":[[-69.9153,-36.8213]]}},{"type":"Feature","properties":{"nombre":"Buta Ranquil","tipo":"Localidad simple","provincia":"Neuquén"},"geometry":{"type":"MultiPoint","coordinates":[[-69.8778,-37.0516]]}},{"type":"Feature","properties":{"nombre":"Rincón De Los Sauces","tipo":"Localidad simple","provincia":"Neuquén"},"geometry":{"type":"MultiPoint","coordinates":[[-68.9252,-37.3902]]}},{"type":"Feature","properties":{"nombre":"Aluminé","tipo":"Localidad simple","provincia":"Neuquén"},"geometry":{"type":"MultiPoint","coordinates":[[-70.916,-39.2385]]}},{"type":"Feature","properties":{"nombre":"Moquehue","tipo":"Localidad simple","provincia":"Neuquén"},"geometry":{"type":"MultiPoint","coordinates":[[-71.329,-38.9421]]}},{"type":"Feature","properties":{"nombre":"Villa Pehuenia","tipo":"Localidad simple","provincia":"Neuquén"},"geometry":{"type":"MultiPoint","coordinates":[[-71.1732,-38.8821]]}},{"type":"Feature","properties":{"nombre":"Las Coloradas","tipo":"Localidad simple","provincia":"Neuquén"},"geometry":{"type":"MultiPoint","coordinates":[[-70.5942,-39.5564]]}},{"type":"Feature","properties":{"nombre":"Santo Tomás","tipo":"Localidad simple","provincia":"Neuquén"},"geometry":{"type":"MultiPoint","coordinates":[[-70.1005,-39.8207]]}},{"type":"Feature","properties":{"nombre":"Chorriaca","tipo":"Localidad simple","provincia":"Neuquén"},"geometry":{"type":"MultiPoint","coordinates":[[-70.1004,-37.9368]]}},{"type":"Feature","properties":{"nombre":"Loncopué","tipo":"Localidad simple","provincia":"Neuquén"},"geometry":{"type":"MultiPoint","coordinates":[[-70.6144,-38.0731]]}},{"type":"Feature","properties":{"nombre":"Caviahue","tipo":"Localidad simple","provincia":"Neuquén"},"geometry":{"type":"MultiPoint","coordinates":[[-71.0551,-37.8711]]}},{"type":"Feature","properties":{"nombre":"Copahue","tipo":"Localidad simple","provincia":"Neuquén"},"geometry":{"type":"MultiPoint","coordinates":[[-71.0988,-37.8189]]}},{"type":"Feature","properties":{"nombre":"El Huecú","tipo":"Localidad simple","provincia":"Neuquén"},"geometry":{"type":"MultiPoint","coordinates":[[-70.581,-37.6449]]}},{"type":"Feature","properties":{"nombre":"Paso Aguerre","tipo":"Localidad simple","provincia":"Neuquén"},"geometry":{"type":"MultiPoint","coordinates":[[-69.8436,-39.3388]]}},{"type":"Feature","properties":{"nombre":"Bajada Del Agrio","tipo":"Localidad simple","provincia":"Neuquén"},"geometry":{"type":"MultiPoint","coordinates":[[-70.0331,-38.4074]]}},{"type":"Feature","properties":{"nombre":"La Buitrera","tipo":"Localidad simple","provincia":"Neuquén"},"geometry":{"type":"MultiPoint","coordinates":[[-70.3694,-38.5522]]}},{"type":"Feature","properties":{"nombre":"Las Lajas","tipo":"Localidad simple","provincia":"Neuquén"},"geometry":{"type":"MultiPoint","coordinates":[[-70.3616,-38.5234]]}},{"type":"Feature","properties":{"nombre":"Quili Malal","tipo":"Localidad simple","provincia":"Neuquén"},"geometry":{"type":"MultiPoint","coordinates":[[-69.8135,-38.3261]]}},{"type":"Feature","properties":{"nombre":"Los Catutos","tipo":"Localidad simple","provincia":"Neuquén"},"geometry":{"type":"MultiPoint","coordinates":[[-70.1984,-38.8374]]}},{"type":"Feature","properties":{"nombre":"Mariano Moreno","tipo":"Localidad simple","provincia":"Neuquén"},"geometry":{"type":"MultiPoint","coordinates":[[-70.0364,-38.7613]]}},{"type":"Feature","properties":{"nombre":"Zapala","tipo":"Localidad simple","provincia":"Neuquén"},"geometry":{"type":"MultiPoint","coordinates":[[-70.0642,-38.9029]]}},{"type":"Feature","properties":{"nombre":"Naupa Huen","tipo":"Localidad simple","provincia":"Río Negro"},"geometry":{"type":"MultiPoint","coordinates":[[-69.5091,-39.8302]]}},{"type":"Feature","properties":{"nombre":"Aguada San Roque","tipo":"Localidad simple","provincia":"Neuquén"},"geometry":{"type":"MultiPoint","coordinates":[[-68.9229,-37.9987]]}},{"type":"Feature","properties":{"nombre":"Añelo","tipo":"Localidad simple","provincia":"Neuquén"},"geometry":{"type":"MultiPoint","coordinates":[[-68.7875,-38.3543]]}},{"type":"Feature","properties":{"nombre":"Cutral Có","tipo":"Componente de localidad compuesta","provincia":"Neuquén"},"geometry":{"type":"MultiPoint","coordinates":[[-69.2294,-38.9379]]}},{"type":"Feature","properties":{"nombre":"Villa El Chocón","tipo":"Localidad simple","provincia":"Neuquén"},"geometry":{"type":"MultiPoint","coordinates":[[-68.7789,-39.2615]]}},{"type":"Feature","properties":{"nombre":"Plaza Huincul","tipo":"Componente de localidad compuesta","provincia":"Neuquén"},"geometry":{"type":"MultiPoint","coordinates":[[-69.2078,-38.9301]]}},{"type":"Feature","properties":{"nombre":"El Chocón","tipo":"Localidad simple","provincia":"Neuquén"},"geometry":{"type":"MultiPoint","coordinates":[[-68.8296,-39.2594]]}},{"type":"Feature","properties":{"nombre":"El Sauce","tipo":"Localidad simple","provincia":"Neuquén"},"geometry":{"type":"MultiPoint","coordinates":[[-69.5311,-39.4798]]}},{"type":"Feature","properties":{"nombre":"Picún Leufú","tipo":"Localidad simple","provincia":"Neuquén"},"geometry":{"type":"MultiPoint","coordinates":[[-69.2911,-39.5186]]}},{"type":"Feature","properties":{"nombre":"Ramón M. Castro","tipo":"Localidad simple","provincia":"Neuquén"},"geometry":{"type":"MultiPoint","coordinates":[[-69.7447,-38.8643]]}},{"type":"Feature","properties":{"nombre":"Piedra Del Águila","tipo":"Localidad simple","provincia":"Neuquén"},"geometry":{"type":"MultiPoint","coordinates":[[-70.075,-40.0485]]}},{"type":"Feature","properties":{"nombre":"Junín De Los Andes","tipo":"Localidad simple","provincia":"Neuquén"},"geometry":{"type":"MultiPoint","coordinates":[[-71.0709,-39.9509]]}},{"type":"Feature","properties":{"nombre":"San Martín De Los Andes","tipo":"Localidad simple","provincia":"Neuquén"},"geometry":{"type":"MultiPoint","coordinates":[[-71.3527,-40.1569]]}},{"type":"Feature","properties":{"nombre":"Villa Lago Meliquina","tipo":"Localidad simple","provincia":"Neuquén"},"geometry":{"type":"MultiPoint","coordinates":[[-71.2534,-40.3833]]}},{"type":"Feature","properties":{"nombre":"San Patricio Del Chañar","tipo":"Localidad simple","provincia":"Neuquén"},"geometry":{"type":"MultiPoint","coordinates":[[-68.2999,-38.6259]]}},{"type":"Feature","properties":{"nombre":"Arroyito","tipo":"Localidad simple","provincia":"Neuquén"},"geometry":{"type":"MultiPoint","coordinates":[[-68.5726,-39.0744]]}},{"type":"Feature","properties":{"nombre":"Barrio Ruca Luhé","tipo":"Localidad simple","provincia":"Neuquén"},"geometry":{"type":"MultiPoint","coordinates":[[-68.1607,-38.7592]]}},{"type":"Feature","properties":{"nombre":"Centenario","tipo":"Localidad simple","provincia":"Neuquén"},"geometry":{"type":"MultiPoint","coordinates":[[-68.1215,-38.8302]]}},{"type":"Feature","properties":{"nombre":"Neuquén","tipo":"Componente de localidad compuesta","provincia":"Neuquén"},"geometry":{"type":"MultiPoint","coordinates":[[-68.0592,-38.9518]]}},{"type":"Feature","properties":{"nombre":"11 De Octubre","tipo":"Localidad simple","provincia":"Neuquén"},"geometry":{"type":"MultiPoint","coordinates":[[-68.1003,-38.8775]]}},{"type":"Feature","properties":{"nombre":"Plottier","tipo":"Componente de localidad compuesta","provincia":"Neuquén"},"geometry":{"type":"MultiPoint","coordinates":[[-68.2271,-38.9524]]}},{"type":"Feature","properties":{"nombre":"Senillosa","tipo":"Localidad simple","provincia":"Neuquén"},"geometry":{"type":"MultiPoint","coordinates":[[-68.426,-39.0101]]}},{"type":"Feature","properties":{"nombre":"Vista Alegre Sur","tipo":"Localidad simple","provincia":"Neuquén"},"geometry":{"type":"MultiPoint","coordinates":[[-68.1355,-38.773]]}},{"type":"Feature","properties":{"nombre":"Chelforó","tipo":"Localidad simple","provincia":"Río Negro"},"geometry":{"type":"MultiPoint","coordinates":[[-66.5208,-39.0877]]}},{"type":"Feature","properties":{"nombre":"Las Perlas","tipo":"Localidad simple","provincia":"Río Negro"},"geometry":{"type":"MultiPoint","coordinates":[[-68.1498,-38.9823]]}},{"type":"Feature","properties":{"nombre":"Valle Azul","tipo":"Localidad simple","provincia":"Río Negro"},"geometry":{"type":"MultiPoint","coordinates":[[-66.7876,-39.1563]]}},{"type":"Feature","properties":{"nombre":"Paso Córdova","tipo":"Componente de localidad compuesta","provincia":"Río Negro"},"geometry":{"type":"MultiPoint","coordinates":[[-67.6266,-39.1139]]}},{"type":"Feature","properties":{"nombre":"Villa San Isidro","tipo":"Localidad simple","provincia":"Río Negro"},"geometry":{"type":"MultiPoint","coordinates":[[-68.1731,-38.7067]]}},{"type":"Feature","properties":{"nombre":"Paso Córdova","tipo":"Componente de localidad compuesta","provincia":"Río Negro"},"geometry":{"type":"MultiPoint","coordinates":[[-67.6274,-39.1068]]}},{"type":"Feature","properties":{"nombre":"General Enrique Godoy","tipo":"Localidad simple","provincia":"Río Negro"},"geometry":{"type":"MultiPoint","coordinates":[[-67.1575,-39.0784]]}},{"type":"Feature","properties":{"nombre":"Barrio Guerrico","tipo":"Localidad simple","provincia":"Río Negro"},"geometry":{"type":"MultiPoint","coordinates":[[-67.7184,-39.0173]]}},{"type":"Feature","properties":{"nombre":"Barrio Unión","tipo":"Localidad simple","provincia":"Río Negro"},"geometry":{"type":"MultiPoint","coordinates":[[-67.9476,-38.9684]]}},{"type":"Feature","properties":{"nombre":"Cinco Saltos","tipo":"Localidad simple","provincia":"Río Negro"},"geometry":{"type":"MultiPoint","coordinates":[[-68.0662,-38.8276]]}},{"type":"Feature","properties":{"nombre":"Barrio Mar Del Plata","tipo":"Localidad simple","provincia":"Río Negro"},"geometry":{"type":"MultiPoint","coordinates":[[-67.6729,-39.0893]]}},{"type":"Feature","properties":{"nombre":"Barrio Norte","tipo":"Localidad simple","provincia":"Río Negro"},"geometry":{"type":"MultiPoint","coordinates":[[-68.0187,-38.8674]]}},{"type":"Feature","properties":{"nombre":"Barrio La Herradura","tipo":"Localidad simple","provincia":"Río Negro"},"geometry":{"type":"MultiPoint","coordinates":[[-67.7815,-39.0418]]}},{"type":"Feature","properties":{"nombre":"Barrio El Labrador","tipo":"Localidad simple","provincia":"Río Negro"},"geometry":{"type":"MultiPoint","coordinates":[[-68.2429,-38.6669]]}},{"type":"Feature","properties":{"nombre":"Barrio Fátima","tipo":"Localidad simple","provincia":"Río Negro"},"geometry":{"type":"MultiPoint","coordinates":[[-67.4728,-39.0573]]}},{"type":"Feature","properties":{"nombre":"Barrio Costa Este","tipo":"Localidad simple","provincia":"Río Negro"},"geometry":{"type":"MultiPoint","coordinates":[[-67.8108,-39.0292]]}},{"type":"Feature","properties":{"nombre":"Allen","tipo":"Localidad simple","provincia":"Río Negro"},"geometry":{"type":"MultiPoint","coordinates":[[-67.828,-38.9795]]}},{"type":"Feature","properties":{"nombre":"Mainqué","tipo":"Localidad simple","provincia":"Río Negro"},"geometry":{"type":"MultiPoint","coordinates":[[-67.3056,-39.0642]]}},{"type":"Feature","properties":{"nombre":"Barrio Santa Rita","tipo":"Localidad simple","provincia":"Río Negro"},"geometry":{"type":"MultiPoint","coordinates":[[-67.1027,-39.1264]]}},{"type":"Feature","properties":{"nombre":"Barrio Moño Azul","tipo":"Localidad simple","provincia":"Río Negro"},"geometry":{"type":"MultiPoint","coordinates":[[-66.8948,-39.1358]]}},{"type":"Feature","properties":{"nombre":"Barrio Mosconi","tipo":"Localidad simple","provincia":"Río Negro"},"geometry":{"type":"MultiPoint","coordinates":[[-67.591,-39.0905]]}},{"type":"Feature","properties":{"nombre":"Barrio Destacamento","tipo":"Localidad simple","provincia":"Río Negro"},"geometry":{"type":"MultiPoint","coordinates":[[-67.8703,-37.693]]}},{"type":"Feature","properties":{"nombre":"Barrio Luisillo","tipo":"Localidad simple","provincia":"Río Negro"},"geometry":{"type":"MultiPoint","coordinates":[[-67.3451,-39.0562]]}},{"type":"Feature","properties":{"nombre":"Paraje Arroyón (Bajo San Cayetano)","tipo":"Localidad simple","provincia":"Río Negro"},"geometry":{"type":"MultiPoint","coordinates":[[-68.0412,-38.7265]]}},{"type":"Feature","properties":{"nombre":"Barrio Blanco","tipo":"Localidad simple","provincia":"Río Negro"},"geometry":{"type":"MultiPoint","coordinates":[[-67.7931,-39.0353]]}},{"type":"Feature","properties":{"nombre":"Barrio Calle Ciega Nº 6","tipo":"Localidad simple","provincia":"Río Negro"},"geometry":{"type":"MultiPoint","coordinates":[[-67.7368,-39.0499]]}},{"type":"Feature","properties":{"nombre":"Barrio Costa Linda","tipo":"Localidad simple","provincia":"Río Negro"},"geometry":{"type":"MultiPoint","coordinates":[[-67.9099,-38.9431]]}},{"type":"Feature","properties":{"nombre":"Barrio Costa Oeste","tipo":"Localidad simple","provincia":"Río Negro"},"geometry":{"type":"MultiPoint","coordinates":[[-67.8407,-39.0281]]}},{"type":"Feature","properties":{"nombre":"Barrio El Maruchito","tipo":"Localidad simple","provincia":"Río Negro"},"geometry":{"type":"MultiPoint","coordinates":[[-67.7618,-38.9963]]}},{"type":"Feature","properties":{"nombre":"Barrio Frontera","tipo":"Localidad simple","provincia":"Río Negro"},"geometry":{"type":"MultiPoint","coordinates":[[-67.7058,-39.0743]]}},{"type":"Feature","properties":{"nombre":"Barrio La Ribera - Barrio Apycar","tipo":"Localidad simple","provincia":"Río Negro"},"geometry":{"type":"MultiPoint","coordinates":[[-67.5732,-39.0763]]}},{"type":"Feature","properties":{"nombre":"Puente Cero","tipo":"Localidad simple","provincia":"Río Negro"},"geometry":{"type":"MultiPoint","coordinates":[[-67.4997,-39.0291]]}},{"type":"Feature","properties":{"nombre":"Barrio María Elvira","tipo":"Localidad simple","provincia":"Río Negro"},"geometry":{"type":"MultiPoint","coordinates":[[-67.9648,-38.9916]]}},{"type":"Feature","properties":{"nombre":"Barrio Puente 83","tipo":"Localidad simple","provincia":"Río Negro"},"geometry":{"type":"MultiPoint","coordinates":[[-67.9488,-38.9587]]}},{"type":"Feature","properties":{"nombre":"Barrio Isla 10","tipo":"Localidad simple","provincia":"Río Negro"},"geometry":{"type":"MultiPoint","coordinates":[[-67.918,-38.9955]]}},{"type":"Feature","properties":{"nombre":"Barrio Santa Lucia","tipo":"Localidad simple","provincia":"Río Negro"},"geometry":{"type":"MultiPoint","coordinates":[[-67.2987,-39.0335]]}},{"type":"Feature","properties":{"nombre":"Cipolletti","tipo":"Componente de localidad compuesta","provincia":"Río Negro"},"geometry":{"type":"MultiPoint","coordinates":[[-67.9955,-38.9388]]}},{"type":"Feature","properties":{"nombre":"General Fernández Oro","tipo":"Localidad simple","provincia":"Río Negro"},"geometry":{"type":"MultiPoint","coordinates":[[-67.9292,-38.9541]]}},{"type":"Feature","properties":{"nombre":"General Roca","tipo":"Localidad simple","provincia":"Río Negro"},"geometry":{"type":"MultiPoint","coordinates":[[-67.5748,-39.0268]]}},{"type":"Feature","properties":{"nombre":"Ingeniero Luis A. Huergo","tipo":"Localidad simple","provincia":"Río Negro"},"geometry":{"type":"MultiPoint","coordinates":[[-67.2387,-39.0732]]}},{"type":"Feature","properties":{"nombre":"Villa Alberdi","tipo":"Localidad simple","provincia":"Río Negro"},"geometry":{"type":"MultiPoint","coordinates":[[-67.0468,-39.1286]]}},{"type":"Feature","properties":{"nombre":"Villa Manzano","tipo":"Localidad simple","provincia":"Río Negro"},"geometry":{"type":"MultiPoint","coordinates":[[-68.216,-38.6806]]}},{"type":"Feature","properties":{"nombre":"Barrio La Costa","tipo":"Localidad simple","provincia":"Río Negro"},"geometry":{"type":"MultiPoint","coordinates":[[-67.5568,-39.08]]}},{"type":"Feature","properties":{"nombre":"Barrio Canale","tipo":"Localidad simple","provincia":"Río Negro"},"geometry":{"type":"MultiPoint","coordinates":[[-67.6385,-39.0689]]}},{"type":"Feature","properties":{"nombre":"Barrio Chacra Monte","tipo":"Localidad simple","provincia":"Río Negro"},"geometry":{"type":"MultiPoint","coordinates":[[-67.6357,-39.0515]]}},{"type":"Feature","properties":{"nombre":"Barrio Calle Ciega Nº 10","tipo":"Localidad simple","provincia":"Río Negro"},"geometry":{"type":"MultiPoint","coordinates":[[-67.8034,-39.0223]]}},{"type":"Feature","properties":{"nombre":"Barrio El Petróleo","tipo":"Localidad simple","provincia":"Río Negro"},"geometry":{"type":"MultiPoint","coordinates":[[-67.5116,-39.0624]]}},{"type":"Feature","properties":{"nombre":"Barrio Emergente","tipo":"Localidad simple","provincia":"Río Negro"},"geometry":{"type":"MultiPoint","coordinates":[[-67.8488,-39.0013]]}},{"type":"Feature","properties":{"nombre":"Barrio La Costa","tipo":"Localidad simple","provincia":"Río Negro"},"geometry":{"type":"MultiPoint","coordinates":[[-67.2034,-39.0923]]}},{"type":"Feature","properties":{"nombre":"Barrio La Defensa","tipo":"Localidad simple","provincia":"Río Negro"},"geometry":{"type":"MultiPoint","coordinates":[[-67.3873,-39.0311]]}},{"type":"Feature","properties":{"nombre":"Barrio La Barda","tipo":"Localidad simple","provincia":"Río Negro"},"geometry":{"type":"MultiPoint","coordinates":[[-67.2175,-39.0508]]}},{"type":"Feature","properties":{"nombre":"Barrio Porvenir","tipo":"Localidad simple","provincia":"Río Negro"},"geometry":{"type":"MultiPoint","coordinates":[[-67.4569,-39.0446]]}},{"type":"Feature","properties":{"nombre":"Cervantes","tipo":"Localidad simple","provincia":"Río Negro"},"geometry":{"type":"MultiPoint","coordinates":[[-67.3942,-39.054]]}},{"type":"Feature","properties":{"nombre":"Chichinales","tipo":"Localidad simple","provincia":"Río Negro"},"geometry":{"type":"MultiPoint","coordinates":[[-66.9423,-39.1147]]}},{"type":"Feature","properties":{"nombre":"Contralmirante Cordero","tipo":"Localidad simple","provincia":"Río Negro"},"geometry":{"type":"MultiPoint","coordinates":[[-68.0997,-38.7577]]}},{"type":"Feature","properties":{"nombre":"Ferri","tipo":"Localidad simple","provincia":"Río Negro"},"geometry":{"type":"MultiPoint","coordinates":[[-68.0075,-38.8879]]}},{"type":"Feature","properties":{"nombre":"Ingeniero Otto Krause","tipo":"Localidad simple","provincia":"Río Negro"},"geometry":{"type":"MultiPoint","coordinates":[[-66.9981,-39.1072]]}},{"type":"Feature","properties":{"nombre":"Sargento Vidal","tipo":"Localidad simple","provincia":"Río Negro"},"geometry":{"type":"MultiPoint","coordinates":[[-68.1586,-38.6864]]}},{"type":"Feature","properties":{"nombre":"Villa Regina","tipo":"Localidad simple","provincia":"Río Negro"},"geometry":{"type":"MultiPoint","coordinates":[[-67.0824,-39.0946]]}},{"type":"Feature","properties":{"nombre":"Villa Del Parque","tipo":"Localidad simple","provincia":"Río Negro"},"geometry":{"type":"MultiPoint","coordinates":[[-66.9975,-39.1261]]}},{"type":"Feature","properties":{"nombre":"Gobernador Duval","tipo":"Localidad simple","provincia":"La Pampa"},"geometry":{"type":"MultiPoint","coordinates":[[-66.4354,-38.7429]]}},{"type":"Feature","properties":{"nombre":"Puelén","tipo":"Localidad simple","provincia":"La Pampa"},"geometry":{"type":"MultiPoint","coordinates":[[-67.6196,-37.3442]]}},{"type":"Feature","properties":{"nombre":"Casa De Piedra","tipo":"Localidad simple","provincia":"La Pampa"},"geometry":{"type":"MultiPoint","coordinates":[[-67.1525,-38.1546]]}},{"type":"Feature","properties":{"nombre":"25 De Mayo","tipo":"Localidad simple","provincia":"La Pampa"},"geometry":{"type":"MultiPoint","coordinates":[[-67.7135,-37.7749]]}},{"type":"Feature","properties":{"nombre":"Mari Menuco","tipo":"Localidad simple","provincia":"Neuquén"},"geometry":{"type":"MultiPoint","coordinates":[[-68.5452,-38.5414]]}},{"type":"Feature","properties":{"nombre":"Vista Alegre Norte","tipo":"Localidad simple","provincia":"Neuquén"},"geometry":{"type":"MultiPoint","coordinates":[[-68.1728,-38.7342]]}},{"type":"Feature","properties":{"nombre":"Octavio Pico","tipo":"Localidad simple","provincia":"Neuquén"},"geometry":{"type":"MultiPoint","coordinates":[[-68.2583,-37.5896]]}},{"type":"Feature","properties":{"nombre":"Barrio Pinar","tipo":"Localidad simple","provincia":"Río Negro"},"geometry":{"type":"MultiPoint","coordinates":[[-67.8737,-37.6795]]}},{"type":"Feature","properties":{"nombre":"Catriel","tipo":"Localidad simple","provincia":"Río Negro"},"geometry":{"type":"MultiPoint","coordinates":[[-67.7945,-37.8755]]}},{"type":"Feature","properties":{"nombre":"Península Ruca Co","tipo":"Localidad simple","provincia":"Río Negro"},"geometry":{"type":"MultiPoint","coordinates":[[-68.0282,-38.7017]]}},{"type":"Feature","properties":{"nombre":"Barda Del Medio","tipo":"Localidad simple","provincia":"Río Negro"},"geometry":{"type":"MultiPoint","coordinates":[[-68.1559,-38.7256]]}},{"type":"Feature","properties":{"nombre":"Malargüe","tipo":"Localidad simple","provincia":"Mendoza"},"geometry":{"type":"MultiPoint","coordinates":[[-69.5847,-35.4684]]}},{"type":"Feature","properties":{"nombre":"Las Leñas","tipo":"Localidad simple","provincia":"Mendoza"},"geometry":{"type":"MultiPoint","coordinates":[[-70.0821,-35.1476]]}},{"type":"Feature","properties":{"nombre":"El Sosneado","tipo":"Localidad simple","provincia":"Mendoza"},"geometry":{"type":"MultiPoint","coordinates":[[-69.5825,-35.081]]}}]}