{"type":"FeatureCollection","features":[{"type":"Feature","properties":{"yacimiento":"AGUA DE AFUERA","pozos":4,"boe_acum_mboe":189.6,"npv_musd_mediano":-7.88,"vaca_muerta":4,"operador_principal":"CONTINENTAL RESOURCES ARGENTINA SAU.","boe_por_pozo_mboe":47.4},"geometry":{"type":"Point","coordinates":[-69.21137,-37.43908]}},{"type":"Feature","properties":{"yacimiento":"AGUA DEL CAJON","pozos":21,"boe_acum_mboe":2216.1,"npv_musd_mediano":-0.92,"vaca_muerta":16,"operador_principal":"Capex","boe_por_pozo_mboe":105.5},"geometry":{"type":"Point","coordinates":[-68.44512,-38.8352]}},{"type":"Feature","properties":{"yacimiento":"AGUADA CÁNEPA","pozos":12,"boe_acum_mboe":5761.1,"npv_musd_mediano":14.42,"vaca_muerta":12,"operador_principal":"Pan American Energy","boe_por_pozo_mboe":480.1},"geometry":{"type":"Point","coordinates":[-68.49288,-38.06589]}},{"type":"Feature","properties":{"yacimiento":"AGUADA DE CASTRO","pozos":10,"boe_acum_mboe":10149.2,"npv_musd_mediano":null,"vaca_muerta":10,"operador_principal":"Pan American Energy","boe_por_pozo_mboe":1014.9},"geometry":{"type":"Point","coordinates":[-69.58105,-38.26283]}},{"type":"Feature","properties":{"yacimiento":"AGUADA DE LA ARENA","pozos":41,"boe_acum_mboe":46020.5,"npv_musd_mediano":null,"vaca_muerta":41,"operador_principal":"YPF","boe_por_pozo_mboe":1122.5},"geometry":{"type":"Point","coordinates":[-69.15457,-38.21404]}},{"type":"Feature","properties":{"yacimiento":"AGUADA DEL CHIVATO","pozos":2,"boe_acum_mboe":189.3,"npv_musd_mediano":-7.96,"vaca_muerta":2,"operador_principal":"PATAGONIA ENERGY S.A.","boe_por_pozo_mboe":94.6},"geometry":{"type":"Point","coordinates":[-69.00981,-37.47722]}},{"type":"Feature","properties":{"yacimiento":"AGUADA DEL PONCHO","pozos":1,"boe_acum_mboe":40.7,"npv_musd_mediano":-7.96,"vaca_muerta":1,"operador_principal":"Vista Energy","boe_por_pozo_mboe":40.7},"geometry":{"type":"Point","coordinates":[-68.65566,-38.15165]}},{"type":"Feature","properties":{"yacimiento":"AGUADA FEDERAL","pozos":30,"boe_acum_mboe":9315.3,"npv_musd_mediano":3.68,"vaca_muerta":30,"operador_principal":"Vista Energy","boe_por_pozo_mboe":310.5},"geometry":{"type":"Point","coordinates":[-68.71264,-38.08966]}},{"type":"Feature","properties":{"yacimiento":"AGUADA LOS LOROS","pozos":7,"boe_acum_mboe":5308.7,"npv_musd_mediano":3.68,"vaca_muerta":7,"operador_principal":"Pluspetrol","boe_por_pozo_mboe":758.4},"geometry":{"type":"Point","coordinates":[-69.28752,-37.71255]}},{"type":"Feature","properties":{"yacimiento":"AGUADA PICHANA ESTE MULICHINCO","pozos":37,"boe_acum_mboe":39384.8,"npv_musd_mediano":null,"vaca_muerta":0,"operador_principal":"TotalEnergies","boe_por_pozo_mboe":1064.5},"geometry":{"type":"Point","coordinates":[-69.21664,-38.2479]}},{"type":"Feature","properties":{"yacimiento":"AGUADA PICHANA ESTE VACA MUERTA","pozos":100,"boe_acum_mboe":130333.7,"npv_musd_mediano":null,"vaca_muerta":100,"operador_principal":"TotalEnergies","boe_por_pozo_mboe":1303.3},"geometry":{"type":"Point","coordinates":[-69.17403,-38.37852]}},{"type":"Feature","properties":{"yacimiento":"AGUADA PICHANA OESTE","pozos":57,"boe_acum_mboe":84441.7,"npv_musd_mediano":null,"vaca_muerta":57,"operador_principal":"Pan American Energy","boe_por_pozo_mboe":1481.4},"geometry":{"type":"Point","coordinates":[-69.36636,-38.49401]}},{"type":"Feature","properties":{"yacimiento":"AGUADA SAN ROQUE","pozos":1,"boe_acum_mboe":12.6,"npv_musd_mediano":null,"vaca_muerta":0,"operador_principal":"TotalEnergies","boe_por_pozo_mboe":12.6},"geometry":{"type":"Point","coordinates":[-68.88076,-37.9971]}},{"type":"Feature","properties":{"yacimiento":"AGUADA VILLANUEVA NORTE","pozos":2,"boe_acum_mboe":1064.0,"npv_musd_mediano":null,"vaca_muerta":2,"operador_principal":"YPF","boe_por_pozo_mboe":532.0},"geometry":{"type":"Point","coordinates":[-69.28381,-38.77244]}},{"type":"Feature","properties":{"yacimiento":"AGUILA MORA","pozos":5,"boe_acum_mboe":1503.1,"npv_musd_mediano":9.98,"vaca_muerta":5,"operador_principal":"Vista Energy","boe_por_pozo_mboe":300.6},"geometry":{"type":"Point","coordinates":[-69.07678,-37.68729]}},{"type":"Feature","properties":{"yacimiento":"ANGOSTURA","pozos":5,"boe_acum_mboe":768.7,"npv_musd_mediano":null,"vaca_muerta":0,"operador_principal":"PRESIDENT PETROLEUM S.A.","boe_por_pozo_mboe":153.7},"geometry":{"type":"Point","coordinates":[-67.59432,-38.32732]}},{"type":"Feature","properties":{"yacimiento":"ANTICLINAL CAMPAMENTO","pozos":2,"boe_acum_mboe":293.1,"npv_musd_mediano":null,"vaca_muerta":0,"operador_principal":"OILSTONE ENERGIA S.A.","boe_por_pozo_mboe":146.6},"geometry":{"type":"Point","coordinates":[-69.71774,-39.00228]}},{"type":"Feature","properties":{"yacimiento":"ANTICLINAL CAMPAMENTO OESTE","pozos":11,"boe_acum_mboe":3236.9,"npv_musd_mediano":null,"vaca_muerta":0,"operador_principal":"OILSTONE ENERGIA S.A.","boe_por_pozo_mboe":294.3},"geometry":{"type":"Point","coordinates":[-69.79636,-38.96561]}},{"type":"Feature","properties":{"yacimiento":"ANTICLINAL CAMPAMENTO SUR","pozos":9,"boe_acum_mboe":5298.7,"npv_musd_mediano":null,"vaca_muerta":0,"operador_principal":"OILSTONE ENERGIA S.A.","boe_por_pozo_mboe":588.7},"geometry":{"type":"Point","coordinates":[-69.7147,-39.02261]}},{"type":"Feature","properties":{"yacimiento":"BAJADA DE AÑELO","pozos":29,"boe_acum_mboe":9076.7,"npv_musd_mediano":8.56,"vaca_muerta":29,"operador_principal":"Shell","boe_por_pozo_mboe":313.0},"geometry":{"type":"Point","coordinates":[-69.00716,-38.20888]}},{"type":"Feature","properties":{"yacimiento":"BAJADA DEL PALO","pozos":2,"boe_acum_mboe":429.0,"npv_musd_mediano":-5.12,"vaca_muerta":2,"operador_principal":"Vista Energy","boe_por_pozo_mboe":214.5},"geometry":{"type":"Point","coordinates":[-68.33487,-38.12965]}},{"type":"Feature","properties":{"yacimiento":"BAJADA DEL PALO ESTE","pozos":33,"boe_acum_mboe":12531.3,"npv_musd_mediano":22.33,"vaca_muerta":33,"operador_principal":"Vista Energy","boe_por_pozo_mboe":379.7},"geometry":{"type":"Point","coordinates":[-68.4093,-38.18486]}},{"type":"Feature","properties":{"yacimiento":"BAJADA DEL PALO OESTE","pozos":162,"boe_acum_mboe":79251.4,"npv_musd_mediano":18.71,"vaca_muerta":162,"operador_principal":"Vista Energy","boe_por_pozo_mboe":489.2},"geometry":{"type":"Point","coordinates":[-68.59229,-38.19962]}},{"type":"Feature","properties":{"yacimiento":"BAJO DEL CHOIQUE","pozos":45,"boe_acum_mboe":31127.1,"npv_musd_mediano":28.23,"vaca_muerta":45,"operador_principal":"Pluspetrol","boe_por_pozo_mboe":691.7},"geometry":{"type":"Point","coordinates":[-69.14721,-37.71177]}},{"type":"Feature","properties":{"yacimiento":"BAJO DEL TORO","pozos":1,"boe_acum_mboe":316.7,"npv_musd_mediano":null,"vaca_muerta":1,"operador_principal":"YPF","boe_por_pozo_mboe":316.7},"geometry":{"type":"Point","coordinates":[-69.04522,-37.58334]}},{"type":"Feature","properties":{"yacimiento":"BAJO DEL TORO NORTE","pozos":26,"boe_acum_mboe":6449.1,"npv_musd_mediano":7.44,"vaca_muerta":26,"operador_principal":"YPF","boe_por_pozo_mboe":248.0},"geometry":{"type":"Point","coordinates":[-69.07769,-37.52816]}},{"type":"Feature","properties":{"yacimiento":"BAJO GUANACO","pozos":1,"boe_acum_mboe":1.4,"npv_musd_mediano":null,"vaca_muerta":1,"operador_principal":"ARGENTA ENERGIA S.A.","boe_por_pozo_mboe":1.4},"geometry":{"type":"Point","coordinates":[-69.75156,-38.79633]}},{"type":"Feature","properties":{"yacimiento":"BANDURRIA CENTRO","pozos":25,"boe_acum_mboe":6818.1,"npv_musd_mediano":-0.82,"vaca_muerta":24,"operador_principal":"Pan American Energy","boe_por_pozo_mboe":272.7},"geometry":{"type":"Point","coordinates":[-68.81403,-38.18942]}},{"type":"Feature","properties":{"yacimiento":"BANDURRIA NORTE","pozos":5,"boe_acum_mboe":659.0,"npv_musd_mediano":-6.02,"vaca_muerta":5,"operador_principal":"Vista Energy","boe_por_pozo_mboe":131.8},"geometry":{"type":"Point","coordinates":[-69.01406,-38.12492]}},{"type":"Feature","properties":{"yacimiento":"BANDURRIA SUR","pozos":237,"boe_acum_mboe":103951.8,"npv_musd_mediano":14.86,"vaca_muerta":236,"operador_principal":"YPF","boe_por_pozo_mboe":438.6},"geometry":{"type":"Point","coordinates":[-68.70327,-38.29092]}},{"type":"Feature","properties":{"yacimiento":"BARDA GONZALEZ","pozos":2,"boe_acum_mboe":510.5,"npv_musd_mediano":0.09,"vaca_muerta":1,"operador_principal":"BENTIA ENERGY S.A.","boe_por_pozo_mboe":255.2},"geometry":{"type":"Point","coordinates":[-69.12212,-38.83919]}},{"type":"Feature","properties":{"yacimiento":"BARREALES COLORADOS","pozos":1,"boe_acum_mboe":40.2,"npv_musd_mediano":null,"vaca_muerta":0,"operador_principal":"YPF","boe_por_pozo_mboe":40.2},"geometry":{"type":"Point","coordinates":[-68.84714,-38.44704]}},{"type":"Feature","properties":{"yacimiento":"BARROSA NORTE","pozos":21,"boe_acum_mboe":8091.5,"npv_musd_mediano":null,"vaca_muerta":0,"operador_principal":"YPF","boe_por_pozo_mboe":385.3},"geometry":{"type":"Point","coordinates":[-68.87797,-38.7096]}},{"type":"Feature","properties":{"yacimiento":"BORDE MONTUOSO","pozos":1,"boe_acum_mboe":58.9,"npv_musd_mediano":-6.8,"vaca_muerta":1,"operador_principal":"Vista Energy","boe_por_pozo_mboe":58.9},"geometry":{"type":"Point","coordinates":[-68.52858,-38.21291]}},{"type":"Feature","properties":{"yacimiento":"CAMPO INDIO","pozos":121,"boe_acum_mboe":43215.9,"npv_musd_mediano":null,"vaca_muerta":0,"operador_principal":"COMPAÑÍA GENERAL DE COMBUSTIBLES S.A.","boe_por_pozo_mboe":357.2},"geometry":{"type":"Point","coordinates":[-70.67268,-50.75378]}},{"type":"Feature","properties":{"yacimiento":"CAÑADON DEUS","pozos":2,"boe_acum_mboe":22.8,"npv_musd_mediano":null,"vaca_muerta":0,"operador_principal":"COMPAÑÍA GENERAL DE COMBUSTIBLES S.A.","boe_por_pozo_mboe":11.4},"geometry":{"type":"Point","coordinates":[-71.16273,-50.55211]}},{"type":"Feature","properties":{"yacimiento":"CAÑADON SECO","pozos":10,"boe_acum_mboe":2850.3,"npv_musd_mediano":null,"vaca_muerta":0,"operador_principal":"COMPAÑÍA GENERAL DE COMBUSTIBLES S.A.","boe_por_pozo_mboe":285.0},"geometry":{"type":"Point","coordinates":[-67.47903,-46.55905]}},{"type":"Feature","properties":{"yacimiento":"CENTENARIO CENTRO","pozos":130,"boe_acum_mboe":23570.1,"npv_musd_mediano":-10.23,"vaca_muerta":2,"operador_principal":"FLXS OGE S.A ","boe_por_pozo_mboe":181.3},"geometry":{"type":"Point","coordinates":[-68.22741,-38.9166]}},{"type":"Feature","properties":{"yacimiento":"CERRO ARENA","pozos":3,"boe_acum_mboe":37.0,"npv_musd_mediano":null,"vaca_muerta":2,"operador_principal":"YPF","boe_por_pozo_mboe":12.3},"geometry":{"type":"Point","coordinates":[-69.6298,-37.97282]}},{"type":"Feature","properties":{"yacimiento":"CERRO AVISPA","pozos":1,"boe_acum_mboe":5.7,"npv_musd_mediano":null,"vaca_muerta":1,"operador_principal":"YPF","boe_por_pozo_mboe":5.7},"geometry":{"type":"Point","coordinates":[-68.54006,-37.77376]}},{"type":"Feature","properties":{"yacimiento":"CERRO LAS MINAS","pozos":1,"boe_acum_mboe":24.5,"npv_musd_mediano":null,"vaca_muerta":1,"operador_principal":"YPF","boe_por_pozo_mboe":24.5},"geometry":{"type":"Point","coordinates":[-69.6089,-37.657]}},{"type":"Feature","properties":{"yacimiento":"CERRO LAS NIÑAS","pozos":5,"boe_acum_mboe":2162.5,"npv_musd_mediano":null,"vaca_muerta":5,"operador_principal":"Tecpetrol","boe_por_pozo_mboe":432.5},"geometry":{"type":"Point","coordinates":[-69.39807,-37.62666]}},{"type":"Feature","properties":{"yacimiento":"CERRO PARTIDO","pozos":1,"boe_acum_mboe":4.6,"npv_musd_mediano":null,"vaca_muerta":1,"operador_principal":"YPF","boe_por_pozo_mboe":4.6},"geometry":{"type":"Point","coordinates":[-69.80532,-38.64398]}},{"type":"Feature","properties":{"yacimiento":"CHALLACO","pozos":1,"boe_acum_mboe":0.2,"npv_musd_mediano":null,"vaca_muerta":1,"operador_principal":"OILSTONE ENERGIA S.A.","boe_por_pozo_mboe":0.2},"geometry":{"type":"Point","coordinates":[-68.90982,-38.9837]}},{"type":"Feature","properties":{"yacimiento":"CHARCO BAYO","pozos":5,"boe_acum_mboe":575.1,"npv_musd_mediano":null,"vaca_muerta":0,"operador_principal":"TANGO ENERGY ARGENTINA S.A.","boe_por_pozo_mboe":115.0},"geometry":{"type":"Point","coordinates":[-68.10231,-38.18104]}},{"type":"Feature","properties":{"yacimiento":"CHIHUIDO DE LA SIERRA NEGRA","pozos":3,"boe_acum_mboe":1244.8,"npv_musd_mediano":3.68,"vaca_muerta":2,"operador_principal":"YPF","boe_por_pozo_mboe":414.9},"geometry":{"type":"Point","coordinates":[-69.17479,-37.34923]}},{"type":"Feature","properties":{"yacimiento":"CN VII A","pozos":1,"boe_acum_mboe":506.7,"npv_musd_mediano":5.19,"vaca_muerta":1,"operador_principal":"YPF","boe_por_pozo_mboe":506.7},"geometry":{"type":"Point","coordinates":[-69.47661,-37.08546]}},{"type":"Feature","properties":{"yacimiento":"COIRON AMARGO SUR ESTE","pozos":41,"boe_acum_mboe":14221.0,"npv_musd_mediano":14.16,"vaca_muerta":41,"operador_principal":"Pan American Energy","boe_por_pozo_mboe":346.9},"geometry":{"type":"Point","coordinates":[-68.37233,-38.34748]}},{"type":"Feature","properties":{"yacimiento":"COIRON AMARGO SUR OESTE","pozos":39,"boe_acum_mboe":14194.2,"npv_musd_mediano":8.78,"vaca_muerta":39,"operador_principal":"Shell","boe_por_pozo_mboe":364.0},"geometry":{"type":"Point","coordinates":[-68.47898,-38.40424]}},{"type":"Feature","properties":{"yacimiento":"CONFLUENCIA NORTE","pozos":4,"boe_acum_mboe":2314.4,"npv_musd_mediano":22.81,"vaca_muerta":4,"operador_principal":"Phoenix Global Resources","boe_por_pozo_mboe":578.6},"geometry":{"type":"Point","coordinates":[-68.24891,-38.46929]}},{"type":"Feature","properties":{"yacimiento":"CONFLUENCIA SUR","pozos":3,"boe_acum_mboe":879.0,"npv_musd_mediano":7.39,"vaca_muerta":3,"operador_principal":"Phoenix Global Resources","boe_por_pozo_mboe":293.0},"geometry":{"type":"Point","coordinates":[-68.24843,-38.52972]}},{"type":"Feature","properties":{"yacimiento":"CORRALERA NORESTE","pozos":2,"boe_acum_mboe":7.1,"npv_musd_mediano":null,"vaca_muerta":2,"operador_principal":"Phoenix Global Resources","boe_por_pozo_mboe":3.6},"geometry":{"type":"Point","coordinates":[-69.39148,-37.21953]}},{"type":"Feature","properties":{"yacimiento":"CORRALERA SUR","pozos":1,"boe_acum_mboe":1.1,"npv_musd_mediano":null,"vaca_muerta":1,"operador_principal":"Phoenix Global Resources","boe_por_pozo_mboe":1.1},"geometry":{"type":"Point","coordinates":[-69.54396,-37.25994]}},{"type":"Feature","properties":{"yacimiento":"CRUZ DE LORENA","pozos":71,"boe_acum_mboe":31950.2,"npv_musd_mediano":13.18,"vaca_muerta":71,"operador_principal":"Shell","boe_por_pozo_mboe":450.0},"geometry":{"type":"Point","coordinates":[-68.51708,-38.357]}},{"type":"Feature","properties":{"yacimiento":"CUPEN","pozos":1,"boe_acum_mboe":286.6,"npv_musd_mediano":null,"vaca_muerta":0,"operador_principal":"YPF","boe_por_pozo_mboe":286.6},"geometry":{"type":"Point","coordinates":[-68.9499,-38.74319]}},{"type":"Feature","properties":{"yacimiento":"CUPEN MAHUIDA","pozos":181,"boe_acum_mboe":83591.0,"npv_musd_mediano":null,"vaca_muerta":0,"operador_principal":"YPF","boe_por_pozo_mboe":461.8},"geometry":{"type":"Point","coordinates":[-68.91931,-38.75326]}},{"type":"Feature","properties":{"yacimiento":"CURAMCHED","pozos":1,"boe_acum_mboe":79.6,"npv_musd_mediano":-7.44,"vaca_muerta":1,"operador_principal":"Chevron","boe_por_pozo_mboe":79.6},"geometry":{"type":"Point","coordinates":[-69.54439,-37.38617]}},{"type":"Feature","properties":{"yacimiento":"CURAMHUELE","pozos":1,"boe_acum_mboe":8.4,"npv_musd_mediano":null,"vaca_muerta":0,"operador_principal":"MADALENA ENERGY ARGENTINA SRL ","boe_por_pozo_mboe":8.4},"geometry":{"type":"Point","coordinates":[-69.72461,-37.39634]}},{"type":"Feature","properties":{"yacimiento":"DOS PUNTITAS","pozos":2,"boe_acum_mboe":114.2,"npv_musd_mediano":null,"vaca_muerta":0,"operador_principal":"PRESIDENT PETROLEUM S.A.","boe_por_pozo_mboe":57.1},"geometry":{"type":"Point","coordinates":[-63.98416,-24.12044]}},{"type":"Feature","properties":{"yacimiento":"EL CARACOL","pozos":1,"boe_acum_mboe":99.5,"npv_musd_mediano":-9.03,"vaca_muerta":1,"operador_principal":"TANGO ENERGY ARGENTINA S.A.","boe_por_pozo_mboe":99.5},"geometry":{"type":"Point","coordinates":[-68.4524,-37.95417]}},{"type":"Feature","properties":{"yacimiento":"EL CERRITO               ","pozos":6,"boe_acum_mboe":1505.2,"npv_musd_mediano":null,"vaca_muerta":0,"operador_principal":"COMPAÑÍA GENERAL DE COMBUSTIBLES S.A.","boe_por_pozo_mboe":250.9},"geometry":{"type":"Point","coordinates":[-70.87029,-50.65577]}},{"type":"Feature","properties":{"yacimiento":"EL CERRITO NORTE","pozos":12,"boe_acum_mboe":2275.8,"npv_musd_mediano":null,"vaca_muerta":0,"operador_principal":"COMPAÑÍA GENERAL DE COMBUSTIBLES S.A.","boe_por_pozo_mboe":189.6},"geometry":{"type":"Point","coordinates":[-71.3233,-50.53901]}},{"type":"Feature","properties":{"yacimiento":"EL CERRITO OESTE","pozos":47,"boe_acum_mboe":13448.9,"npv_musd_mediano":null,"vaca_muerta":0,"operador_principal":"COMPAÑÍA GENERAL DE COMBUSTIBLES S.A.","boe_por_pozo_mboe":286.1},"geometry":{"type":"Point","coordinates":[-71.15291,-50.63325]}},{"type":"Feature","properties":{"yacimiento":"EL CORDON OESTE","pozos":2,"boe_acum_mboe":889.6,"npv_musd_mediano":null,"vaca_muerta":0,"operador_principal":"YPF","boe_por_pozo_mboe":444.8},"geometry":{"type":"Point","coordinates":[-68.72762,-38.63028]}},{"type":"Feature","properties":{"yacimiento":"EL MANGRULLO","pozos":103,"boe_acum_mboe":131058.7,"npv_musd_mediano":null,"vaca_muerta":17,"operador_principal":"Pampa Energia","boe_por_pozo_mboe":1272.4},"geometry":{"type":"Point","coordinates":[-69.42206,-38.57608]}},{"type":"Feature","properties":{"yacimiento":"EL OREJANO","pozos":90,"boe_acum_mboe":64704.0,"npv_musd_mediano":null,"vaca_muerta":90,"operador_principal":"YPF","boe_por_pozo_mboe":718.9},"geometry":{"type":"Point","coordinates":[-69.21647,-37.99305]}},{"type":"Feature","properties":{"yacimiento":"EL PUMA","pozos":5,"boe_acum_mboe":1689.6,"npv_musd_mediano":null,"vaca_muerta":0,"operador_principal":"COMPAÑÍA GENERAL DE COMBUSTIBLES S.A.","boe_por_pozo_mboe":337.9},"geometry":{"type":"Point","coordinates":[-71.3407,-50.61208]}},{"type":"Feature","properties":{"yacimiento":"EL SALITRAL","pozos":121,"boe_acum_mboe":19848.7,"npv_musd_mediano":null,"vaca_muerta":0,"operador_principal":"Capex","boe_por_pozo_mboe":164.0},"geometry":{"type":"Point","coordinates":[-68.29151,-38.91979]}},{"type":"Feature","properties":{"yacimiento":"EL TORDILLO","pozos":2,"boe_acum_mboe":55.8,"npv_musd_mediano":null,"vaca_muerta":0,"operador_principal":"CROWN POINT ENERGIA S.A.","boe_por_pozo_mboe":27.9},"geometry":{"type":"Point","coordinates":[-67.92968,-45.8841]}},{"type":"Feature","properties":{"yacimiento":"EL TRAPIAL","pozos":10,"boe_acum_mboe":3700.9,"npv_musd_mediano":7.2,"vaca_muerta":10,"operador_principal":"Chevron","boe_por_pozo_mboe":370.1},"geometry":{"type":"Point","coordinates":[-69.37851,-37.47493]}},{"type":"Feature","properties":{"yacimiento":"EL TRAPIAL ESTE","pozos":35,"boe_acum_mboe":16026.7,"npv_musd_mediano":25.84,"vaca_muerta":35,"operador_principal":"Chevron","boe_por_pozo_mboe":457.9},"geometry":{"type":"Point","coordinates":[-69.3733,-37.47862]}},{"type":"Feature","properties":{"yacimiento":"EL TREBOL","pozos":1,"boe_acum_mboe":65.8,"npv_musd_mediano":null,"vaca_muerta":0,"operador_principal":"PECOM SERVICIOS ENERGIA SAU","boe_por_pozo_mboe":65.8},"geometry":{"type":"Point","coordinates":[-67.71644,-45.80875]}},{"type":"Feature","properties":{"yacimiento":"EL TRIANGULO","pozos":1,"boe_acum_mboe":125.3,"npv_musd_mediano":null,"vaca_muerta":0,"operador_principal":"YPF","boe_por_pozo_mboe":125.3},"geometry":{"type":"Point","coordinates":[-68.8151,-38.7205]}},{"type":"Feature","properties":{"yacimiento":"ESTACION FERNANDEZ ORO","pozos":191,"boe_acum_mboe":78199.0,"npv_musd_mediano":null,"vaca_muerta":0,"operador_principal":"QUINTANA E&P ARGENTINA S.R.L.","boe_por_pozo_mboe":409.4},"geometry":{"type":"Point","coordinates":[-67.83785,-39.01726]}},{"type":"Feature","properties":{"yacimiento":"ESTANCIA CAMPOS","pozos":1,"boe_acum_mboe":11.2,"npv_musd_mediano":null,"vaca_muerta":0,"operador_principal":"COMPAÑÍA GENERAL DE COMBUSTIBLES S.A.","boe_por_pozo_mboe":11.2},"geometry":{"type":"Point","coordinates":[-70.83313,-50.85118]}},{"type":"Feature","properties":{"yacimiento":"ESTANCIA CHOLITA","pozos":1,"boe_acum_mboe":2.8,"npv_musd_mediano":null,"vaca_muerta":0,"operador_principal":"ROCH S.A.","boe_por_pozo_mboe":2.8},"geometry":{"type":"Point","coordinates":[-69.56877,-46.40382]}},{"type":"Feature","properties":{"yacimiento":"FILO MORADO","pozos":2,"boe_acum_mboe":229.3,"npv_musd_mediano":null,"vaca_muerta":0,"operador_principal":"YPF","boe_por_pozo_mboe":114.6},"geometry":{"type":"Point","coordinates":[-69.62587,-37.33945]}},{"type":"Feature","properties":{"yacimiento":"FORTIN DE PIEDRA","pozos":197,"boe_acum_mboe":288753.7,"npv_musd_mediano":-9.43,"vaca_muerta":197,"operador_principal":"Tecpetrol","boe_por_pozo_mboe":1465.8},"geometry":{"type":"Point","coordinates":[-69.0751,-38.50887]}},{"type":"Feature","properties":{"yacimiento":"GUANACO","pozos":38,"boe_acum_mboe":11243.0,"npv_musd_mediano":null,"vaca_muerta":0,"operador_principal":"BENTIA ENERGY S.A.","boe_por_pozo_mboe":295.9},"geometry":{"type":"Point","coordinates":[-69.23686,-38.86483]}},{"type":"Feature","properties":{"yacimiento":"HUINCUL","pozos":2,"boe_acum_mboe":333.8,"npv_musd_mediano":null,"vaca_muerta":0,"operador_principal":"BENTIA ENERGY S.A.","boe_por_pozo_mboe":166.9},"geometry":{"type":"Point","coordinates":[-69.15851,-38.89115]}},{"type":"Feature","properties":{"yacimiento":"JARILLA QUEMADA","pozos":1,"boe_acum_mboe":111.0,"npv_musd_mediano":null,"vaca_muerta":0,"operador_principal":"TANGO ENERGY ARGENTINA S.A.","boe_por_pozo_mboe":111.0},"geometry":{"type":"Point","coordinates":[-67.96379,-38.46075]}},{"type":"Feature","properties":{"yacimiento":"LA AMARGA CHICA","pozos":332,"boe_acum_mboe":145947.0,"npv_musd_mediano":9.94,"vaca_muerta":331,"operador_principal":"YPF","boe_por_pozo_mboe":439.6},"geometry":{"type":"Point","coordinates":[-68.63581,-38.22209]}},{"type":"Feature","properties":{"yacimiento":"LA ANGOSTURA SUR I","pozos":74,"boe_acum_mboe":21707.6,"npv_musd_mediano":15.67,"vaca_muerta":72,"operador_principal":"YPF","boe_por_pozo_mboe":293.3},"geometry":{"type":"Point","coordinates":[-68.68845,-38.71343]}},{"type":"Feature","properties":{"yacimiento":"LA ANGOSTURA SUR II","pozos":16,"boe_acum_mboe":6337.0,"npv_musd_mediano":20.43,"vaca_muerta":15,"operador_principal":"YPF","boe_por_pozo_mboe":396.1},"geometry":{"type":"Point","coordinates":[-68.67889,-38.63383]}},{"type":"Feature","properties":{"yacimiento":"LA CALERA","pozos":118,"boe_acum_mboe":117661.3,"npv_musd_mediano":null,"vaca_muerta":118,"operador_principal":"Pluspetrol","boe_por_pozo_mboe":997.1},"geometry":{"type":"Point","coordinates":[-69.01135,-38.34186]}},{"type":"Feature","properties":{"yacimiento":"LA ESCALONADA","pozos":8,"boe_acum_mboe":5871.8,"npv_musd_mediano":39.17,"vaca_muerta":8,"operador_principal":"VACA MUERTA INVERSIONES SAU","boe_por_pozo_mboe":734.0},"geometry":{"type":"Point","coordinates":[-69.18174,-37.71411]}},{"type":"Feature","properties":{"yacimiento":"LA ESPERANZA","pozos":2,"boe_acum_mboe":2.2,"npv_musd_mediano":-10.98,"vaca_muerta":2,"operador_principal":"OILSTONE ENERGIA S.A.","boe_por_pozo_mboe":1.1},"geometry":{"type":"Point","coordinates":[-68.86017,-39.00775]}},{"type":"Feature","properties":{"yacimiento":"LA INVERNADA","pozos":1,"boe_acum_mboe":82.7,"npv_musd_mediano":-3.06,"vaca_muerta":1,"operador_principal":"Pluspetrol","boe_por_pozo_mboe":82.7},"geometry":{"type":"Point","coordinates":[-69.27832,-37.56415]}},{"type":"Feature","properties":{"yacimiento":"LA RIBERA BLOQUE I","pozos":20,"boe_acum_mboe":14045.8,"npv_musd_mediano":null,"vaca_muerta":20,"operador_principal":"YPF","boe_por_pozo_mboe":702.3},"geometry":{"type":"Point","coordinates":[-69.01871,-38.43428]}},{"type":"Feature","properties":{"yacimiento":"LA RIBERA BLOQUE II","pozos":1,"boe_acum_mboe":158.3,"npv_musd_mediano":null,"vaca_muerta":1,"operador_principal":"YPF","boe_por_pozo_mboe":158.3},"geometry":{"type":"Point","coordinates":[-69.1171,-38.61739]}},{"type":"Feature","properties":{"yacimiento":"LAS CHIVAS NC","pozos":1,"boe_acum_mboe":257.6,"npv_musd_mediano":null,"vaca_muerta":0,"operador_principal":"Tecpetrol","boe_por_pozo_mboe":257.6},"geometry":{"type":"Point","coordinates":[-68.64794,-38.85814]}},{"type":"Feature","properties":{"yacimiento":"LAS MANADAS","pozos":3,"boe_acum_mboe":366.7,"npv_musd_mediano":-2.62,"vaca_muerta":3,"operador_principal":"BENTIA ENERGY S.A.","boe_por_pozo_mboe":122.2},"geometry":{"type":"Point","coordinates":[-69.09365,-37.78201]}},{"type":"Feature","properties":{"yacimiento":"LAS TACANAS I","pozos":1,"boe_acum_mboe":5.4,"npv_musd_mediano":null,"vaca_muerta":1,"operador_principal":"YPF","boe_por_pozo_mboe":5.4},"geometry":{"type":"Point","coordinates":[-69.4682,-38.6713]}},{"type":"Feature","properties":{"yacimiento":"LAS TACANAS II","pozos":4,"boe_acum_mboe":693.0,"npv_musd_mediano":null,"vaca_muerta":3,"operador_principal":"YPF","boe_por_pozo_mboe":173.2},"geometry":{"type":"Point","coordinates":[-69.33462,-38.70987]}},{"type":"Feature","properties":{"yacimiento":"LINDERO ATRAVESADO OCCIDENTAL","pozos":77,"boe_acum_mboe":30150.2,"npv_musd_mediano":9.75,"vaca_muerta":68,"operador_principal":"Pan American Energy","boe_por_pozo_mboe":391.6},"geometry":{"type":"Point","coordinates":[-68.4931,-38.61646]}},{"type":"Feature","properties":{"yacimiento":"LINDERO ATRAVESADO ORIENTAL","pozos":101,"boe_acum_mboe":41891.1,"npv_musd_mediano":-10.77,"vaca_muerta":1,"operador_principal":"Pan American Energy","boe_por_pozo_mboe":414.8},"geometry":{"type":"Point","coordinates":[-68.28081,-38.73007]}},{"type":"Feature","properties":{"yacimiento":"LOMA AMARILLA","pozos":1,"boe_acum_mboe":1.7,"npv_musd_mediano":null,"vaca_muerta":1,"operador_principal":"YPF","boe_por_pozo_mboe":1.7},"geometry":{"type":"Point","coordinates":[-68.7597,-37.793]}},{"type":"Feature","properties":{"yacimiento":"LOMA AMARILLA SUR","pozos":5,"boe_acum_mboe":532.9,"npv_musd_mediano":1.37,"vaca_muerta":5,"operador_principal":"YPF","boe_por_pozo_mboe":106.6},"geometry":{"type":"Point","coordinates":[-68.71592,-37.85156]}},{"type":"Feature","properties":{"yacimiento":"LOMA ANCHA","pozos":2,"boe_acum_mboe":113.5,"npv_musd_mediano":null,"vaca_muerta":2,"operador_principal":"Tecpetrol","boe_por_pozo_mboe":56.8},"geometry":{"type":"Point","coordinates":[-69.47801,-37.9157]}},{"type":"Feature","properties":{"yacimiento":"LOMA CAMPANA","pozos":193,"boe_acum_mboe":75206.5,"npv_musd_mediano":2.55,"vaca_muerta":193,"operador_principal":"YPF","boe_por_pozo_mboe":389.7},"geometry":{"type":"Point","coordinates":[-68.59842,-38.36149]}},{"type":"Feature","properties":{"yacimiento":"LOMA CAMPANA-LLL","pozos":684,"boe_acum_mboe":209394.6,"npv_musd_mediano":-6.43,"vaca_muerta":653,"operador_principal":"YPF","boe_por_pozo_mboe":306.1},"geometry":{"type":"Point","coordinates":[-68.71483,-38.36396]}},{"type":"Feature","properties":{"yacimiento":"LOMA COLORADA","pozos":64,"boe_acum_mboe":18083.8,"npv_musd_mediano":6.63,"vaca_muerta":64,"operador_principal":"YPF","boe_por_pozo_mboe":282.6},"geometry":{"type":"Point","coordinates":[-68.54531,-38.10448]}},{"type":"Feature","properties":{"yacimiento":"LOMA DE MARÍA","pozos":15,"boe_acum_mboe":13118.3,"npv_musd_mediano":null,"vaca_muerta":0,"operador_principal":"Capex","boe_por_pozo_mboe":874.6},"geometry":{"type":"Point","coordinates":[-67.65857,-38.83999]}},{"type":"Feature","properties":{"yacimiento":"LOMA DEL MOLLE","pozos":2,"boe_acum_mboe":35.5,"npv_musd_mediano":null,"vaca_muerta":2,"operador_principal":"YPF","boe_por_pozo_mboe":17.8},"geometry":{"type":"Point","coordinates":[-69.57064,-37.55969]}},{"type":"Feature","properties":{"yacimiento":"LOMA JARILLOSA ESTE","pozos":9,"boe_acum_mboe":2344.5,"npv_musd_mediano":9.56,"vaca_muerta":9,"operador_principal":"GEOPARK ARGENTINA S.A.","boe_por_pozo_mboe":260.5},"geometry":{"type":"Point","coordinates":[-68.42738,-38.24239]}},{"type":"Feature","properties":{"yacimiento":"LOMA LA LATA","pozos":5,"boe_acum_mboe":278.4,"npv_musd_mediano":-7.98,"vaca_muerta":4,"operador_principal":"YPF","boe_por_pozo_mboe":55.7},"geometry":{"type":"Point","coordinates":[-68.85986,-38.49845]}},{"type":"Feature","properties":{"yacimiento":"LOMA NEGRA NI","pozos":3,"boe_acum_mboe":511.6,"npv_musd_mediano":null,"vaca_muerta":0,"operador_principal":"OILSTONE ENERGIA S.A.","boe_por_pozo_mboe":170.5},"geometry":{"type":"Point","coordinates":[-69.38857,-38.90165]}},{"type":"Feature","properties":{"yacimiento":"LOMA RANQUELES","pozos":2,"boe_acum_mboe":210.6,"npv_musd_mediano":null,"vaca_muerta":2,"operador_principal":"Tecpetrol","boe_por_pozo_mboe":105.3},"geometry":{"type":"Point","coordinates":[-69.69626,-37.70362]}},{"type":"Feature","properties":{"yacimiento":"LOS CALDENES","pozos":4,"boe_acum_mboe":496.6,"npv_musd_mediano":null,"vaca_muerta":0,"operador_principal":"YPF","boe_por_pozo_mboe":124.2},"geometry":{"type":"Point","coordinates":[-67.97844,-38.45713]}},{"type":"Feature","properties":{"yacimiento":"LOS TOLDOS ESTE","pozos":13,"boe_acum_mboe":3525.3,"npv_musd_mediano":17.88,"vaca_muerta":13,"operador_principal":"Tecpetrol","boe_por_pozo_mboe":271.2},"geometry":{"type":"Point","coordinates":[-69.14835,-37.44709]}},{"type":"Feature","properties":{"yacimiento":"MALAL DEL MEDIO","pozos":1,"boe_acum_mboe":6.1,"npv_musd_mediano":-10.7,"vaca_muerta":1,"operador_principal":"YPF","boe_por_pozo_mboe":6.1},"geometry":{"type":"Point","coordinates":[-69.6204,-36.206]}},{"type":"Feature","properties":{"yacimiento":"MATA MORA NORTE","pozos":53,"boe_acum_mboe":16205.9,"npv_musd_mediano":9.5,"vaca_muerta":53,"operador_principal":"Phoenix Global Resources","boe_por_pozo_mboe":305.8},"geometry":{"type":"Point","coordinates":[-68.34263,-38.49295]}},{"type":"Feature","properties":{"yacimiento":"MEDANO DE LA MORA","pozos":17,"boe_acum_mboe":14378.1,"npv_musd_mediano":21.59,"vaca_muerta":17,"operador_principal":"Vista Energy","boe_por_pozo_mboe":845.8},"geometry":{"type":"Point","coordinates":[-68.66557,-38.22436]}},{"type":"Feature","properties":{"yacimiento":"MESETA BUENA ESPERANZA I","pozos":2,"boe_acum_mboe":814.9,"npv_musd_mediano":null,"vaca_muerta":2,"operador_principal":"YPF","boe_por_pozo_mboe":407.4},"geometry":{"type":"Point","coordinates":[-69.14005,-38.65459]}},{"type":"Feature","properties":{"yacimiento":"NARAMBUENA","pozos":13,"boe_acum_mboe":2450.2,"npv_musd_mediano":-2.37,"vaca_muerta":13,"operador_principal":"YPF","boe_por_pozo_mboe":188.5},"geometry":{"type":"Point","coordinates":[-69.07387,-37.42935]}},{"type":"Feature","properties":{"yacimiento":"NORTE DEL OCTOGONO","pozos":12,"boe_acum_mboe":2394.0,"npv_musd_mediano":null,"vaca_muerta":0,"operador_principal":"BENTIA ENERGY S.A.","boe_por_pozo_mboe":199.5},"geometry":{"type":"Point","coordinates":[-69.16449,-38.88598]}},{"type":"Feature","properties":{"yacimiento":"PAMPA DE LAS YEGUAS I","pozos":5,"boe_acum_mboe":6040.6,"npv_musd_mediano":null,"vaca_muerta":4,"operador_principal":"Pluspetrol","boe_por_pozo_mboe":1208.1},"geometry":{"type":"Point","coordinates":[-69.25501,-37.6069]}},{"type":"Feature","properties":{"yacimiento":"PAMPA DE LAS YEGUAS II","pozos":1,"boe_acum_mboe":10.5,"npv_musd_mediano":null,"vaca_muerta":1,"operador_principal":"TotalEnergies","boe_por_pozo_mboe":10.5},"geometry":{"type":"Point","coordinates":[-69.1342,-37.93449]}},{"type":"Feature","properties":{"yacimiento":"PARVA NEGRA","pozos":1,"boe_acum_mboe":342.5,"npv_musd_mediano":null,"vaca_muerta":1,"operador_principal":"Pampa Energia","boe_por_pozo_mboe":342.5},"geometry":{"type":"Point","coordinates":[-69.2867,-37.95673]}},{"type":"Feature","properties":{"yacimiento":"PARVA NEGRA ESTE","pozos":1,"boe_acum_mboe":521.7,"npv_musd_mediano":null,"vaca_muerta":1,"operador_principal":"Pampa Energia","boe_por_pozo_mboe":521.7},"geometry":{"type":"Point","coordinates":[-69.28531,-37.95426]}},{"type":"Feature","properties":{"yacimiento":"PARVA NEGRA OESTE","pozos":2,"boe_acum_mboe":8.1,"npv_musd_mediano":null,"vaca_muerta":2,"operador_principal":"Capex","boe_por_pozo_mboe":4.0},"geometry":{"type":"Point","coordinates":[-69.53598,-37.81368]}},{"type":"Feature","properties":{"yacimiento":"PASO DE LAS BARDAS NORTE","pozos":4,"boe_acum_mboe":3205.2,"npv_musd_mediano":-5.37,"vaca_muerta":1,"operador_principal":"YPF","boe_por_pozo_mboe":801.3},"geometry":{"type":"Point","coordinates":[-69.4802,-37.15087]}},{"type":"Feature","properties":{"yacimiento":"PAYUN OESTE","pozos":1,"boe_acum_mboe":18.6,"npv_musd_mediano":-10.53,"vaca_muerta":1,"operador_principal":"TANGO ENERGY ARGENTINA S.A.","boe_por_pozo_mboe":18.6},"geometry":{"type":"Point","coordinates":[-69.4631,-36.8512]}},{"type":"Feature","properties":{"yacimiento":"POZOS SIN YACIMIENTO","pozos":1,"boe_acum_mboe":11.6,"npv_musd_mediano":null,"vaca_muerta":1,"operador_principal":"Vista Energy","boe_por_pozo_mboe":11.6},"geometry":{"type":"Point","coordinates":[-68.98049,-37.60164]}},{"type":"Feature","properties":{"yacimiento":"PUESTO PARADA","pozos":1,"boe_acum_mboe":428.5,"npv_musd_mediano":8.9,"vaca_muerta":1,"operador_principal":"Tecpetrol","boe_por_pozo_mboe":428.5},"geometry":{"type":"Point","coordinates":[-68.70417,-38.82046]}},{"type":"Feature","properties":{"yacimiento":"PUESTO PARADA NC","pozos":17,"boe_acum_mboe":4129.0,"npv_musd_mediano":12.25,"vaca_muerta":17,"operador_principal":"Tecpetrol","boe_por_pozo_mboe":242.9},"geometry":{"type":"Point","coordinates":[-68.59128,-38.84363]}},{"type":"Feature","properties":{"yacimiento":"PUESTO ROJAS","pozos":19,"boe_acum_mboe":789.7,"npv_musd_mediano":-8.18,"vaca_muerta":8,"operador_principal":"PETROQUIMICA COMODORO RIVADAVIA S.A.","boe_por_pozo_mboe":41.6},"geometry":{"type":"Point","coordinates":[-69.71586,-35.24621]}},{"type":"Feature","properties":{"yacimiento":"PUESTO SILVA OESTE","pozos":4,"boe_acum_mboe":297.5,"npv_musd_mediano":-7.34,"vaca_muerta":4,"operador_principal":"GEOPARK ARGENTINA S.A.","boe_por_pozo_mboe":74.4},"geometry":{"type":"Point","coordinates":[-68.27266,-38.42423]}},{"type":"Feature","properties":{"yacimiento":"PUESTO SIN NOMBRE","pozos":1,"boe_acum_mboe":43.6,"npv_musd_mediano":-10.27,"vaca_muerta":1,"operador_principal":"Vista Energy","boe_por_pozo_mboe":43.6},"geometry":{"type":"Point","coordinates":[-68.45236,-38.19995]}},{"type":"Feature","properties":{"yacimiento":"PUESTO VERA","pozos":1,"boe_acum_mboe":5.4,"npv_musd_mediano":-10.89,"vaca_muerta":1,"operador_principal":"Tecpetrol","boe_por_pozo_mboe":5.4},"geometry":{"type":"Point","coordinates":[-68.63051,-38.83482]}},{"type":"Feature","properties":{"yacimiento":"PUNTA SENILLOSA NC","pozos":10,"boe_acum_mboe":3426.7,"npv_musd_mediano":null,"vaca_muerta":0,"operador_principal":"Tecpetrol","boe_por_pozo_mboe":342.7},"geometry":{"type":"Point","coordinates":[-68.57392,-38.87826]}},{"type":"Feature","properties":{"yacimiento":"RANQUIL CO","pozos":25,"boe_acum_mboe":10022.8,"npv_musd_mediano":null,"vaca_muerta":0,"operador_principal":"OILSTONE ENERGIA S.A.","boe_por_pozo_mboe":400.9},"geometry":{"type":"Point","coordinates":[-69.19124,-39.08186]}},{"type":"Feature","properties":{"yacimiento":"RINCON DE ARANDA","pozos":44,"boe_acum_mboe":8721.6,"npv_musd_mediano":5.32,"vaca_muerta":44,"operador_principal":"Pampa Energia","boe_por_pozo_mboe":198.2},"geometry":{"type":"Point","coordinates":[-68.59101,-37.99924]}},{"type":"Feature","properties":{"yacimiento":"RINCON DE PIEDRA","pozos":1,"boe_acum_mboe":0.1,"npv_musd_mediano":null,"vaca_muerta":0,"operador_principal":"YPF","boe_por_pozo_mboe":0.1},"geometry":{"type":"Point","coordinates":[-69.36339,-38.61522]}},{"type":"Feature","properties":{"yacimiento":"RINCON DEL MANGRULLO","pozos":192,"boe_acum_mboe":118423.5,"npv_musd_mediano":null,"vaca_muerta":58,"operador_principal":"YPF","boe_por_pozo_mboe":616.8},"geometry":{"type":"Point","coordinates":[-69.32048,-38.57421]}},{"type":"Feature","properties":{"yacimiento":"RINCON LA CENIZA","pozos":16,"boe_acum_mboe":7540.6,"npv_musd_mediano":null,"vaca_muerta":16,"operador_principal":"VACA MUERTA INVERSIONES SAU","boe_por_pozo_mboe":471.3},"geometry":{"type":"Point","coordinates":[-69.21541,-37.83017]}},{"type":"Feature","properties":{"yacimiento":"RIO CHICO","pozos":1,"boe_acum_mboe":33.2,"npv_musd_mediano":null,"vaca_muerta":0,"operador_principal":"Pan American Energy","boe_por_pozo_mboe":33.2},"geometry":{"type":"Point","coordinates":[-68.49984,-45.66993]}},{"type":"Feature","properties":{"yacimiento":"RIO NEUQUEN","pozos":111,"boe_acum_mboe":104384.9,"npv_musd_mediano":12.24,"vaca_muerta":2,"operador_principal":"YPF","boe_por_pozo_mboe":940.4},"geometry":{"type":"Point","coordinates":[-68.24275,-38.71614]}},{"type":"Feature","properties":{"yacimiento":"SAN ROQUE VACA MUERTA","pozos":8,"boe_acum_mboe":1510.9,"npv_musd_mediano":0.05,"vaca_muerta":8,"operador_principal":"TotalEnergies","boe_por_pozo_mboe":188.9},"geometry":{"type":"Point","coordinates":[-68.9993,-38.00521]}},{"type":"Feature","properties":{"yacimiento":"SIERRA BARROSA","pozos":16,"boe_acum_mboe":1825.1,"npv_musd_mediano":2.74,"vaca_muerta":8,"operador_principal":"YPF","boe_por_pozo_mboe":114.1},"geometry":{"type":"Point","coordinates":[-68.78262,-38.72913]}},{"type":"Feature","properties":{"yacimiento":"SIERRA BARROSA ESTE","pozos":1,"boe_acum_mboe":57.3,"npv_musd_mediano":null,"vaca_muerta":0,"operador_principal":"YPF","boe_por_pozo_mboe":57.3},"geometry":{"type":"Point","coordinates":[-68.78064,-38.70214]}},{"type":"Feature","properties":{"yacimiento":"SIERRA CHATA","pozos":53,"boe_acum_mboe":52660.7,"npv_musd_mediano":null,"vaca_muerta":30,"operador_principal":"Pampa Energia","boe_por_pozo_mboe":993.6},"geometry":{"type":"Point","coordinates":[-69.24125,-38.12732]}},{"type":"Feature","properties":{"yacimiento":"SIERRAS BLANCAS","pozos":47,"boe_acum_mboe":20350.2,"npv_musd_mediano":12.04,"vaca_muerta":47,"operador_principal":"Shell","boe_por_pozo_mboe":433.0},"geometry":{"type":"Point","coordinates":[-68.46575,-38.47786]}},{"type":"Feature","properties":{"yacimiento":"TOTORAL","pozos":1,"boe_acum_mboe":1.2,"npv_musd_mediano":null,"vaca_muerta":1,"operador_principal":"ENERGICON S.A.","boe_por_pozo_mboe":1.2},"geometry":{"type":"Point","coordinates":[-69.80366,-39.35832]}},{"type":"Feature","properties":{"yacimiento":"VEGA GRANDE","pozos":1,"boe_acum_mboe":74.6,"npv_musd_mediano":-10.52,"vaca_muerta":1,"operador_principal":"G Y G OIL SERVICE SRL","boe_por_pozo_mboe":74.6},"geometry":{"type":"Point","coordinates":[-69.66371,-34.66911]}}]}